<?xml version="1.0" encoding="UTF-8"?>
<gpx version="1.1" creator="Camino Santiago Bonsai Café" xmlns="http://www.topografix.com/GPX/1/1"><metadata><name>O Porriño → Redondela</name><desc>Rutas de Caminos de Santiago CC-BY 4.0 FEAACS y asociaciones jacobeas colaboradoras. Distribución: IGN/CNIG. Adaptación: recorte por paradas, inversión de sentido cuando corresponde y redondeo de coordenadas. Consultado: 2026-09-07. Los segmentos separados no incluyen los huecos ni accesos laterales a localidades.</desc><link href="https://centrodedescargas.cnig.es/CentroDescargas/camino-santiago"><text>IGN/CNIG · FEAACS</text></link></metadata><trk><name>O Porriño → Redondela</name><trkseg><trkpt lat="42.162788" lon="-8.621624"/><trkpt lat="42.162821" lon="-8.621631"/><trkpt lat="42.162878" lon="-8.621642"/><trkpt lat="42.162951" lon="-8.62168"/><trkpt lat="42.16299" lon="-8.621593"/><trkpt lat="42.16294" lon="-8.621543"/><trkpt lat="42.162929" lon="-8.621496"/><trkpt lat="42.162942" lon="-8.621451"/><trkpt lat="42.162971" lon="-8.621419"/><trkpt lat="42.163018" lon="-8.621402"/><trkpt lat="42.163299" lon="-8.621333"/><trkpt lat="42.163527" lon="-8.621269"/><trkpt lat="42.163816" lon="-8.621201"/><trkpt lat="42.164084" lon="-8.621144"/><trkpt lat="42.164391" lon="-8.621063"/><trkpt lat="42.16471" lon="-8.620979"/><trkpt lat="42.164887" lon="-8.620922"/><trkpt lat="42.165104" lon="-8.620864"/><trkpt lat="42.165276" lon="-8.620824"/><trkpt lat="42.165557" lon="-8.620753"/><trkpt lat="42.165508" lon="-8.620604"/><trkpt lat="42.16549" lon="-8.620366"/><trkpt lat="42.165448" lon="-8.620257"/><trkpt lat="42.165443" lon="-8.620057"/><trkpt lat="42.165596" lon="-8.620052"/><trkpt lat="42.165812" lon="-8.620118"/><trkpt lat="42.165965" lon="-8.620196"/><trkpt lat="42.166093" lon="-8.620293"/><trkpt lat="42.166222" lon="-8.620394"/><trkpt lat="42.166323" lon="-8.620411"/><trkpt lat="42.16658" lon="-8.620343"/><trkpt lat="42.166884" lon="-8.620269"/><trkpt lat="42.167607" lon="-8.62005"/><trkpt lat="42.168464" lon="-8.619818"/><trkpt lat="42.168594" lon="-8.619788"/><trkpt lat="42.168612" lon="-8.619784"/><trkpt lat="42.168581" lon="-8.619734"/><trkpt lat="42.168471" lon="-8.619677"/><trkpt lat="42.168223" lon="-8.619621"/><trkpt lat="42.167975" lon="-8.61961"/><trkpt lat="42.167837" lon="-8.619572"/><trkpt lat="42.167699" lon="-8.619484"/><trkpt lat="42.167627" lon="-8.619394"/><trkpt lat="42.167607" lon="-8.619311"/><trkpt lat="42.167616" lon="-8.6191"/><trkpt lat="42.167635" lon="-8.61901"/><trkpt lat="42.167664" lon="-8.618971"/><trkpt lat="42.167749" lon="-8.618952"/><trkpt lat="42.167873" lon="-8.618951"/><trkpt lat="42.168049" lon="-8.618879"/><trkpt lat="42.168125" lon="-8.618815"/><trkpt lat="42.168187" lon="-8.618731"/><trkpt lat="42.168267" lon="-8.618519"/><trkpt lat="42.168343" lon="-8.618416"/><trkpt lat="42.168438" lon="-8.618332"/><trkpt lat="42.168533" lon="-8.618184"/><trkpt lat="42.16859" lon="-8.618043"/><trkpt lat="42.168599" lon="-8.617947"/><trkpt lat="42.168575" lon="-8.617857"/><trkpt lat="42.16847" lon="-8.617724"/><trkpt lat="42.168221" lon="-8.617411"/><trkpt lat="42.167991" lon="-8.617073"/><trkpt lat="42.167891" lon="-8.617016"/><trkpt lat="42.167771" lon="-8.616959"/><trkpt lat="42.167709" lon="-8.616844"/><trkpt lat="42.167598" lon="-8.616576"/><trkpt lat="42.167449" lon="-8.616186"/><trkpt lat="42.167339" lon="-8.615815"/><trkpt lat="42.167271" lon="-8.615706"/><trkpt lat="42.167224" lon="-8.615656"/><trkpt lat="42.167204" lon="-8.615572"/><trkpt lat="42.167635" lon="-8.614833"/><trkpt lat="42.167735" lon="-8.614762"/><trkpt lat="42.167826" lon="-8.614768"/><trkpt lat="42.167907" lon="-8.614818"/><trkpt lat="42.167979" lon="-8.614921"/><trkpt lat="42.168622" lon="-8.616243"/><trkpt lat="42.168809" lon="-8.61662"/><trkpt lat="42.169001" lon="-8.616932"/><trkpt lat="42.169159" lon="-8.617243"/><trkpt lat="42.169294" lon="-8.617635"/><trkpt lat="42.169439" lon="-8.618153"/><trkpt lat="42.16953" lon="-8.618524"/><trkpt lat="42.169583" lon="-8.618665"/><trkpt lat="42.169684" lon="-8.618773"/><trkpt lat="42.169724" lon="-8.618824"/><trkpt lat="42.169781" lon="-8.618826"/><trkpt lat="42.16986" lon="-8.618816"/><trkpt lat="42.169971" lon="-8.618801"/><trkpt lat="42.17008" lon="-8.618789"/><trkpt lat="42.170144" lon="-8.61877"/><trkpt lat="42.170348" lon="-8.618669"/><trkpt lat="42.170573" lon="-8.618547"/><trkpt lat="42.170734" lon="-8.618487"/><trkpt lat="42.170832" lon="-8.618434"/><trkpt lat="42.170908" lon="-8.618421"/><trkpt lat="42.170959" lon="-8.61839"/><trkpt lat="42.1711" lon="-8.618329"/><trkpt lat="42.171241" lon="-8.618272"/><trkpt lat="42.171423" lon="-8.618221"/><trkpt lat="42.171579" lon="-8.618183"/><trkpt lat="42.171708" lon="-8.61816"/><trkpt lat="42.171796" lon="-8.618124"/><trkpt lat="42.171886" lon="-8.618103"/><trkpt lat="42.171991" lon="-8.61806"/><trkpt lat="42.172074" lon="-8.618023"/><trkpt lat="42.172165" lon="-8.617959"/><trkpt lat="42.172258" lon="-8.617893"/><trkpt lat="42.172352" lon="-8.617833"/><trkpt lat="42.172431" lon="-8.617761"/><trkpt lat="42.172511" lon="-8.617695"/><trkpt lat="42.17263" lon="-8.617624"/><trkpt lat="42.172708" lon="-8.617569"/><trkpt lat="42.172812" lon="-8.617502"/><trkpt lat="42.172885" lon="-8.617451"/><trkpt lat="42.172942" lon="-8.617407"/><trkpt lat="42.172999" lon="-8.617356"/><trkpt lat="42.173058" lon="-8.617302"/><trkpt lat="42.173107" lon="-8.617252"/><trkpt lat="42.173171" lon="-8.61714"/><trkpt lat="42.173218" lon="-8.617054"/><trkpt lat="42.173277" lon="-8.616927"/><trkpt lat="42.173322" lon="-8.616869"/><trkpt lat="42.173435" lon="-8.616778"/><trkpt lat="42.173516" lon="-8.616731"/><trkpt lat="42.173566" lon="-8.616705"/><trkpt lat="42.173641" lon="-8.616698"/><trkpt lat="42.173733" lon="-8.616695"/><trkpt lat="42.173802" lon="-8.616673"/><trkpt lat="42.173891" lon="-8.616606"/><trkpt lat="42.173999" lon="-8.61654"/><trkpt lat="42.174152" lon="-8.616448"/><trkpt lat="42.174296" lon="-8.616357"/><trkpt lat="42.17441" lon="-8.616293"/><trkpt lat="42.174543" lon="-8.6162"/><trkpt lat="42.174681" lon="-8.616099"/><trkpt lat="42.174788" lon="-8.616031"/><trkpt lat="42.174908" lon="-8.615961"/><trkpt lat="42.175041" lon="-8.6159"/><trkpt lat="42.175222" lon="-8.615834"/><trkpt lat="42.175413" lon="-8.615784"/><trkpt lat="42.175452" lon="-8.615741"/><trkpt lat="42.175691" lon="-8.616498"/><trkpt lat="42.175772" lon="-8.616727"/><trkpt lat="42.175741" lon="-8.616877"/><trkpt lat="42.17578" lon="-8.617009"/><trkpt lat="42.175907" lon="-8.617234"/><trkpt lat="42.176062" lon="-8.617719"/><trkpt lat="42.176096" lon="-8.617804"/><trkpt lat="42.176183" lon="-8.61792"/><trkpt lat="42.176339" lon="-8.618197"/><trkpt lat="42.176379" lon="-8.618296"/><trkpt lat="42.176367" lon="-8.618414"/><trkpt lat="42.176318" lon="-8.618669"/><trkpt lat="42.176227" lon="-8.618963"/><trkpt lat="42.176172" lon="-8.619152"/><trkpt lat="42.176133" lon="-8.619348"/><trkpt lat="42.176108" lon="-8.6195"/><trkpt lat="42.176106" lon="-8.619648"/><trkpt lat="42.176123" lon="-8.620085"/><trkpt lat="42.176167" lon="-8.6203"/><trkpt lat="42.176245" lon="-8.620554"/><trkpt lat="42.176297" lon="-8.620787"/><trkpt lat="42.176344" lon="-8.621051"/><trkpt lat="42.176365" lon="-8.621224"/><trkpt lat="42.176366" lon="-8.621341"/><trkpt lat="42.176381" lon="-8.621546"/><trkpt lat="42.176415" lon="-8.621831"/><trkpt lat="42.176437" lon="-8.62208"/><trkpt lat="42.176459" lon="-8.622221"/><trkpt lat="42.176491" lon="-8.622355"/><trkpt lat="42.176566" lon="-8.622542"/><trkpt lat="42.176646" lon="-8.622647"/><trkpt lat="42.176761" lon="-8.622738"/><trkpt lat="42.176835" lon="-8.622792"/><trkpt lat="42.176898" lon="-8.622805"/><trkpt lat="42.176949" lon="-8.622737"/><trkpt lat="42.177038" lon="-8.622598"/><trkpt lat="42.177102" lon="-8.62252"/><trkpt lat="42.177158" lon="-8.622475"/><trkpt lat="42.177243" lon="-8.622437"/><trkpt lat="42.177359" lon="-8.622399"/><trkpt lat="42.177449" lon="-8.622336"/><trkpt lat="42.177512" lon="-8.622275"/><trkpt lat="42.177574" lon="-8.622205"/><trkpt lat="42.17766" lon="-8.622071"/><trkpt lat="42.177759" lon="-8.621898"/><trkpt lat="42.177871" lon="-8.621641"/><trkpt lat="42.177928" lon="-8.621487"/><trkpt lat="42.177998" lon="-8.621335"/><trkpt lat="42.178071" lon="-8.621211"/><trkpt lat="42.17817" lon="-8.62107"/><trkpt lat="42.178268" lon="-8.620942"/><trkpt lat="42.178389" lon="-8.620809"/><trkpt lat="42.178485" lon="-8.620717"/><trkpt lat="42.178586" lon="-8.620631"/><trkpt lat="42.178679" lon="-8.620563"/><trkpt lat="42.178754" lon="-8.620537"/><trkpt lat="42.178866" lon="-8.620533"/><trkpt lat="42.178963" lon="-8.620549"/><trkpt lat="42.179058" lon="-8.620596"/><trkpt lat="42.179164" lon="-8.620644"/><trkpt lat="42.179277" lon="-8.620689"/><trkpt lat="42.179331" lon="-8.620708"/><trkpt lat="42.179414" lon="-8.620719"/><trkpt lat="42.179499" lon="-8.62072"/><trkpt lat="42.179575" lon="-8.620697"/><trkpt lat="42.179707" lon="-8.620615"/><trkpt lat="42.179814" lon="-8.620554"/><trkpt lat="42.17995" lon="-8.620501"/><trkpt lat="42.180059" lon="-8.620477"/><trkpt lat="42.180138" lon="-8.620469"/><trkpt lat="42.180259" lon="-8.620482"/><trkpt lat="42.180403" lon="-8.620511"/><trkpt lat="42.180503" lon="-8.620514"/><trkpt lat="42.180596" lon="-8.620503"/><trkpt lat="42.180725" lon="-8.620456"/><trkpt lat="42.180815" lon="-8.620436"/><trkpt lat="42.180912" lon="-8.620422"/><trkpt lat="42.180995" lon="-8.620409"/><trkpt lat="42.181069" lon="-8.620354"/><trkpt lat="42.181109" lon="-8.620276"/><trkpt lat="42.181149" lon="-8.620179"/><trkpt lat="42.181226" lon="-8.620093"/><trkpt lat="42.181351" lon="-8.620009"/><trkpt lat="42.181489" lon="-8.619909"/><trkpt lat="42.181573" lon="-8.619834"/><trkpt lat="42.181635" lon="-8.619798"/><trkpt lat="42.181787" lon="-8.619774"/><trkpt lat="42.181879" lon="-8.619756"/><trkpt lat="42.18195" lon="-8.619716"/><trkpt lat="42.181984" lon="-8.619669"/><trkpt lat="42.182007" lon="-8.619644"/><trkpt lat="42.182041" lon="-8.619543"/><trkpt lat="42.182067" lon="-8.619443"/><trkpt lat="42.182095" lon="-8.619318"/><trkpt lat="42.182141" lon="-8.619256"/><trkpt lat="42.182208" lon="-8.619209"/><trkpt lat="42.182298" lon="-8.6192"/><trkpt lat="42.182392" lon="-8.619195"/><trkpt lat="42.182498" lon="-8.619181"/><trkpt lat="42.182615" lon="-8.619144"/><trkpt lat="42.182695" lon="-8.619092"/><trkpt lat="42.182782" lon="-8.619012"/><trkpt lat="42.182864" lon="-8.61892"/><trkpt lat="42.182932" lon="-8.61884"/><trkpt lat="42.182988" lon="-8.618748"/><trkpt lat="42.183049" lon="-8.618632"/><trkpt lat="42.183122" lon="-8.618513"/><trkpt lat="42.183191" lon="-8.618424"/><trkpt lat="42.183276" lon="-8.618344"/><trkpt lat="42.183345" lon="-8.618294"/><trkpt lat="42.183393" lon="-8.618262"/><trkpt lat="42.183485" lon="-8.618284"/><trkpt lat="42.183662" lon="-8.618314"/><trkpt lat="42.183827" lon="-8.618344"/><trkpt lat="42.183896" lon="-8.618404"/><trkpt lat="42.183941" lon="-8.618447"/><trkpt lat="42.184043" lon="-8.618401"/><trkpt lat="42.184143" lon="-8.618312"/><trkpt lat="42.184238" lon="-8.618248"/><trkpt lat="42.184369" lon="-8.618227"/><trkpt lat="42.184472" lon="-8.618203"/><trkpt lat="42.184542" lon="-8.618163"/><trkpt lat="42.184651" lon="-8.61808"/><trkpt lat="42.184726" lon="-8.617997"/><trkpt lat="42.184836" lon="-8.617853"/><trkpt lat="42.185" lon="-8.617627"/><trkpt lat="42.185103" lon="-8.61746"/><trkpt lat="42.185265" lon="-8.617182"/><trkpt lat="42.185512" lon="-8.616718"/><trkpt lat="42.185707" lon="-8.616365"/><trkpt lat="42.185754" lon="-8.616288"/><trkpt lat="42.185815" lon="-8.616207"/><trkpt lat="42.185882" lon="-8.616124"/><trkpt lat="42.18603" lon="-8.615973"/><trkpt lat="42.186153" lon="-8.615868"/><trkpt lat="42.186234" lon="-8.615791"/><trkpt lat="42.186265" lon="-8.615753"/><trkpt lat="42.18631" lon="-8.615644"/><trkpt lat="42.186335" lon="-8.615528"/><trkpt lat="42.186359" lon="-8.615463"/><trkpt lat="42.186412" lon="-8.615378"/><trkpt lat="42.186479" lon="-8.615306"/><trkpt lat="42.186524" lon="-8.615269"/><trkpt lat="42.186601" lon="-8.615214"/><trkpt lat="42.186672" lon="-8.615189"/><trkpt lat="42.186787" lon="-8.615192"/><trkpt lat="42.186898" lon="-8.615201"/><trkpt lat="42.18698" lon="-8.615203"/><trkpt lat="42.187044" lon="-8.615197"/><trkpt lat="42.187122" lon="-8.615181"/><trkpt lat="42.187223" lon="-8.615126"/><trkpt lat="42.187305" lon="-8.615063"/><trkpt lat="42.187432" lon="-8.614963"/><trkpt lat="42.187586" lon="-8.614855"/><trkpt lat="42.187713" lon="-8.614777"/><trkpt lat="42.187826" lon="-8.614733"/><trkpt lat="42.187908" lon="-8.614732"/><trkpt lat="42.188034" lon="-8.614755"/><trkpt lat="42.18812" lon="-8.614805"/><trkpt lat="42.188208" lon="-8.614817"/><trkpt lat="42.18832" lon="-8.614769"/><trkpt lat="42.1885" lon="-8.614667"/><trkpt lat="42.188611" lon="-8.614591"/><trkpt lat="42.188702" lon="-8.61451"/><trkpt lat="42.188815" lon="-8.614395"/><trkpt lat="42.188906" lon="-8.614296"/><trkpt lat="42.188991" lon="-8.61417"/><trkpt lat="42.189115" lon="-8.613914"/><trkpt lat="42.18922" lon="-8.613685"/><trkpt lat="42.189322" lon="-8.613528"/><trkpt lat="42.18941" lon="-8.613413"/><trkpt lat="42.189536" lon="-8.613267"/><trkpt lat="42.189679" lon="-8.61314"/><trkpt lat="42.189835" lon="-8.613016"/><trkpt lat="42.190009" lon="-8.612906"/><trkpt lat="42.190236" lon="-8.612776"/><trkpt lat="42.190438" lon="-8.612687"/><trkpt lat="42.190638" lon="-8.612628"/><trkpt lat="42.190799" lon="-8.612604"/><trkpt lat="42.190929" lon="-8.612599"/><trkpt lat="42.191074" lon="-8.612615"/><trkpt lat="42.191188" lon="-8.612611"/><trkpt lat="42.191304" lon="-8.612575"/><trkpt lat="42.191423" lon="-8.612516"/><trkpt lat="42.191602" lon="-8.612412"/><trkpt lat="42.191766" lon="-8.612267"/><trkpt lat="42.191901" lon="-8.612147"/><trkpt lat="42.191978" lon="-8.612082"/><trkpt lat="42.192142" lon="-8.611996"/><trkpt lat="42.192313" lon="-8.611904"/><trkpt lat="42.192528" lon="-8.61181"/><trkpt lat="42.192643" lon="-8.611757"/><trkpt lat="42.192768" lon="-8.61168"/><trkpt lat="42.192866" lon="-8.611589"/><trkpt lat="42.192939" lon="-8.611509"/><trkpt lat="42.193017" lon="-8.611374"/><trkpt lat="42.193145" lon="-8.61109"/><trkpt lat="42.193257" lon="-8.610903"/><trkpt lat="42.193319" lon="-8.610813"/><trkpt lat="42.193363" lon="-8.610801"/><trkpt lat="42.193463" lon="-8.61075"/><trkpt lat="42.193555" lon="-8.610722"/><trkpt lat="42.19366" lon="-8.6107"/><trkpt lat="42.193794" lon="-8.610663"/><trkpt lat="42.193905" lon="-8.610639"/><trkpt lat="42.193966" lon="-8.610617"/><trkpt lat="42.194105" lon="-8.610545"/><trkpt lat="42.194254" lon="-8.610465"/><trkpt lat="42.194383" lon="-8.610409"/><trkpt lat="42.19449" lon="-8.610369"/><trkpt lat="42.194647" lon="-8.61031"/><trkpt lat="42.194707" lon="-8.610282"/><trkpt lat="42.194788" lon="-8.610225"/><trkpt lat="42.194955" lon="-8.610107"/><trkpt lat="42.195054" lon="-8.61005"/><trkpt lat="42.195148" lon="-8.610006"/><trkpt lat="42.19527" lon="-8.609971"/><trkpt lat="42.19543" lon="-8.609938"/><trkpt lat="42.195569" lon="-8.60991"/><trkpt lat="42.195737" lon="-8.609875"/><trkpt lat="42.195888" lon="-8.609838"/><trkpt lat="42.196111" lon="-8.609782"/><trkpt lat="42.196288" lon="-8.609733"/><trkpt lat="42.196435" lon="-8.609694"/><trkpt lat="42.196599" lon="-8.609643"/><trkpt lat="42.196789" lon="-8.609577"/><trkpt lat="42.196976" lon="-8.609496"/><trkpt lat="42.197054" lon="-8.609452"/><trkpt lat="42.197196" lon="-8.609335"/><trkpt lat="42.197368" lon="-8.60918"/><trkpt lat="42.197528" lon="-8.609033"/><trkpt lat="42.197756" lon="-8.608808"/><trkpt lat="42.197909" lon="-8.608689"/><trkpt lat="42.198022" lon="-8.608616"/><trkpt lat="42.198076" lon="-8.608597"/><trkpt lat="42.198154" lon="-8.608572"/><trkpt lat="42.198219" lon="-8.608574"/><trkpt lat="42.198313" lon="-8.608603"/><trkpt lat="42.198354" lon="-8.608631"/><trkpt lat="42.198415" lon="-8.608682"/><trkpt lat="42.198467" lon="-8.608717"/><trkpt lat="42.198532" lon="-8.60873"/><trkpt lat="42.198662" lon="-8.608756"/><trkpt lat="42.198753" lon="-8.608791"/><trkpt lat="42.198864" lon="-8.608827"/><trkpt lat="42.198973" lon="-8.608858"/><trkpt lat="42.199058" lon="-8.608877"/><trkpt lat="42.199143" lon="-8.608886"/><trkpt lat="42.199196" lon="-8.608877"/><trkpt lat="42.199262" lon="-8.60886"/><trkpt lat="42.199345" lon="-8.608826"/><trkpt lat="42.199428" lon="-8.608797"/><trkpt lat="42.199495" lon="-8.608782"/><trkpt lat="42.199547" lon="-8.608778"/><trkpt lat="42.199595" lon="-8.608781"/><trkpt lat="42.199659" lon="-8.608812"/><trkpt lat="42.199726" lon="-8.608857"/><trkpt lat="42.199841" lon="-8.608917"/><trkpt lat="42.199885" lon="-8.608936"/><trkpt lat="42.199935" lon="-8.608934"/><trkpt lat="42.199991" lon="-8.608914"/><trkpt lat="42.200068" lon="-8.608876"/><trkpt lat="42.200242" lon="-8.60877"/><trkpt lat="42.200342" lon="-8.608706"/><trkpt lat="42.20042" lon="-8.608672"/><trkpt lat="42.200492" lon="-8.608664"/><trkpt lat="42.200573" lon="-8.608677"/><trkpt lat="42.200645" lon="-8.608696"/><trkpt lat="42.200811" lon="-8.608753"/><trkpt lat="42.200899" lon="-8.608756"/><trkpt lat="42.200963" lon="-8.608713"/><trkpt lat="42.201012" lon="-8.608666"/><trkpt lat="42.201152" lon="-8.608496"/><trkpt lat="42.201287" lon="-8.608337"/><trkpt lat="42.201367" lon="-8.608274"/><trkpt lat="42.201523" lon="-8.608146"/><trkpt lat="42.201633" lon="-8.608047"/><trkpt lat="42.201744" lon="-8.60791"/><trkpt lat="42.201841" lon="-8.607777"/><trkpt lat="42.201889" lon="-8.60768"/><trkpt lat="42.201949" lon="-8.60754"/><trkpt lat="42.201984" lon="-8.607501"/><trkpt lat="42.202037" lon="-8.60747"/><trkpt lat="42.202038" lon="-8.607469"/><trkpt lat="42.202089" lon="-8.607389"/><trkpt lat="42.20217" lon="-8.607207"/><trkpt lat="42.202248" lon="-8.607042"/><trkpt lat="42.202373" lon="-8.606802"/><trkpt lat="42.202448" lon="-8.606708"/><trkpt lat="42.202552" lon="-8.606606"/><trkpt lat="42.2027" lon="-8.606467"/><trkpt lat="42.20293" lon="-8.606248"/><trkpt lat="42.203069" lon="-8.606085"/><trkpt lat="42.203159" lon="-8.606051"/><trkpt lat="42.20328" lon="-8.606004"/><trkpt lat="42.203424" lon="-8.605953"/><trkpt lat="42.203598" lon="-8.605874"/><trkpt lat="42.203718" lon="-8.605816"/><trkpt lat="42.203866" lon="-8.605735"/><trkpt lat="42.203912" lon="-8.605749"/><trkpt lat="42.204021" lon="-8.605862"/><trkpt lat="42.204143" lon="-8.605968"/><trkpt lat="42.204386" lon="-8.60611"/><trkpt lat="42.204559" lon="-8.606202"/><trkpt lat="42.204648" lon="-8.606249"/><trkpt lat="42.204804" lon="-8.606297"/><trkpt lat="42.204948" lon="-8.606304"/><trkpt lat="42.205076" lon="-8.606291"/><trkpt lat="42.20526" lon="-8.606266"/><trkpt lat="42.205479" lon="-8.606262"/><trkpt lat="42.205607" lon="-8.606279"/><trkpt lat="42.205833" lon="-8.606313"/><trkpt lat="42.205977" lon="-8.606356"/><trkpt lat="42.206127" lon="-8.606463"/><trkpt lat="42.206341" lon="-8.606624"/><trkpt lat="42.206528" lon="-8.606763"/><trkpt lat="42.20677" lon="-8.606934"/><trkpt lat="42.20693" lon="-8.607057"/><trkpt lat="42.20701" lon="-8.607119"/><trkpt lat="42.207101" lon="-8.607226"/><trkpt lat="42.207232" lon="-8.607383"/><trkpt lat="42.207373" lon="-8.607557"/><trkpt lat="42.207471" lon="-8.607655"/><trkpt lat="42.207542" lon="-8.607733"/><trkpt lat="42.207619" lon="-8.607787"/><trkpt lat="42.207737" lon="-8.607867"/><trkpt lat="42.207872" lon="-8.607962"/><trkpt lat="42.208027" lon="-8.60809"/><trkpt lat="42.208204" lon="-8.608241"/><trkpt lat="42.208401" lon="-8.608415"/><trkpt lat="42.208479" lon="-8.608498"/><trkpt lat="42.208579" lon="-8.608638"/><trkpt lat="42.208684" lon="-8.608751"/><trkpt lat="42.208768" lon="-8.608815"/><trkpt lat="42.209006" lon="-8.608952"/><trkpt lat="42.209163" lon="-8.60904"/><trkpt lat="42.209384" lon="-8.609045"/><trkpt lat="42.209622" lon="-8.60904"/><trkpt lat="42.209924" lon="-8.60903"/><trkpt lat="42.210115" lon="-8.609032"/><trkpt lat="42.210469" lon="-8.609087"/><trkpt lat="42.210873" lon="-8.609174"/><trkpt lat="42.211112" lon="-8.609241"/><trkpt lat="42.211338" lon="-8.609307"/><trkpt lat="42.211623" lon="-8.609373"/><trkpt lat="42.211962" lon="-8.60943"/><trkpt lat="42.212281" lon="-8.60947"/><trkpt lat="42.212496" lon="-8.609481"/><trkpt lat="42.212684" lon="-8.609481"/><trkpt lat="42.21293" lon="-8.609451"/><trkpt lat="42.213191" lon="-8.609417"/><trkpt lat="42.213556" lon="-8.609375"/><trkpt lat="42.213735" lon="-8.60935"/><trkpt lat="42.213905" lon="-8.609316"/><trkpt lat="42.214055" lon="-8.60926"/><trkpt lat="42.214188" lon="-8.609193"/><trkpt lat="42.214381" lon="-8.609096"/><trkpt lat="42.214552" lon="-8.608999"/><trkpt lat="42.214678" lon="-8.608917"/><trkpt lat="42.214785" lon="-8.608823"/><trkpt lat="42.214888" lon="-8.608727"/><trkpt lat="42.214962" lon="-8.60864"/><trkpt lat="42.215118" lon="-8.608462"/><trkpt lat="42.215246" lon="-8.60834"/><trkpt lat="42.215389" lon="-8.608219"/><trkpt lat="42.215511" lon="-8.608148"/><trkpt lat="42.215631" lon="-8.60808"/><trkpt lat="42.215911" lon="-8.607997"/><trkpt lat="42.216206" lon="-8.607887"/><trkpt lat="42.216608" lon="-8.607752"/><trkpt lat="42.216804" lon="-8.607691"/><trkpt lat="42.216964" lon="-8.607633"/><trkpt lat="42.217116" lon="-8.607592"/><trkpt lat="42.217296" lon="-8.607545"/><trkpt lat="42.217419" lon="-8.607515"/><trkpt lat="42.217582" lon="-8.607516"/><trkpt lat="42.217708" lon="-8.607515"/><trkpt lat="42.217878" lon="-8.60753"/><trkpt lat="42.218103" lon="-8.607545"/><trkpt lat="42.218251" lon="-8.607548"/><trkpt lat="42.21838" lon="-8.607548"/><trkpt lat="42.21848" lon="-8.607559"/><trkpt lat="42.218585" lon="-8.607571"/><trkpt lat="42.21875" lon="-8.607611"/><trkpt lat="42.218891" lon="-8.607635"/><trkpt lat="42.219057" lon="-8.607636"/><trkpt lat="42.219259" lon="-8.607631"/><trkpt lat="42.219525" lon="-8.607632"/><trkpt lat="42.219754" lon="-8.607647"/><trkpt lat="42.219987" lon="-8.607665"/><trkpt lat="42.220241" lon="-8.607694"/><trkpt lat="42.220505" lon="-8.607704"/><trkpt lat="42.220661" lon="-8.60774"/><trkpt lat="42.220763" lon="-8.607785"/><trkpt lat="42.220931" lon="-8.607875"/><trkpt lat="42.221095" lon="-8.607961"/><trkpt lat="42.221258" lon="-8.608057"/><trkpt lat="42.22141" lon="-8.608114"/><trkpt lat="42.221519" lon="-8.608129"/><trkpt lat="42.221751" lon="-8.608124"/><trkpt lat="42.222045" lon="-8.608145"/><trkpt lat="42.222333" lon="-8.608144"/><trkpt lat="42.222538" lon="-8.608127"/><trkpt lat="42.222714" lon="-8.608062"/><trkpt lat="42.22285" lon="-8.60798"/><trkpt lat="42.222964" lon="-8.607869"/><trkpt lat="42.223028" lon="-8.60778"/><trkpt lat="42.223092" lon="-8.607641"/><trkpt lat="42.223137" lon="-8.607477"/><trkpt lat="42.223167" lon="-8.607472"/><trkpt lat="42.22325" lon="-8.607441"/><trkpt lat="42.223446" lon="-8.60735"/><trkpt lat="42.223568" lon="-8.607229"/><trkpt lat="42.223933" lon="-8.606962"/><trkpt lat="42.224255" lon="-8.606742"/><trkpt lat="42.224447" lon="-8.606658"/><trkpt lat="42.224695" lon="-8.606529"/><trkpt lat="42.224889" lon="-8.606408"/><trkpt lat="42.225144" lon="-8.606221"/><trkpt lat="42.225389" lon="-8.606047"/><trkpt lat="42.225537" lon="-8.606007"/><trkpt lat="42.225746" lon="-8.605979"/><trkpt lat="42.225816" lon="-8.605964"/><trkpt lat="42.225893" lon="-8.605987"/><trkpt lat="42.226019" lon="-8.60609"/><trkpt lat="42.226138" lon="-8.606199"/><trkpt lat="42.226232" lon="-8.606284"/><trkpt lat="42.226445" lon="-8.606526"/><trkpt lat="42.226574" lon="-8.606656"/><trkpt lat="42.226737" lon="-8.606756"/><trkpt lat="42.226809" lon="-8.606783"/><trkpt lat="42.226998" lon="-8.606855"/><trkpt lat="42.227263" lon="-8.606954"/><trkpt lat="42.22736" lon="-8.607058"/><trkpt lat="42.227409" lon="-8.607157"/><trkpt lat="42.227493" lon="-8.607491"/><trkpt lat="42.227613" lon="-8.60785"/><trkpt lat="42.227756" lon="-8.608166"/><trkpt lat="42.227902" lon="-8.608441"/><trkpt lat="42.228084" lon="-8.608942"/><trkpt lat="42.228196" lon="-8.609324"/><trkpt lat="42.228408" lon="-8.60963"/><trkpt lat="42.228598" lon="-8.609937"/><trkpt lat="42.228724" lon="-8.610201"/><trkpt lat="42.228824" lon="-8.610369"/><trkpt lat="42.229031" lon="-8.610609"/><trkpt lat="42.229272" lon="-8.610802"/><trkpt lat="42.229467" lon="-8.610951"/><trkpt lat="42.22955" lon="-8.610994"/><trkpt lat="42.229599" lon="-8.610972"/><trkpt lat="42.22966" lon="-8.610931"/><trkpt lat="42.229737" lon="-8.610938"/><trkpt lat="42.22983" lon="-8.610976"/><trkpt lat="42.230001" lon="-8.611104"/><trkpt lat="42.230169" lon="-8.611229"/><trkpt lat="42.230195" lon="-8.611311"/><trkpt lat="42.230242" lon="-8.611434"/><trkpt lat="42.23033" lon="-8.611524"/><trkpt lat="42.230509" lon="-8.611581"/><trkpt lat="42.230661" lon="-8.611674"/><trkpt lat="42.230824" lon="-8.611794"/><trkpt lat="42.230973" lon="-8.611936"/><trkpt lat="42.231547" lon="-8.61254"/><trkpt lat="42.231601" lon="-8.612492"/><trkpt lat="42.231683" lon="-8.612405"/><trkpt lat="42.23178" lon="-8.612358"/><trkpt lat="42.231898" lon="-8.612345"/><trkpt lat="42.231984" lon="-8.612377"/><trkpt lat="42.232108" lon="-8.612413"/><trkpt lat="42.232403" lon="-8.612505"/><trkpt lat="42.232733" lon="-8.612613"/><trkpt lat="42.233101" lon="-8.612712"/><trkpt lat="42.23338" lon="-8.612783"/><trkpt lat="42.233682" lon="-8.61284"/><trkpt lat="42.233774" lon="-8.612863"/><trkpt lat="42.233869" lon="-8.612931"/><trkpt lat="42.23427" lon="-8.613195"/><trkpt lat="42.234494" lon="-8.61332"/><trkpt lat="42.234717" lon="-8.613445"/><trkpt lat="42.234979" lon="-8.613605"/><trkpt lat="42.235242" lon="-8.613763"/><trkpt lat="42.235466" lon="-8.613709"/><trkpt lat="42.236003" lon="-8.613606"/><trkpt lat="42.236291" lon="-8.613555"/><trkpt lat="42.23647" lon="-8.613503"/><trkpt lat="42.23678" lon="-8.613447"/><trkpt lat="42.237212" lon="-8.61333"/><trkpt lat="42.237366" lon="-8.613287"/><trkpt lat="42.23778" lon="-8.613199"/><trkpt lat="42.238313" lon="-8.613087"/><trkpt lat="42.238415" lon="-8.613076"/><trkpt lat="42.238613" lon="-8.613036"/><trkpt lat="42.238727" lon="-8.612975"/><trkpt lat="42.238869" lon="-8.612882"/><trkpt lat="42.239137" lon="-8.612773"/><trkpt lat="42.239392" lon="-8.612618"/><trkpt lat="42.239603" lon="-8.612476"/><trkpt lat="42.239812" lon="-8.612299"/><trkpt lat="42.240043" lon="-8.612091"/><trkpt lat="42.240297" lon="-8.611842"/><trkpt lat="42.240572" lon="-8.611543"/><trkpt lat="42.240835" lon="-8.611197"/><trkpt lat="42.241074" lon="-8.610886"/><trkpt lat="42.241273" lon="-8.610635"/><trkpt lat="42.241443" lon="-8.610408"/><trkpt lat="42.241552" lon="-8.610282"/><trkpt lat="42.241566" lon="-8.610319"/><trkpt lat="42.241587" lon="-8.610462"/><trkpt lat="42.241588" lon="-8.61066"/><trkpt lat="42.241577" lon="-8.610828"/><trkpt lat="42.241684" lon="-8.610827"/><trkpt lat="42.241843" lon="-8.610779"/><trkpt lat="42.242013" lon="-8.610741"/><trkpt lat="42.242214" lon="-8.610701"/><trkpt lat="42.242473" lon="-8.610687"/><trkpt lat="42.242959" lon="-8.610664"/><trkpt lat="42.243158" lon="-8.610636"/><trkpt lat="42.243449" lon="-8.610591"/><trkpt lat="42.243635" lon="-8.610561"/><trkpt lat="42.243833" lon="-8.610511"/><trkpt lat="42.244077" lon="-8.610428"/><trkpt lat="42.24425" lon="-8.610363"/><trkpt lat="42.244415" lon="-8.610327"/><trkpt lat="42.244579" lon="-8.610296"/><trkpt lat="42.244694" lon="-8.610273"/><trkpt lat="42.244803" lon="-8.610259"/><trkpt lat="42.245039" lon="-8.610189"/><trkpt lat="42.245148" lon="-8.610183"/><trkpt lat="42.245232" lon="-8.610147"/><trkpt lat="42.245339" lon="-8.610073"/><trkpt lat="42.245463" lon="-8.609964"/><trkpt lat="42.245566" lon="-8.609901"/><trkpt lat="42.245656" lon="-8.609855"/><trkpt lat="42.245753" lon="-8.60983"/><trkpt lat="42.245894" lon="-8.609852"/><trkpt lat="42.246058" lon="-8.609914"/><trkpt lat="42.246231" lon="-8.609991"/><trkpt lat="42.246376" lon="-8.610091"/><trkpt lat="42.246536" lon="-8.610197"/><trkpt lat="42.246683" lon="-8.610266"/><trkpt lat="42.24689" lon="-8.610349"/><trkpt lat="42.247078" lon="-8.610416"/><trkpt lat="42.247223" lon="-8.610493"/><trkpt lat="42.247378" lon="-8.610565"/><trkpt lat="42.24753" lon="-8.610627"/><trkpt lat="42.247736" lon="-8.610684"/><trkpt lat="42.247852" lon="-8.610722"/><trkpt lat="42.248005" lon="-8.610771"/><trkpt lat="42.248108" lon="-8.610836"/><trkpt lat="42.248196" lon="-8.610864"/><trkpt lat="42.248306" lon="-8.6109"/><trkpt lat="42.248456" lon="-8.61094"/><trkpt lat="42.248608" lon="-8.610988"/><trkpt lat="42.248713" lon="-8.610985"/><trkpt lat="42.248805" lon="-8.610976"/><trkpt lat="42.2489" lon="-8.610922"/><trkpt lat="42.249023" lon="-8.610868"/><trkpt lat="42.249135" lon="-8.610818"/><trkpt lat="42.249265" lon="-8.610782"/><trkpt lat="42.249364" lon="-8.610784"/><trkpt lat="42.249452" lon="-8.610797"/><trkpt lat="42.249565" lon="-8.610841"/><trkpt lat="42.249751" lon="-8.610924"/><trkpt lat="42.24992" lon="-8.611005"/><trkpt lat="42.250077" lon="-8.611078"/><trkpt lat="42.250252" lon="-8.61113"/><trkpt lat="42.25046" lon="-8.611203"/><trkpt lat="42.250594" lon="-8.611242"/><trkpt lat="42.250687" lon="-8.611271"/><trkpt lat="42.2508" lon="-8.611277"/><trkpt lat="42.250816" lon="-8.611278"/><trkpt lat="42.250875" lon="-8.611283"/><trkpt lat="42.25094" lon="-8.611305"/><trkpt lat="42.251018" lon="-8.611348"/><trkpt lat="42.251073" lon="-8.611399"/><trkpt lat="42.25114" lon="-8.611437"/><trkpt lat="42.251197" lon="-8.611452"/><trkpt lat="42.251268" lon="-8.611454"/><trkpt lat="42.251362" lon="-8.611436"/><trkpt lat="42.251438" lon="-8.611377"/><trkpt lat="42.25154" lon="-8.611271"/><trkpt lat="42.251624" lon="-8.611203"/><trkpt lat="42.251701" lon="-8.611213"/><trkpt lat="42.251798" lon="-8.611203"/><trkpt lat="42.251892" lon="-8.611241"/><trkpt lat="42.25198" lon="-8.611335"/><trkpt lat="42.252028" lon="-8.611374"/><trkpt lat="42.252088" lon="-8.611327"/><trkpt lat="42.252163" lon="-8.611225"/><trkpt lat="42.252225" lon="-8.611126"/><trkpt lat="42.252318" lon="-8.61099"/><trkpt lat="42.252376" lon="-8.610891"/><trkpt lat="42.252475" lon="-8.6108"/><trkpt lat="42.252552" lon="-8.610708"/><trkpt lat="42.252654" lon="-8.610581"/><trkpt lat="42.252716" lon="-8.61044"/><trkpt lat="42.252768" lon="-8.610312"/><trkpt lat="42.252792" lon="-8.61024"/><trkpt lat="42.252832" lon="-8.610228"/><trkpt lat="42.25295" lon="-8.610249"/><trkpt lat="42.253098" lon="-8.61029"/><trkpt lat="42.253243" lon="-8.610353"/><trkpt lat="42.253382" lon="-8.610462"/><trkpt lat="42.25347" lon="-8.610553"/><trkpt lat="42.253555" lon="-8.610666"/><trkpt lat="42.253626" lon="-8.610747"/><trkpt lat="42.253692" lon="-8.610726"/><trkpt lat="42.253737" lon="-8.610655"/><trkpt lat="42.253759" lon="-8.610551"/><trkpt lat="42.253773" lon="-8.610437"/><trkpt lat="42.253833" lon="-8.6102"/><trkpt lat="42.253923" lon="-8.60995"/><trkpt lat="42.254081" lon="-8.609503"/><trkpt lat="42.254153" lon="-8.609357"/><trkpt lat="42.254254" lon="-8.609301"/><trkpt lat="42.254335" lon="-8.609437"/><trkpt lat="42.254456" lon="-8.609587"/><trkpt lat="42.25458" lon="-8.609685"/><trkpt lat="42.254689" lon="-8.609738"/><trkpt lat="42.254775" lon="-8.609805"/><trkpt lat="42.254918" lon="-8.609947"/><trkpt lat="42.255045" lon="-8.610057"/><trkpt lat="42.255133" lon="-8.610074"/><trkpt lat="42.255243" lon="-8.610058"/><trkpt lat="42.255381" lon="-8.610043"/><trkpt lat="42.255521" lon="-8.610019"/><trkpt lat="42.255615" lon="-8.609998"/><trkpt lat="42.255702" lon="-8.609968"/><trkpt lat="42.255793" lon="-8.609906"/><trkpt lat="42.255888" lon="-8.60978"/><trkpt lat="42.256015" lon="-8.609633"/><trkpt lat="42.256147" lon="-8.609542"/><trkpt lat="42.256251" lon="-8.609467"/><trkpt lat="42.256346" lon="-8.609427"/><trkpt lat="42.256435" lon="-8.609368"/><trkpt lat="42.256645" lon="-8.609196"/><trkpt lat="42.256823" lon="-8.609045"/><trkpt lat="42.256953" lon="-8.608962"/><trkpt lat="42.257215" lon="-8.608836"/><trkpt lat="42.257473" lon="-8.608731"/><trkpt lat="42.257656" lon="-8.608649"/><trkpt lat="42.257913" lon="-8.608547"/><trkpt lat="42.258173" lon="-8.608461"/><trkpt lat="42.258353" lon="-8.6084"/><trkpt lat="42.258524" lon="-8.608343"/><trkpt lat="42.258604" lon="-8.60831"/><trkpt lat="42.258733" lon="-8.60825"/><trkpt lat="42.258895" lon="-8.608168"/><trkpt lat="42.259037" lon="-8.608116"/><trkpt lat="42.259142" lon="-8.608099"/><trkpt lat="42.259294" lon="-8.608079"/><trkpt lat="42.259401" lon="-8.608054"/><trkpt lat="42.259532" lon="-8.607974"/><trkpt lat="42.259618" lon="-8.607902"/><trkpt lat="42.259666" lon="-8.607889"/><trkpt lat="42.25967" lon="-8.607889"/><trkpt lat="42.259802" lon="-8.607923"/><trkpt lat="42.259914" lon="-8.607917"/><trkpt lat="42.260288" lon="-8.607918"/><trkpt lat="42.26042" lon="-8.607941"/><trkpt lat="42.26071" lon="-8.607975"/><trkpt lat="42.260955" lon="-8.607973"/><trkpt lat="42.261206" lon="-8.60791"/><trkpt lat="42.261518" lon="-8.607714"/><trkpt lat="42.261866" lon="-8.607627"/><trkpt lat="42.262038" lon="-8.607601"/><trkpt lat="42.26222" lon="-8.607605"/><trkpt lat="42.262419" lon="-8.607629"/><trkpt lat="42.26253" lon="-8.607661"/><trkpt lat="42.262821" lon="-8.607839"/><trkpt lat="42.263024" lon="-8.607958"/><trkpt lat="42.263203" lon="-8.608013"/><trkpt lat="42.263478" lon="-8.608026"/><trkpt lat="42.263783" lon="-8.608074"/><trkpt lat="42.264186" lon="-8.608187"/><trkpt lat="42.264443" lon="-8.608252"/><trkpt lat="42.264787" lon="-8.608284"/><trkpt lat="42.265154" lon="-8.608302"/><trkpt lat="42.265367" lon="-8.608412"/><trkpt lat="42.265653" lon="-8.60858"/><trkpt lat="42.265919" lon="-8.608725"/><trkpt lat="42.266196" lon="-8.608848"/><trkpt lat="42.266582" lon="-8.609039"/><trkpt lat="42.266882" lon="-8.609203"/><trkpt lat="42.267072" lon="-8.609351"/><trkpt lat="42.267461" lon="-8.609575"/><trkpt lat="42.26769" lon="-8.609688"/><trkpt lat="42.267904" lon="-8.609725"/><trkpt lat="42.268186" lon="-8.609806"/><trkpt lat="42.268479" lon="-8.609897"/><trkpt lat="42.26875" lon="-8.610044"/><trkpt lat="42.269155" lon="-8.610318"/><trkpt lat="42.269495" lon="-8.610572"/><trkpt lat="42.269845" lon="-8.610751"/><trkpt lat="42.270224" lon="-8.610956"/><trkpt lat="42.270472" lon="-8.611039"/><trkpt lat="42.270682" lon="-8.611007"/><trkpt lat="42.27083" lon="-8.610931"/><trkpt lat="42.271027" lon="-8.610847"/><trkpt lat="42.271274" lon="-8.610628"/><trkpt lat="42.271522" lon="-8.610455"/><trkpt lat="42.271696" lon="-8.610361"/><trkpt lat="42.271952" lon="-8.610349"/><trkpt lat="42.272207" lon="-8.610352"/><trkpt lat="42.272369" lon="-8.610348"/><trkpt lat="42.272365" lon="-8.610194"/><trkpt lat="42.272416" lon="-8.6102"/><trkpt lat="42.272424" lon="-8.61016"/><trkpt lat="42.272676" lon="-8.610165"/><trkpt lat="42.272918" lon="-8.610163"/><trkpt lat="42.273405" lon="-8.610177"/><trkpt lat="42.27365" lon="-8.610176"/><trkpt lat="42.273896" lon="-8.610174"/><trkpt lat="42.274141" lon="-8.610173"/><trkpt lat="42.274386" lon="-8.610173"/><trkpt lat="42.274631" lon="-8.610172"/><trkpt lat="42.274877" lon="-8.61017"/><trkpt lat="42.27512" lon="-8.610177"/><trkpt lat="42.275313" lon="-8.610191"/><trkpt lat="42.275345" lon="-8.610217"/><trkpt lat="42.275418" lon="-8.610216"/><trkpt lat="42.275659" lon="-8.610219"/><trkpt lat="42.275829" lon="-8.610218"/><trkpt lat="42.275856" lon="-8.61019"/><trkpt lat="42.275912" lon="-8.61019"/><trkpt lat="42.276152" lon="-8.61019"/><trkpt lat="42.276285" lon="-8.610183"/><trkpt lat="42.276305" lon="-8.610198"/><trkpt lat="42.276409" lon="-8.610191"/><trkpt lat="42.276597" lon="-8.610194"/><trkpt lat="42.276678" lon="-8.610215"/><trkpt lat="42.276718" lon="-8.610221"/><trkpt lat="42.276779" lon="-8.610229"/><trkpt lat="42.276871" lon="-8.61024"/><trkpt lat="42.277064" lon="-8.610224"/><trkpt lat="42.277407" lon="-8.610228"/><trkpt lat="42.277767" lon="-8.610152"/><trkpt lat="42.277858" lon="-8.610112"/><trkpt lat="42.277949" lon="-8.610071"/><trkpt lat="42.278324" lon="-8.609967"/><trkpt lat="42.278523" lon="-8.609932"/><trkpt lat="42.278614" lon="-8.609974"/><trkpt lat="42.278693" lon="-8.610039"/><trkpt lat="42.278808" lon="-8.610141"/><trkpt lat="42.278958" lon="-8.610276"/><trkpt lat="42.27906" lon="-8.610363"/><trkpt lat="42.279137" lon="-8.610398"/><trkpt lat="42.279215" lon="-8.610425"/><trkpt lat="42.279321" lon="-8.610471"/><trkpt lat="42.279319" lon="-8.610597"/><trkpt lat="42.279359" lon="-8.610595"/><trkpt lat="42.279512" lon="-8.610586"/><trkpt lat="42.279701" lon="-8.610572"/><trkpt lat="42.279858" lon="-8.610553"/><trkpt lat="42.280027" lon="-8.610529"/><trkpt lat="42.280144" lon="-8.610508"/><trkpt lat="42.280318" lon="-8.610473"/><trkpt lat="42.280447" lon="-8.610428"/><trkpt lat="42.280574" lon="-8.610368"/><trkpt lat="42.280717" lon="-8.610082"/><trkpt lat="42.280783" lon="-8.609938"/><trkpt lat="42.280903" lon="-8.609617"/><trkpt lat="42.281068" lon="-8.609471"/><trkpt lat="42.281264" lon="-8.609248"/><trkpt lat="42.281503" lon="-8.609025"/><trkpt lat="42.281634" lon="-8.60893"/><trkpt lat="42.281776" lon="-8.608829"/><trkpt lat="42.281861" lon="-8.608708"/><trkpt lat="42.281931" lon="-8.608844"/><trkpt lat="42.282016" lon="-8.608971"/><trkpt lat="42.282153" lon="-8.608771"/><trkpt lat="42.28233" lon="-8.608567"/></trkseg></trk></gpx>
