<?xml version="1.0" encoding="UTF-8"?>
<gpx creator="Wikiloc - https://www.wikiloc.com" version="1.1" xmlns="http://www.topografix.com/GPX/1/1" xmlns:xsi="http://www.w3.org/2001/XMLSchema-instance" xsi:schemaLocation="http://www.topografix.com/GPX/1/1 http://www.topografix.com/GPX/1/1/gpx.xsd">
  <metadata>
    <name>Wikiloc - Camino De Santiago portugués. Puentecesures - O Milladoiro -...</name>
    <link href="https://www.wikiloc.com/hiking-trails/camino-de-santiago-portugues-puentecesures-o-milladoiro-164254451">
      <text>Camino De Santiago portugués. Puentecesures - O Milladoiro -... on Wikiloc</text>
    </link>
    <time>2024-03-17T17:01:02Z</time>
  </metadata>
  <trk>
    <name>Camino De Santiago portugués. Puentecesures - O Milladoiro -... - Wikiloc</name>
    <cmt></cmt>
    <desc></desc>
    <trkseg>
      <trkpt lat="42.722023" lon="-8.653802">
        <ele>5.842</ele>
        <time>2024-03-17T08:53:55Z</time>
      </trkpt>
      <trkpt lat="42.725572" lon="-8.653945">
        <ele>9.622</ele>
        <time>2024-03-17T08:59:20Z</time>
      </trkpt>
      <trkpt lat="42.725433" lon="-8.655484">
        <ele>11.414</ele>
        <time>2024-03-17T09:01:11Z</time>
      </trkpt>
      <trkpt lat="42.725211" lon="-8.655465">
        <ele>8.209</ele>
        <time>2024-03-17T09:02:07Z</time>
      </trkpt>
      <trkpt lat="42.725203" lon="-8.655564">
        <ele>8.085</ele>
        <time>2024-03-17T09:02:13Z</time>
      </trkpt>
      <trkpt lat="42.725420" lon="-8.655673">
        <ele>9.210</ele>
        <time>2024-03-17T09:02:39Z</time>
      </trkpt>
      <trkpt lat="42.725453" lon="-8.656134">
        <ele>8.098</ele>
        <time>2024-03-17T09:03:16Z</time>
      </trkpt>
      <trkpt lat="42.725700" lon="-8.656295">
        <ele>7.426</ele>
        <time>2024-03-17T09:03:39Z</time>
      </trkpt>
      <trkpt lat="42.726019" lon="-8.657675">
        <ele>7.289</ele>
        <time>2024-03-17T09:05:10Z</time>
      </trkpt>
      <trkpt lat="42.726325" lon="-8.658388">
        <ele>8.268</ele>
        <time>2024-03-17T09:06:00Z</time>
      </trkpt>
      <trkpt lat="42.726732" lon="-8.658473">
        <ele>7.618</ele>
        <time>2024-03-17T09:07:06Z</time>
      </trkpt>
      <trkpt lat="42.726890" lon="-8.659633">
        <ele>8.069</ele>
        <time>2024-03-17T09:08:14Z</time>
      </trkpt>
      <trkpt lat="42.727232" lon="-8.660217">
        <ele>7.645</ele>
        <time>2024-03-17T09:08:58Z</time>
      </trkpt>
      <trkpt lat="42.727052" lon="-8.661043">
        <ele>7.648</ele>
        <time>2024-03-17T09:09:47Z</time>
      </trkpt>
      <trkpt lat="42.727137" lon="-8.661297">
        <ele>8.461</ele>
        <time>2024-03-17T09:10:03Z</time>
      </trkpt>
      <trkpt lat="42.729903" lon="-8.660872">
        <ele>7.017</ele>
        <time>2024-03-17T09:13:41Z</time>
      </trkpt>
      <trkpt lat="42.730937" lon="-8.660926">
        <ele>6.809</ele>
        <time>2024-03-17T09:15:00Z</time>
      </trkpt>
      <trkpt lat="42.734377" lon="-8.661674">
        <ele>5.435</ele>
        <time>2024-03-17T09:19:30Z</time>
      </trkpt>
      <trkpt lat="42.734972" lon="-8.661672">
        <ele>5.450</ele>
        <time>2024-03-17T09:20:20Z</time>
      </trkpt>
      <trkpt lat="42.735556" lon="-8.661486">
        <ele>5.838</ele>
        <time>2024-03-17T09:21:21Z</time>
      </trkpt>
      <trkpt lat="42.735472" lon="-8.661515">
        <ele>6.226</ele>
        <time>2024-03-17T09:21:50Z</time>
      </trkpt>
      <trkpt lat="42.735590" lon="-8.661595">
        <ele>6.039</ele>
        <time>2024-03-17T09:22:09Z</time>
      </trkpt>
      <trkpt lat="42.736156" lon="-8.661647">
        <ele>5.638</ele>
        <time>2024-03-17T09:23:24Z</time>
      </trkpt>
      <trkpt lat="42.736219" lon="-8.661401">
        <ele>4.898</ele>
        <time>2024-03-17T09:25:10Z</time>
      </trkpt>
      <trkpt lat="42.736573" lon="-8.661537">
        <ele>4.479</ele>
        <time>2024-03-17T09:25:42Z</time>
      </trkpt>
      <trkpt lat="42.737019" lon="-8.661419">
        <ele>4.655</ele>
        <time>2024-03-17T09:26:29Z</time>
      </trkpt>
      <trkpt lat="42.738830" lon="-8.661504">
        <ele>6.438</ele>
        <time>2024-03-17T09:29:00Z</time>
      </trkpt>
      <trkpt lat="42.739006" lon="-8.661618">
        <ele>7.270</ele>
        <time>2024-03-17T09:29:18Z</time>
      </trkpt>
      <trkpt lat="42.739026" lon="-8.662561">
        <ele>8.017</ele>
        <time>2024-03-17T09:30:39Z</time>
      </trkpt>
      <trkpt lat="42.739168" lon="-8.662684">
        <ele>8.009</ele>
        <time>2024-03-17T09:31:33Z</time>
      </trkpt>
      <trkpt lat="42.739040" lon="-8.662746">
        <ele>9.624</ele>
        <time>2024-03-17T09:32:22Z</time>
      </trkpt>
      <trkpt lat="42.739153" lon="-8.662757">
        <ele>8.889</ele>
        <time>2024-03-17T09:33:19Z</time>
      </trkpt>
      <trkpt lat="42.739034" lon="-8.662502">
        <ele>8.017</ele>
        <time>2024-03-17T09:47:21Z</time>
      </trkpt>
      <trkpt lat="42.739011" lon="-8.661571">
        <ele>10.265</ele>
        <time>2024-03-17T09:48:40Z</time>
      </trkpt>
      <trkpt lat="42.739231" lon="-8.661458">
        <ele>12.088</ele>
        <time>2024-03-17T09:49:21Z</time>
      </trkpt>
      <trkpt lat="42.739087" lon="-8.661532">
        <ele>10.297</ele>
        <time>2024-03-17T10:02:34Z</time>
      </trkpt>
      <trkpt lat="42.739075" lon="-8.661339">
        <ele>9.087</ele>
        <time>2024-03-17T10:02:42Z</time>
      </trkpt>
      <trkpt lat="42.739152" lon="-8.661240">
        <ele>10.228</ele>
        <time>2024-03-17T10:02:52Z</time>
      </trkpt>
      <trkpt lat="42.739694" lon="-8.661348">
        <ele>12.254</ele>
        <time>2024-03-17T10:03:32Z</time>
      </trkpt>
      <trkpt lat="42.740004" lon="-8.660493">
        <ele>14.014</ele>
        <time>2024-03-17T10:04:34Z</time>
      </trkpt>
      <trkpt lat="42.739996" lon="-8.660195">
        <ele>14.254</ele>
        <time>2024-03-17T10:04:57Z</time>
      </trkpt>
      <trkpt lat="42.740385" lon="-8.660100">
        <ele>14.209</ele>
        <time>2024-03-17T10:05:25Z</time>
      </trkpt>
      <trkpt lat="42.740905" lon="-8.659651">
        <ele>13.609</ele>
        <time>2024-03-17T10:06:20Z</time>
      </trkpt>
      <trkpt lat="42.741833" lon="-8.659269">
        <ele>12.892</ele>
        <time>2024-03-17T10:07:47Z</time>
      </trkpt>
      <trkpt lat="42.743375" lon="-8.657723">
        <ele>10.477</ele>
        <time>2024-03-17T10:10:24Z</time>
      </trkpt>
      <trkpt lat="42.744354" lon="-8.657134">
        <ele>9.245</ele>
        <time>2024-03-17T10:11:52Z</time>
      </trkpt>
      <trkpt lat="42.744657" lon="-8.656443">
        <ele>10.413</ele>
        <time>2024-03-17T10:12:44Z</time>
      </trkpt>
      <trkpt lat="42.744909" lon="-8.656313">
        <ele>11.276</ele>
        <time>2024-03-17T10:13:09Z</time>
      </trkpt>
      <trkpt lat="42.744828" lon="-8.656073">
        <ele>11.275</ele>
        <time>2024-03-17T10:13:28Z</time>
      </trkpt>
      <trkpt lat="42.745497" lon="-8.654995">
        <ele>12.235</ele>
        <time>2024-03-17T10:14:53Z</time>
      </trkpt>
      <trkpt lat="42.745644" lon="-8.653952">
        <ele>9.696</ele>
        <time>2024-03-17T10:15:59Z</time>
      </trkpt>
      <trkpt lat="42.745939" lon="-8.653484">
        <ele>14.462</ele>
        <time>2024-03-17T10:16:37Z</time>
      </trkpt>
      <trkpt lat="42.746795" lon="-8.652804">
        <ele>19.247</ele>
        <time>2024-03-17T10:18:36Z</time>
      </trkpt>
      <trkpt lat="42.747456" lon="-8.652821">
        <ele>19.429</ele>
        <time>2024-03-17T10:19:38Z</time>
      </trkpt>
      <trkpt lat="42.748402" lon="-8.652282">
        <ele>23.021</ele>
        <time>2024-03-17T10:20:55Z</time>
      </trkpt>
      <trkpt lat="42.748854" lon="-8.652413">
        <ele>25.009</ele>
        <time>2024-03-17T10:21:41Z</time>
      </trkpt>
      <trkpt lat="42.748938" lon="-8.654505">
        <ele>16.075</ele>
        <time>2024-03-17T10:23:44Z</time>
      </trkpt>
      <trkpt lat="42.751551" lon="-8.653477">
        <ele>17.830</ele>
        <time>2024-03-17T10:27:36Z</time>
      </trkpt>
      <trkpt lat="42.751913" lon="-8.653608">
        <ele>17.098</ele>
        <time>2024-03-17T10:28:39Z</time>
      </trkpt>
      <trkpt lat="42.753203" lon="-8.653023">
        <ele>15.856</ele>
        <time>2024-03-17T10:30:25Z</time>
      </trkpt>
      <trkpt lat="42.754130" lon="-8.652818">
        <ele>16.279</ele>
        <time>2024-03-17T10:31:43Z</time>
      </trkpt>
      <trkpt lat="42.754300" lon="-8.652637">
        <ele>15.098</ele>
        <time>2024-03-17T10:32:25Z</time>
      </trkpt>
      <trkpt lat="42.755674" lon="-8.652061">
        <ele>19.488</ele>
        <time>2024-03-17T10:34:25Z</time>
      </trkpt>
      <trkpt lat="42.756133" lon="-8.652346">
        <ele>20.619</ele>
        <time>2024-03-17T10:35:15Z</time>
      </trkpt>
      <trkpt lat="42.757562" lon="-8.651486">
        <ele>21.645</ele>
        <time>2024-03-17T10:37:26Z</time>
      </trkpt>
      <trkpt lat="42.758842" lon="-8.651265">
        <ele>23.075</ele>
        <time>2024-03-17T10:39:32Z</time>
      </trkpt>
      <trkpt lat="42.759926" lon="-8.651310">
        <ele>25.628</ele>
        <time>2024-03-17T10:44:14Z</time>
      </trkpt>
      <trkpt lat="42.760134" lon="-8.653448">
        <ele>16.020</ele>
        <time>2024-03-17T10:46:24Z</time>
      </trkpt>
      <trkpt lat="42.762108" lon="-8.653849">
        <ele>12.009</ele>
        <time>2024-03-17T10:49:22Z</time>
      </trkpt>
      <trkpt lat="42.762913" lon="-8.653683">
        <ele>13.268</ele>
        <time>2024-03-17T10:50:33Z</time>
      </trkpt>
      <trkpt lat="42.763358" lon="-8.654411">
        <ele>11.283</ele>
        <time>2024-03-17T10:51:35Z</time>
      </trkpt>
      <trkpt lat="42.764137" lon="-8.654653">
        <ele>12.661</ele>
        <time>2024-03-17T10:52:47Z</time>
      </trkpt>
      <trkpt lat="42.764199" lon="-8.654824">
        <ele>12.249</ele>
        <time>2024-03-17T10:52:58Z</time>
      </trkpt>
      <trkpt lat="42.764521" lon="-8.654964">
        <ele>12.812</ele>
        <time>2024-03-17T10:53:27Z</time>
      </trkpt>
      <trkpt lat="42.764954" lon="-8.655430">
        <ele>12.051</ele>
        <time>2024-03-17T10:54:15Z</time>
      </trkpt>
      <trkpt lat="42.765310" lon="-8.655347">
        <ele>12.091</ele>
        <time>2024-03-17T10:54:43Z</time>
      </trkpt>
      <trkpt lat="42.765396" lon="-8.655116">
        <ele>12.082</ele>
        <time>2024-03-17T10:54:58Z</time>
      </trkpt>
      <trkpt lat="42.765619" lon="-8.655034">
        <ele>12.638</ele>
        <time>2024-03-17T10:55:17Z</time>
      </trkpt>
      <trkpt lat="42.765835" lon="-8.654252">
        <ele>14.497</ele>
        <time>2024-03-17T10:56:10Z</time>
      </trkpt>
      <trkpt lat="42.766315" lon="-8.654138">
        <ele>16.023</ele>
        <time>2024-03-17T10:56:53Z</time>
      </trkpt>
      <trkpt lat="42.766545" lon="-8.654247">
        <ele>17.825</ele>
        <time>2024-03-17T10:57:13Z</time>
      </trkpt>
      <trkpt lat="42.766558" lon="-8.654777">
        <ele>17.209</ele>
        <time>2024-03-17T10:57:47Z</time>
      </trkpt>
      <trkpt lat="42.767035" lon="-8.655451">
        <ele>14.080</ele>
        <time>2024-03-17T10:58:43Z</time>
      </trkpt>
      <trkpt lat="42.769531" lon="-8.653527">
        <ele>17.255</ele>
        <time>2024-03-17T11:02:42Z</time>
      </trkpt>
      <trkpt lat="42.769854" lon="-8.653134">
        <ele>18.443</ele>
        <time>2024-03-17T11:03:17Z</time>
      </trkpt>
      <trkpt lat="42.770465" lon="-8.653764">
        <ele>19.841</ele>
        <time>2024-03-17T11:04:39Z</time>
      </trkpt>
      <trkpt lat="42.770403" lon="-8.654290">
        <ele>21.854</ele>
        <time>2024-03-17T11:05:24Z</time>
      </trkpt>
      <trkpt lat="42.771207" lon="-8.654632">
        <ele>26.663</ele>
        <time>2024-03-17T11:06:50Z</time>
      </trkpt>
      <trkpt lat="42.771281" lon="-8.654173">
        <ele>26.063</ele>
        <time>2024-03-17T11:07:21Z</time>
      </trkpt>
      <trkpt lat="42.773777" lon="-8.653622">
        <ele>30.884</ele>
        <time>2024-03-17T11:10:48Z</time>
      </trkpt>
      <trkpt lat="42.773972" lon="-8.654060">
        <ele>32.630</ele>
        <time>2024-03-17T11:11:24Z</time>
      </trkpt>
      <trkpt lat="42.774134" lon="-8.654101">
        <ele>32.688</ele>
        <time>2024-03-17T11:11:38Z</time>
      </trkpt>
      <trkpt lat="42.775194" lon="-8.653909">
        <ele>33.224</ele>
        <time>2024-03-17T11:13:16Z</time>
      </trkpt>
      <trkpt lat="42.775264" lon="-8.653769">
        <ele>32.026</ele>
        <time>2024-03-17T11:13:52Z</time>
      </trkpt>
      <trkpt lat="42.775341" lon="-8.653913">
        <ele>32.409</ele>
        <time>2024-03-17T11:14:33Z</time>
      </trkpt>
      <trkpt lat="42.776038" lon="-8.653836">
        <ele>31.869</ele>
        <time>2024-03-17T11:15:38Z</time>
      </trkpt>
      <trkpt lat="42.776061" lon="-8.653703">
        <ele>31.414</ele>
        <time>2024-03-17T11:16:01Z</time>
      </trkpt>
      <trkpt lat="42.776089" lon="-8.653958">
        <ele>31.222</ele>
        <time>2024-03-17T11:23:22Z</time>
      </trkpt>
      <trkpt lat="42.776166" lon="-8.653804">
        <ele>32.630</ele>
        <time>2024-03-17T11:23:34Z</time>
      </trkpt>
      <trkpt lat="42.776836" lon="-8.653609">
        <ele>31.263</ele>
        <time>2024-03-17T11:24:26Z</time>
      </trkpt>
      <trkpt lat="42.777383" lon="-8.653993">
        <ele>27.432</ele>
        <time>2024-03-17T11:25:18Z</time>
      </trkpt>
      <trkpt lat="42.778030" lon="-8.653467">
        <ele>27.812</ele>
        <time>2024-03-17T11:26:58Z</time>
      </trkpt>
      <trkpt lat="42.778452" lon="-8.653611">
        <ele>26.893</ele>
        <time>2024-03-17T11:27:33Z</time>
      </trkpt>
      <trkpt lat="42.778725" lon="-8.653552">
        <ele>28.459</ele>
        <time>2024-03-17T11:27:55Z</time>
      </trkpt>
      <trkpt lat="42.780009" lon="-8.651901">
        <ele>33.212</ele>
        <time>2024-03-17T11:30:26Z</time>
      </trkpt>
      <trkpt lat="42.780253" lon="-8.651109">
        <ele>35.032</ele>
        <time>2024-03-17T11:31:22Z</time>
      </trkpt>
      <trkpt lat="42.780624" lon="-8.651004">
        <ele>33.805</ele>
        <time>2024-03-17T11:31:54Z</time>
      </trkpt>
      <trkpt lat="42.780692" lon="-8.650851">
        <ele>33.809</ele>
        <time>2024-03-17T11:32:05Z</time>
      </trkpt>
      <trkpt lat="42.784174" lon="-8.650042">
        <ele>35.872</ele>
        <time>2024-03-17T11:37:27Z</time>
      </trkpt>
      <trkpt lat="42.784085" lon="-8.650008">
        <ele>38.467</ele>
        <time>2024-03-17T11:37:55Z</time>
      </trkpt>
      <trkpt lat="42.784213" lon="-8.649988">
        <ele>39.875</ele>
        <time>2024-03-17T11:49:52Z</time>
      </trkpt>
      <trkpt lat="42.784224" lon="-8.649833">
        <ele>39.883</ele>
        <time>2024-03-17T11:50:42Z</time>
      </trkpt>
      <trkpt lat="42.784707" lon="-8.649409">
        <ele>42.256</ele>
        <time>2024-03-17T11:51:35Z</time>
      </trkpt>
      <trkpt lat="42.784938" lon="-8.649009">
        <ele>46.625</ele>
        <time>2024-03-17T11:52:06Z</time>
      </trkpt>
      <trkpt lat="42.785441" lon="-8.648627">
        <ele>50.035</ele>
        <time>2024-03-17T11:53:21Z</time>
      </trkpt>
      <trkpt lat="42.786050" lon="-8.647839">
        <ele>53.096</ele>
        <time>2024-03-17T11:54:37Z</time>
      </trkpt>
      <trkpt lat="42.786276" lon="-8.647821">
        <ele>53.892</ele>
        <time>2024-03-17T11:54:55Z</time>
      </trkpt>
      <trkpt lat="42.786987" lon="-8.648115">
        <ele>54.475</ele>
        <time>2024-03-17T11:55:59Z</time>
      </trkpt>
      <trkpt lat="42.787477" lon="-8.647760">
        <ele>54.628</ele>
        <time>2024-03-17T11:56:44Z</time>
      </trkpt>
      <trkpt lat="42.788100" lon="-8.647714">
        <ele>54.820</ele>
        <time>2024-03-17T11:57:35Z</time>
      </trkpt>
      <trkpt lat="42.788124" lon="-8.647203">
        <ele>55.809</ele>
        <time>2024-03-17T11:58:13Z</time>
      </trkpt>
      <trkpt lat="42.789875" lon="-8.646665">
        <ele>52.018</ele>
        <time>2024-03-17T12:00:41Z</time>
      </trkpt>
      <trkpt lat="42.790088" lon="-8.644916">
        <ele>64.073</ele>
        <time>2024-03-17T12:02:37Z</time>
      </trkpt>
      <trkpt lat="42.790340" lon="-8.644998">
        <ele>64.871</ele>
        <time>2024-03-17T12:03:04Z</time>
      </trkpt>
      <trkpt lat="42.791253" lon="-8.644892">
        <ele>65.469</ele>
        <time>2024-03-17T12:04:20Z</time>
      </trkpt>
      <trkpt lat="42.791940" lon="-8.644672">
        <ele>66.282</ele>
        <time>2024-03-17T12:05:17Z</time>
      </trkpt>
      <trkpt lat="42.792690" lon="-8.643619">
        <ele>64.881</ele>
        <time>2024-03-17T12:06:43Z</time>
      </trkpt>
      <trkpt lat="42.794444" lon="-8.641718">
        <ele>54.221</ele>
        <time>2024-03-17T12:09:56Z</time>
      </trkpt>
      <trkpt lat="42.794627" lon="-8.641732">
        <ele>51.482</ele>
        <time>2024-03-17T12:10:12Z</time>
      </trkpt>
      <trkpt lat="42.794772" lon="-8.642012">
        <ele>50.218</ele>
        <time>2024-03-17T12:10:34Z</time>
      </trkpt>
      <trkpt lat="42.795021" lon="-8.642042">
        <ele>50.264</ele>
        <time>2024-03-17T12:10:51Z</time>
      </trkpt>
      <trkpt lat="42.795381" lon="-8.642307">
        <ele>49.406</ele>
        <time>2024-03-17T12:11:22Z</time>
      </trkpt>
      <trkpt lat="42.795622" lon="-8.642253">
        <ele>48.416</ele>
        <time>2024-03-17T12:11:42Z</time>
      </trkpt>
      <trkpt lat="42.796191" lon="-8.641389">
        <ele>44.609</ele>
        <time>2024-03-17T12:12:52Z</time>
      </trkpt>
      <trkpt lat="42.796302" lon="-8.640550">
        <ele>45.437</ele>
        <time>2024-03-17T12:13:44Z</time>
      </trkpt>
      <trkpt lat="42.796521" lon="-8.640163">
        <ele>44.672</ele>
        <time>2024-03-17T12:14:14Z</time>
      </trkpt>
      <trkpt lat="42.796382" lon="-8.639602">
        <ele>46.080</ele>
        <time>2024-03-17T12:14:51Z</time>
      </trkpt>
      <trkpt lat="42.796450" lon="-8.639223">
        <ele>45.248</ele>
        <time>2024-03-17T12:15:46Z</time>
      </trkpt>
      <trkpt lat="42.797310" lon="-8.638799">
        <ele>44.091</ele>
        <time>2024-03-17T12:17:01Z</time>
      </trkpt>
      <trkpt lat="42.797860" lon="-8.638004">
        <ele>42.490</ele>
        <time>2024-03-17T12:18:06Z</time>
      </trkpt>
      <trkpt lat="42.797956" lon="-8.638098">
        <ele>42.090</ele>
        <time>2024-03-17T12:18:16Z</time>
      </trkpt>
      <trkpt lat="42.798097" lon="-8.637953">
        <ele>41.831</ele>
        <time>2024-03-17T12:18:29Z</time>
      </trkpt>
      <trkpt lat="42.798403" lon="-8.637104">
        <ele>42.467</ele>
        <time>2024-03-17T12:19:28Z</time>
      </trkpt>
      <trkpt lat="42.798663" lon="-8.636994">
        <ele>43.286</ele>
        <time>2024-03-17T12:19:51Z</time>
      </trkpt>
      <trkpt lat="42.799218" lon="-8.636418">
        <ele>47.260</ele>
        <time>2024-03-17T12:20:50Z</time>
      </trkpt>
      <trkpt lat="42.798939" lon="-8.635822">
        <ele>50.026</ele>
        <time>2024-03-17T12:22:15Z</time>
      </trkpt>
      <trkpt lat="42.798927" lon="-8.635516">
        <ele>50.409</ele>
        <time>2024-03-17T12:22:54Z</time>
      </trkpt>
      <trkpt lat="42.799643" lon="-8.634490">
        <ele>56.269</ele>
        <time>2024-03-17T12:24:20Z</time>
      </trkpt>
      <trkpt lat="42.800371" lon="-8.636165">
        <ele>56.464</ele>
        <time>2024-03-17T12:26:20Z</time>
      </trkpt>
      <trkpt lat="42.801066" lon="-8.636661">
        <ele>52.442</ele>
        <time>2024-03-17T12:27:40Z</time>
      </trkpt>
      <trkpt lat="42.801006" lon="-8.636860">
        <ele>51.680</ele>
        <time>2024-03-17T12:28:06Z</time>
      </trkpt>
      <trkpt lat="42.801234" lon="-8.637282">
        <ele>50.623</ele>
        <time>2024-03-17T12:28:41Z</time>
      </trkpt>
      <trkpt lat="42.802045" lon="-8.637905">
        <ele>47.212</ele>
        <time>2024-03-17T12:29:59Z</time>
      </trkpt>
      <trkpt lat="42.802499" lon="-8.637608">
        <ele>47.842</ele>
        <time>2024-03-17T12:30:41Z</time>
      </trkpt>
      <trkpt lat="42.802662" lon="-8.637773">
        <ele>47.813</ele>
        <time>2024-03-17T12:30:59Z</time>
      </trkpt>
      <trkpt lat="42.803785" lon="-8.636681">
        <ele>45.229</ele>
        <time>2024-03-17T12:33:14Z</time>
      </trkpt>
      <trkpt lat="42.804485" lon="-8.638131">
        <ele>40.288</ele>
        <time>2024-03-17T12:34:55Z</time>
      </trkpt>
      <trkpt lat="42.805984" lon="-8.637279">
        <ele>40.824</ele>
        <time>2024-03-17T12:37:08Z</time>
      </trkpt>
      <trkpt lat="42.806185" lon="-8.637441">
        <ele>41.026</ele>
        <time>2024-03-17T12:37:30Z</time>
      </trkpt>
      <trkpt lat="42.806638" lon="-8.637477">
        <ele>40.609</ele>
        <time>2024-03-17T12:38:07Z</time>
      </trkpt>
      <trkpt lat="42.807047" lon="-8.636373">
        <ele>41.479</ele>
        <time>2024-03-17T12:39:36Z</time>
      </trkpt>
      <trkpt lat="42.807406" lon="-8.636232">
        <ele>40.464</ele>
        <time>2024-03-17T12:40:07Z</time>
      </trkpt>
      <trkpt lat="42.807473" lon="-8.635375">
        <ele>44.062</ele>
        <time>2024-03-17T12:41:35Z</time>
      </trkpt>
      <trkpt lat="42.808177" lon="-8.634214">
        <ele>45.210</ele>
        <time>2024-03-17T12:43:09Z</time>
      </trkpt>
      <trkpt lat="42.808976" lon="-8.632309">
        <ele>52.463</ele>
        <time>2024-03-17T12:45:52Z</time>
      </trkpt>
      <trkpt lat="42.809234" lon="-8.632062">
        <ele>54.272</ele>
        <time>2024-03-17T12:46:22Z</time>
      </trkpt>
      <trkpt lat="42.809317" lon="-8.631366">
        <ele>61.422</ele>
        <time>2024-03-17T12:47:39Z</time>
      </trkpt>
      <trkpt lat="42.809559" lon="-8.630741">
        <ele>66.693</ele>
        <time>2024-03-17T12:48:39Z</time>
      </trkpt>
      <trkpt lat="42.809241" lon="-8.630996">
        <ele>69.849</ele>
        <time>2024-03-17T12:49:18Z</time>
      </trkpt>
      <trkpt lat="42.809605" lon="-8.629918">
        <ele>72.435</ele>
        <time>2024-03-17T12:50:35Z</time>
      </trkpt>
      <trkpt lat="42.809827" lon="-8.628577">
        <ele>72.086</ele>
        <time>2024-03-17T13:19:28Z</time>
      </trkpt>
      <trkpt lat="42.809785" lon="-8.627833">
        <ele>70.014</ele>
        <time>2024-03-17T13:20:17Z</time>
      </trkpt>
      <trkpt lat="42.809494" lon="-8.626860">
        <ele>66.609</ele>
        <time>2024-03-17T13:21:22Z</time>
      </trkpt>
      <trkpt lat="42.809475" lon="-8.626056">
        <ele>65.224</ele>
        <time>2024-03-17T13:23:32Z</time>
      </trkpt>
      <trkpt lat="42.810225" lon="-8.624353">
        <ele>72.669</ele>
        <time>2024-03-17T13:25:42Z</time>
      </trkpt>
      <trkpt lat="42.811446" lon="-8.623589">
        <ele>74.047</ele>
        <time>2024-03-17T13:28:50Z</time>
      </trkpt>
      <trkpt lat="42.811694" lon="-8.622872">
        <ele>81.095</ele>
        <time>2024-03-17T13:30:31Z</time>
      </trkpt>
      <trkpt lat="42.811720" lon="-8.622972">
        <ele>81.618</ele>
        <time>2024-03-17T13:31:41Z</time>
      </trkpt>
      <trkpt lat="42.812004" lon="-8.622638">
        <ele>87.037</ele>
        <time>2024-03-17T13:32:22Z</time>
      </trkpt>
      <trkpt lat="42.813130" lon="-8.622047">
        <ele>93.887</ele>
        <time>2024-03-17T13:34:07Z</time>
      </trkpt>
      <trkpt lat="42.813441" lon="-8.621682">
        <ele>95.438</ele>
        <time>2024-03-17T13:34:39Z</time>
      </trkpt>
      <trkpt lat="42.814040" lon="-8.620306">
        <ele>104.854</ele>
        <time>2024-03-17T13:36:25Z</time>
      </trkpt>
      <trkpt lat="42.814290" lon="-8.620363">
        <ele>107.083</ele>
        <time>2024-03-17T13:36:52Z</time>
      </trkpt>
      <trkpt lat="42.814594" lon="-8.620003">
        <ele>109.425</ele>
        <time>2024-03-17T13:37:32Z</time>
      </trkpt>
      <trkpt lat="42.814771" lon="-8.621295">
        <ele>104.817</ele>
        <time>2024-03-17T13:38:51Z</time>
      </trkpt>
      <trkpt lat="42.815601" lon="-8.622187">
        <ele>103.609</ele>
        <time>2024-03-17T13:40:15Z</time>
      </trkpt>
      <trkpt lat="42.816078" lon="-8.622108">
        <ele>97.879</ele>
        <time>2024-03-17T13:40:55Z</time>
      </trkpt>
      <trkpt lat="42.816279" lon="-8.621723">
        <ele>94.044</ele>
        <time>2024-03-17T13:41:23Z</time>
      </trkpt>
      <trkpt lat="42.816842" lon="-8.621311">
        <ele>93.872</ele>
        <time>2024-03-17T13:42:14Z</time>
      </trkpt>
      <trkpt lat="42.818012" lon="-8.621046">
        <ele>100.870</ele>
        <time>2024-03-17T13:43:55Z</time>
      </trkpt>
      <trkpt lat="42.819258" lon="-8.619709">
        <ele>116.463</ele>
        <time>2024-03-17T13:46:19Z</time>
      </trkpt>
      <trkpt lat="42.819418" lon="-8.619194">
        <ele>117.812</ele>
        <time>2024-03-17T13:46:54Z</time>
      </trkpt>
      <trkpt lat="42.819883" lon="-8.618638">
        <ele>121.062</ele>
        <time>2024-03-17T13:47:44Z</time>
      </trkpt>
      <trkpt lat="42.820678" lon="-8.618051">
        <ele>128.053</ele>
        <time>2024-03-17T13:49:45Z</time>
      </trkpt>
      <trkpt lat="42.820827" lon="-8.617038">
        <ele>128.489</ele>
        <time>2024-03-17T13:50:50Z</time>
      </trkpt>
      <trkpt lat="42.821370" lon="-8.616949">
        <ele>127.237</ele>
        <time>2024-03-17T13:51:39Z</time>
      </trkpt>
      <trkpt lat="42.821218" lon="-8.615678">
        <ele>127.049</ele>
        <time>2024-03-17T13:52:59Z</time>
      </trkpt>
      <trkpt lat="42.821608" lon="-8.614511">
        <ele>131.013</ele>
        <time>2024-03-17T13:54:14Z</time>
      </trkpt>
      <trkpt lat="42.821549" lon="-8.613598">
        <ele>132.609</ele>
        <time>2024-03-17T13:55:11Z</time>
      </trkpt>
      <trkpt lat="42.822729" lon="-8.612269">
        <ele>132.874</ele>
        <time>2024-03-17T14:11:02Z</time>
      </trkpt>
      <trkpt lat="42.822256" lon="-8.611355">
        <ele>139.029</ele>
        <time>2024-03-17T14:12:16Z</time>
      </trkpt>
      <trkpt lat="42.822306" lon="-8.611438">
        <ele>139.427</ele>
        <time>2024-03-17T14:12:49Z</time>
      </trkpt>
      <trkpt lat="42.822354" lon="-8.611348">
        <ele>139.415</ele>
        <time>2024-03-17T14:13:13Z</time>
      </trkpt>
      <trkpt lat="42.822235" lon="-8.611363">
        <ele>139.228</ele>
        <time>2024-03-17T14:13:33Z</time>
      </trkpt>
      <trkpt lat="42.822810" lon="-8.610978">
        <ele>137.867</ele>
        <time>2024-03-17T14:14:31Z</time>
      </trkpt>
      <trkpt lat="42.822975" lon="-8.610513">
        <ele>137.697</ele>
        <time>2024-03-17T14:15:02Z</time>
      </trkpt>
      <trkpt lat="42.823883" lon="-8.609133">
        <ele>135.488</ele>
        <time>2024-03-17T14:16:47Z</time>
      </trkpt>
      <trkpt lat="42.823993" lon="-8.609149">
        <ele>135.214</ele>
        <time>2024-03-17T14:16:58Z</time>
      </trkpt>
      <trkpt lat="42.824100" lon="-8.608865">
        <ele>137.059</ele>
        <time>2024-03-17T14:17:58Z</time>
      </trkpt>
      <trkpt lat="42.824112" lon="-8.609025">
        <ele>135.803</ele>
        <time>2024-03-17T14:18:29Z</time>
      </trkpt>
      <trkpt lat="42.824098" lon="-8.608875">
        <ele>135.623</ele>
        <time>2024-03-17T14:18:34Z</time>
      </trkpt>
      <trkpt lat="42.824314" lon="-8.608880">
        <ele>135.009</ele>
        <time>2024-03-17T14:18:59Z</time>
      </trkpt>
      <trkpt lat="42.824324" lon="-8.609054">
        <ele>135.056</ele>
        <time>2024-03-17T14:19:03Z</time>
      </trkpt>
      <trkpt lat="42.831896" lon="-8.604265">
        <ele>150.871</ele>
        <time>2024-03-17T15:59:14Z</time>
      </trkpt>
      <trkpt lat="42.832959" lon="-8.602567">
        <ele>158.839</ele>
        <time>2024-03-17T16:01:42Z</time>
      </trkpt>
      <trkpt lat="42.833196" lon="-8.601597">
        <ele>166.487</ele>
        <time>2024-03-17T16:02:55Z</time>
      </trkpt>
      <trkpt lat="42.833554" lon="-8.601064">
        <ele>168.810</ele>
        <time>2024-03-17T16:03:41Z</time>
      </trkpt>
      <trkpt lat="42.834271" lon="-8.600593">
        <ele>170.229</ele>
        <time>2024-03-17T16:04:47Z</time>
      </trkpt>
      <trkpt lat="42.835618" lon="-8.599136">
        <ele>176.669</ele>
        <time>2024-03-17T16:07:22Z</time>
      </trkpt>
      <trkpt lat="42.835771" lon="-8.598555">
        <ele>179.880</ele>
        <time>2024-03-17T16:08:03Z</time>
      </trkpt>
      <trkpt lat="42.836283" lon="-8.597744">
        <ele>180.456</ele>
        <time>2024-03-17T16:09:34Z</time>
      </trkpt>
      <trkpt lat="42.836535" lon="-8.596388">
        <ele>180.651</ele>
        <time>2024-03-17T16:10:59Z</time>
      </trkpt>
      <trkpt lat="42.836608" lon="-8.595486">
        <ele>181.001</ele>
        <time>2024-03-17T16:11:56Z</time>
      </trkpt>
      <trkpt lat="42.836433" lon="-8.594707">
        <ele>188.011</ele>
        <time>2024-03-17T16:12:51Z</time>
      </trkpt>
      <trkpt lat="42.836498" lon="-8.593406">
        <ele>198.409</ele>
        <time>2024-03-17T16:14:32Z</time>
      </trkpt>
      <trkpt lat="42.838370" lon="-8.593197">
        <ele>213.446</ele>
        <time>2024-03-17T16:17:37Z</time>
      </trkpt>
      <trkpt lat="42.838427" lon="-8.593547">
        <ele>214.251</ele>
        <time>2024-03-17T16:18:03Z</time>
      </trkpt>
      <trkpt lat="42.838238" lon="-8.594379">
        <ele>214.629</ele>
        <time>2024-03-17T16:19:00Z</time>
      </trkpt>
      <trkpt lat="42.838779" lon="-8.593606">
        <ele>221.837</ele>
        <time>2024-03-17T16:20:10Z</time>
      </trkpt>
      <trkpt lat="42.838690" lon="-8.592498">
        <ele>218.820</ele>
        <time>2024-03-17T16:21:23Z</time>
      </trkpt>
      <trkpt lat="42.838972" lon="-8.591362">
        <ele>213.449</ele>
        <time>2024-03-17T16:22:39Z</time>
      </trkpt>
      <trkpt lat="42.838836" lon="-8.590247">
        <ele>213.619</ele>
        <time>2024-03-17T16:23:56Z</time>
      </trkpt>
      <trkpt lat="42.839897" lon="-8.587994">
        <ele>214.220</ele>
        <time>2024-03-17T16:26:46Z</time>
      </trkpt>
      <trkpt lat="42.841732" lon="-8.583536">
        <ele>227.096</ele>
        <time>2024-03-17T16:32:21Z</time>
      </trkpt>
      <trkpt lat="42.842007" lon="-8.583122">
        <ele>230.654</ele>
        <time>2024-03-17T16:32:58Z</time>
      </trkpt>
      <trkpt lat="42.843368" lon="-8.581796">
        <ele>245.056</ele>
        <time>2024-03-17T16:35:48Z</time>
      </trkpt>
      <trkpt lat="42.843173" lon="-8.580618">
        <ele>248.011</ele>
        <time>2024-03-17T16:37:09Z</time>
      </trkpt>
      <trkpt lat="42.843007" lon="-8.580560">
        <ele>247.409</ele>
        <time>2024-03-17T16:37:26Z</time>
      </trkpt>
      <trkpt lat="42.842919" lon="-8.580239">
        <ele>247.226</ele>
        <time>2024-03-17T16:37:46Z</time>
      </trkpt>
      <trkpt lat="42.842714" lon="-8.580169">
        <ele>247.051</ele>
        <time>2024-03-17T16:38:02Z</time>
      </trkpt>
      <trkpt lat="42.842602" lon="-8.579825">
        <ele>247.219</ele>
        <time>2024-03-17T16:38:24Z</time>
      </trkpt>
      <trkpt lat="42.842117" lon="-8.579196">
        <ele>248.247</ele>
        <time>2024-03-17T16:39:26Z</time>
      </trkpt>
      <trkpt lat="42.842103" lon="-8.578892">
        <ele>248.830</ele>
        <time>2024-03-17T16:39:43Z</time>
      </trkpt>
      <trkpt lat="42.842014" lon="-8.578911">
        <ele>249.049</ele>
        <time>2024-03-17T16:39:58Z</time>
      </trkpt>
      <trkpt lat="42.843213" lon="-8.580759">
        <ele>250.459</ele>
        <time>2024-03-17T16:42:38Z</time>
      </trkpt>
      <trkpt lat="42.843308" lon="-8.581585">
        <ele>248.870</ele>
        <time>2024-03-17T16:43:35Z</time>
      </trkpt>
      <trkpt lat="42.844633" lon="-8.580900">
        <ele>252.856</ele>
        <time>2024-03-17T16:45:55Z</time>
      </trkpt>
      <trkpt lat="42.845543" lon="-8.580584">
        <ele>253.811</ele>
        <time>2024-03-17T16:47:23Z</time>
      </trkpt>
      <trkpt lat="42.846445" lon="-8.580589">
        <ele>251.421</ele>
        <time>2024-03-17T16:48:37Z</time>
      </trkpt>
      <trkpt lat="42.846767" lon="-8.580785">
        <ele>251.403</ele>
        <time>2024-03-17T16:49:07Z</time>
      </trkpt>
      <trkpt lat="42.847508" lon="-8.582247">
        <ele>248.809</ele>
        <time>2024-03-17T16:50:57Z</time>
      </trkpt>
      <trkpt lat="42.848211" lon="-8.583008">
        <ele>246.842</ele>
        <time>2024-03-17T16:52:25Z</time>
      </trkpt>
      <trkpt lat="42.848195" lon="-8.582814">
        <ele>246.217</ele>
        <time>2024-03-17T16:52:49Z</time>
      </trkpt>
      <trkpt lat="42.848351" lon="-8.582836">
        <ele>246.065</ele>
        <time>2024-03-17T16:52:56Z</time>
      </trkpt>
      <trkpt lat="42.848429" lon="-8.582560">
        <ele>243.463</ele>
        <time>2024-03-17T16:53:59Z</time>
      </trkpt>
      <trkpt lat="42.848171" lon="-8.582850">
        <ele>243.876</ele>
        <time>2024-03-17T16:54:54Z</time>
      </trkpt>
      <trkpt lat="42.848181" lon="-8.583086">
        <ele>242.815</ele>
        <time>2024-03-17T16:55:23Z</time>
      </trkpt>
      <trkpt lat="42.848065" lon="-8.583062">
        <ele>243.215</ele>
        <time>2024-03-17T16:55:43Z</time>
      </trkpt>
      <trkpt lat="42.848239" lon="-8.583074">
        <ele>242.446</ele>
        <time>2024-03-17T16:56:16Z</time>
      </trkpt>
      <trkpt lat="42.848391" lon="-8.582893">
        <ele>242.212</ele>
        <time>2024-03-17T16:56:48Z</time>
      </trkpt>
      <trkpt lat="42.848238" lon="-8.582839">
        <ele>241.897</ele>
        <time>2024-03-17T16:57:05Z</time>
      </trkpt>
      <trkpt lat="42.848330" lon="-8.583018">
        <ele>241.823</ele>
        <time>2024-03-17T16:57:14Z</time>
      </trkpt>
      <trkpt lat="42.848244" lon="-8.582899">
        <ele>241.425</ele>
        <time>2024-03-17T16:58:04Z</time>
      </trkpt>
      <trkpt lat="42.848327" lon="-8.582697">
        <ele>241.209</ele>
        <time>2024-03-17T16:58:41Z</time>
      </trkpt>
      <trkpt lat="42.848446" lon="-8.582974">
        <ele>241.060</ele>
        <time>2024-03-17T16:58:56Z</time>
      </trkpt>
      <trkpt lat="42.848325" lon="-8.582948">
        <ele>241.075</ele>
        <time>2024-03-17T16:59:07Z</time>
      </trkpt>
      <trkpt lat="42.848964" lon="-8.582909">
        <ele>242.213</ele>
        <time>2024-03-17T16:59:55Z</time>
      </trkpt>
      <trkpt lat="42.848320" lon="-8.583233">
        <ele>242.281</ele>
        <time>2024-03-17T17:00:01Z</time>
      </trkpt>
      <trkpt lat="42.848306" lon="-8.582846">
        <ele>243.034</ele>
        <time>2024-03-17T17:01:02Z</time>
      </trkpt>
    </trkseg>
  </trk></gpx>