<?xml version="1.0" encoding="UTF-8"?>
<gpx version="1.1" creator="Peregrinia — peregrinia.com" xmlns="http://www.topografix.com/GPX/1/1">
  <metadata><name>Etapa 1 Variante Espiritual: Pontevedra → Armenteira</name><time>2026-08-11T07:26:27Z</time><link href="https://peregrinia.com"><text>Peregrinia</text></link></metadata>
  <trk><name>Etapa 1 Variante Espiritual: Pontevedra → Armenteira</name><trkseg>
    <trkpt lat="42.419570" lon="-8.636570"><ele>20.0</ele></trkpt>
    <trkpt lat="42.421320" lon="-8.636410"><ele>20.8</ele></trkpt>
    <trkpt lat="42.421330" lon="-8.636530"><ele>20.8</ele></trkpt>
    <trkpt lat="42.421600" lon="-8.636560"><ele>20.9</ele></trkpt>
    <trkpt lat="42.421690" lon="-8.636860"><ele>21.0</ele></trkpt>
    <trkpt lat="42.422090" lon="-8.636740"><ele>21.2</ele></trkpt>
    <trkpt lat="42.424350" lon="-8.637060"><ele>22.7</ele></trkpt>
    <trkpt lat="42.424970" lon="-8.637350"><ele>23.6</ele></trkpt>
    <trkpt lat="42.425970" lon="-8.638080"><ele>25.1</ele></trkpt>
    <trkpt lat="42.427110" lon="-8.639480"><ele>27.2</ele></trkpt>
    <trkpt lat="42.427250" lon="-8.639460"><ele>27.4</ele></trkpt>
    <trkpt lat="42.428840" lon="-8.641990"><ele>29.7</ele></trkpt>
    <trkpt lat="42.428640" lon="-8.642310"><ele>30.0</ele></trkpt>
    <trkpt lat="42.430830" lon="-8.644260"><ele>24.4</ele></trkpt>
    <trkpt lat="42.431040" lon="-8.644220"><ele>23.6</ele></trkpt>
    <trkpt lat="42.431660" lon="-8.645060"><ele>20.0</ele></trkpt>
    <trkpt lat="42.431810" lon="-8.644980"><ele>19.4</ele></trkpt>
    <trkpt lat="42.432240" lon="-8.645160"><ele>17.6</ele></trkpt>
    <trkpt lat="42.433170" lon="-8.645190"><ele>14.6</ele></trkpt>
    <trkpt lat="42.433860" lon="-8.645060"><ele>12.4</ele></trkpt>
    <trkpt lat="42.434400" lon="-8.644520"><ele>10.3</ele></trkpt>
    <trkpt lat="42.434860" lon="-8.644530"><ele>9.7</ele></trkpt>
    <trkpt lat="42.434980" lon="-8.644690"><ele>9.5</ele></trkpt>
    <trkpt lat="42.436540" lon="-8.643160"><ele>8.2</ele></trkpt>
    <trkpt lat="42.436650" lon="-8.643280"><ele>8.3</ele></trkpt>
    <trkpt lat="42.436990" lon="-8.643170"><ele>8.6</ele></trkpt>
    <trkpt lat="42.437080" lon="-8.643350"><ele>8.8</ele></trkpt>
    <trkpt lat="42.437910" lon="-8.643280"><ele>9.5</ele></trkpt>
    <trkpt lat="42.438860" lon="-8.642860"><ele>10.2</ele></trkpt>
    <trkpt lat="42.440330" lon="-8.642520"><ele>10.9</ele></trkpt>
    <trkpt lat="42.441180" lon="-8.642960"><ele>10.7</ele></trkpt>
    <trkpt lat="42.441930" lon="-8.642990"><ele>10.4</ele></trkpt>
    <trkpt lat="42.443980" lon="-8.643650"><ele>10.0</ele></trkpt>
    <trkpt lat="42.445590" lon="-8.642860"><ele>9.4</ele></trkpt>
    <trkpt lat="42.446340" lon="-8.642700"><ele>8.7</ele></trkpt>
    <trkpt lat="42.447800" lon="-8.642860"><ele>7.7</ele></trkpt>
    <trkpt lat="42.448910" lon="-8.642190"><ele>7.2</ele></trkpt>
    <trkpt lat="42.451660" lon="-8.641450"><ele>5.1</ele></trkpt>
    <trkpt lat="42.452880" lon="-8.641930"><ele>6.3</ele></trkpt>
    <trkpt lat="42.456820" lon="-8.644450"><ele>9.7</ele></trkpt>
    <trkpt lat="42.456730" lon="-8.644810"><ele>10.1</ele></trkpt>
    <trkpt lat="42.456880" lon="-8.645360"><ele>10.7</ele></trkpt>
    <trkpt lat="42.457150" lon="-8.645520"><ele>11.2</ele></trkpt>
    <trkpt lat="42.458000" lon="-8.646720"><ele>16.1</ele></trkpt>
    <trkpt lat="42.458430" lon="-8.646970"><ele>18.0</ele></trkpt>
    <trkpt lat="42.458880" lon="-8.647760"><ele>21.7</ele></trkpt>
    <trkpt lat="42.458750" lon="-8.648900"><ele>27.7</ele></trkpt>
    <trkpt lat="42.457930" lon="-8.649610"><ele>34.7</ele></trkpt>
    <trkpt lat="42.457680" lon="-8.650380"><ele>39.1</ele></trkpt>
    <trkpt lat="42.457230" lon="-8.650760"><ele>42.9</ele></trkpt>
    <trkpt lat="42.456790" lon="-8.651850"><ele>49.4</ele></trkpt>
    <trkpt lat="42.456820" lon="-8.652300"><ele>51.8</ele></trkpt>
    <trkpt lat="42.457390" lon="-8.652800"><ele>53.1</ele></trkpt>
    <trkpt lat="42.457730" lon="-8.653590"><ele>54.3</ele></trkpt>
    <trkpt lat="42.458900" lon="-8.655060"><ele>55.1</ele></trkpt>
    <trkpt lat="42.459850" lon="-8.655410"><ele>53.8</ele></trkpt>
    <trkpt lat="42.460210" lon="-8.655360"><ele>53.3</ele></trkpt>
    <trkpt lat="42.460840" lon="-8.657770"><ele>53.0</ele></trkpt>
    <trkpt lat="42.461470" lon="-8.657910"><ele>53.2</ele></trkpt>
    <trkpt lat="42.461680" lon="-8.658550"><ele>56.2</ele></trkpt>
    <trkpt lat="42.461410" lon="-8.660000"><ele>62.6</ele></trkpt>
    <trkpt lat="42.461810" lon="-8.660720"><ele>66.7</ele></trkpt>
    <trkpt lat="42.462570" lon="-8.661130"><ele>73.6</ele></trkpt>
    <trkpt lat="42.462410" lon="-8.662640"><ele>83.1</ele></trkpt>
    <trkpt lat="42.463130" lon="-8.662500"><ele>88.3</ele></trkpt>
    <trkpt lat="42.463460" lon="-8.663880"><ele>95.5</ele></trkpt>
    <trkpt lat="42.463700" lon="-8.664200"><ele>97.7</ele></trkpt>
    <trkpt lat="42.463980" lon="-8.664300"><ele>99.7</ele></trkpt>
    <trkpt lat="42.463700" lon="-8.666230"><ele>105.0</ele></trkpt>
    <trkpt lat="42.463110" lon="-8.667620"><ele>108.3</ele></trkpt>
    <trkpt lat="42.462360" lon="-8.668400"><ele>109.1</ele></trkpt>
    <trkpt lat="42.461220" lon="-8.668630"><ele>109.5</ele></trkpt>
    <trkpt lat="42.459600" lon="-8.670300"><ele>104.1</ele></trkpt>
    <trkpt lat="42.459270" lon="-8.670840"><ele>101.4</ele></trkpt>
    <trkpt lat="42.458920" lon="-8.670920"><ele>99.5</ele></trkpt>
    <trkpt lat="42.458280" lon="-8.671690"><ele>94.9</ele></trkpt>
    <trkpt lat="42.457620" lon="-8.671870"><ele>91.2</ele></trkpt>
    <trkpt lat="42.457390" lon="-8.671780"><ele>89.6</ele></trkpt>
    <trkpt lat="42.457260" lon="-8.672510"><ele>85.9</ele></trkpt>
    <trkpt lat="42.456960" lon="-8.673220"><ele>81.9</ele></trkpt>
    <trkpt lat="42.456310" lon="-8.673300"><ele>77.5</ele></trkpt>
    <trkpt lat="42.455860" lon="-8.673100"><ele>75.6</ele></trkpt>
    <trkpt lat="42.455370" lon="-8.673290"><ele>73.8</ele></trkpt>
    <trkpt lat="42.455290" lon="-8.673900"><ele>72.1</ele></trkpt>
    <trkpt lat="42.454590" lon="-8.674880"><ele>68.9</ele></trkpt>
    <trkpt lat="42.453790" lon="-8.677260"><ele>67.2</ele></trkpt>
    <trkpt lat="42.453470" lon="-8.678380"><ele>65.8</ele></trkpt>
    <trkpt lat="42.453530" lon="-8.678790"><ele>65.2</ele></trkpt>
    <trkpt lat="42.453250" lon="-8.679180"><ele>64.5</ele></trkpt>
    <trkpt lat="42.452860" lon="-8.679010"><ele>63.8</ele></trkpt>
    <trkpt lat="42.452100" lon="-8.681570"><ele>58.0</ele></trkpt>
    <trkpt lat="42.451430" lon="-8.682770"><ele>54.6</ele></trkpt>
    <trkpt lat="42.450570" lon="-8.682950"><ele>51.9</ele></trkpt>
    <trkpt lat="42.450210" lon="-8.682880"><ele>50.7</ele></trkpt>
    <trkpt lat="42.450130" lon="-8.683080"><ele>50.2</ele></trkpt>
    <trkpt lat="42.449630" lon="-8.683280"><ele>48.8</ele></trkpt>
    <trkpt lat="42.449340" lon="-8.684350"><ele>47.3</ele></trkpt>
    <trkpt lat="42.448670" lon="-8.684920"><ele>45.9</ele></trkpt>
    <trkpt lat="42.448260" lon="-8.684980"><ele>45.1</ele></trkpt>
    <trkpt lat="42.447450" lon="-8.685630"><ele>43.4</ele></trkpt>
    <trkpt lat="42.445970" lon="-8.685740"><ele>40.7</ele></trkpt>
    <trkpt lat="42.445860" lon="-8.686010"><ele>40.0</ele></trkpt>
    <trkpt lat="42.445560" lon="-8.686180"><ele>38.9</ele></trkpt>
    <trkpt lat="42.444950" lon="-8.686050"><ele>37.0</ele></trkpt>
    <trkpt lat="42.443810" lon="-8.684090"><ele>30.1</ele></trkpt>
    <trkpt lat="42.443210" lon="-8.684190"><ele>27.4</ele></trkpt>
    <trkpt lat="42.443140" lon="-8.684900"><ele>25.1</ele></trkpt>
    <trkpt lat="42.442540" lon="-8.686280"><ele>20.7</ele></trkpt>
    <trkpt lat="42.442600" lon="-8.687590"><ele>17.2</ele></trkpt>
    <trkpt lat="42.441580" lon="-8.688250"><ele>13.2</ele></trkpt>
    <trkpt lat="42.441350" lon="-8.688190"><ele>12.4</ele></trkpt>
    <trkpt lat="42.440970" lon="-8.688450"><ele>10.8</ele></trkpt>
    <trkpt lat="42.440510" lon="-8.688300"><ele>9.2</ele></trkpt>
    <trkpt lat="42.440270" lon="-8.688640"><ele>8.0</ele></trkpt>
    <trkpt lat="42.439330" lon="-8.688550"><ele>7.6</ele></trkpt>
    <trkpt lat="42.439420" lon="-8.689310"><ele>7.3</ele></trkpt>
    <trkpt lat="42.439350" lon="-8.689520"><ele>7.2</ele></trkpt>
    <trkpt lat="42.439160" lon="-8.689890"><ele>7.1</ele></trkpt>
    <trkpt lat="42.439010" lon="-8.689900"><ele>7.0</ele></trkpt>
    <trkpt lat="42.438970" lon="-8.690450"><ele>7.5</ele></trkpt>
    <trkpt lat="42.437970" lon="-8.692020"><ele>9.5</ele></trkpt>
    <trkpt lat="42.437760" lon="-8.692740"><ele>10.6</ele></trkpt>
    <trkpt lat="42.437500" lon="-8.693160"><ele>11.9</ele></trkpt>
    <trkpt lat="42.437620" lon="-8.694160"><ele>14.2</ele></trkpt>
    <trkpt lat="42.438000" lon="-8.694570"><ele>15.7</ele></trkpt>
    <trkpt lat="42.437690" lon="-8.695640"><ele>17.8</ele></trkpt>
    <trkpt lat="42.437900" lon="-8.696500"><ele>19.0</ele></trkpt>
    <trkpt lat="42.437200" lon="-8.699630"><ele>19.9</ele></trkpt>
    <trkpt lat="42.436830" lon="-8.699930"><ele>19.5</ele></trkpt>
    <trkpt lat="42.436320" lon="-8.701260"><ele>17.3</ele></trkpt>
    <trkpt lat="42.436040" lon="-8.701690"><ele>15.9</ele></trkpt>
    <trkpt lat="42.435740" lon="-8.703210"><ele>12.3</ele></trkpt>
    <trkpt lat="42.435150" lon="-8.703790"><ele>12.6</ele></trkpt>
    <trkpt lat="42.435030" lon="-8.703760"><ele>12.7</ele></trkpt>
    <trkpt lat="42.434950" lon="-8.703970"><ele>12.8</ele></trkpt>
    <trkpt lat="42.434560" lon="-8.704060"><ele>13.2</ele></trkpt>
    <trkpt lat="42.434400" lon="-8.704550"><ele>13.5</ele></trkpt>
    <trkpt lat="42.433680" lon="-8.705610"><ele>18.2</ele></trkpt>
    <trkpt lat="42.434100" lon="-8.706290"><ele>23.4</ele></trkpt>
    <trkpt lat="42.434200" lon="-8.706870"><ele>27.0</ele></trkpt>
    <trkpt lat="42.434810" lon="-8.706480"><ele>32.6</ele></trkpt>
    <trkpt lat="42.435210" lon="-8.706570"><ele>37.6</ele></trkpt>
    <trkpt lat="42.435480" lon="-8.706890"><ele>42.1</ele></trkpt>
    <trkpt lat="42.435170" lon="-8.707390"><ele>48.1</ele></trkpt>
    <trkpt lat="42.435340" lon="-8.707560"><ele>50.7</ele></trkpt>
    <trkpt lat="42.435290" lon="-8.708360"><ele>58.1</ele></trkpt>
    <trkpt lat="42.435570" lon="-8.708590"><ele>62.2</ele></trkpt>
    <trkpt lat="42.437040" lon="-8.708700"><ele>80.5</ele></trkpt>
    <trkpt lat="42.437720" lon="-8.708250"><ele>89.2</ele></trkpt>
    <trkpt lat="42.438030" lon="-8.707870"><ele>92.6</ele></trkpt>
    <trkpt lat="42.438540" lon="-8.707710"><ele>96.8</ele></trkpt>
    <trkpt lat="42.438650" lon="-8.707990"><ele>98.6</ele></trkpt>
    <trkpt lat="42.438490" lon="-8.708280"><ele>100.8</ele></trkpt>
    <trkpt lat="42.438720" lon="-8.708650"><ele>103.6</ele></trkpt>
    <trkpt lat="42.438840" lon="-8.709210"><ele>106.9</ele></trkpt>
    <trkpt lat="42.438550" lon="-8.710160"><ele>112.0</ele></trkpt>
    <trkpt lat="42.438730" lon="-8.711190"><ele>117.2</ele></trkpt>
    <trkpt lat="42.438640" lon="-8.711520"><ele>118.9</ele></trkpt>
    <trkpt lat="42.439030" lon="-8.711630"><ele>121.3</ele></trkpt>
    <trkpt lat="42.439540" lon="-8.712150"><ele>123.9</ele></trkpt>
    <trkpt lat="42.440290" lon="-8.712540"><ele>127.1</ele></trkpt>
    <trkpt lat="42.440730" lon="-8.712160"><ele>129.2</ele></trkpt>
    <trkpt lat="42.441200" lon="-8.712060"><ele>131.6</ele></trkpt>
    <trkpt lat="42.441580" lon="-8.712180"><ele>133.9</ele></trkpt>
    <trkpt lat="42.441890" lon="-8.712990"><ele>137.7</ele></trkpt>
    <trkpt lat="42.442090" lon="-8.713150"><ele>139.1</ele></trkpt>
    <trkpt lat="42.442280" lon="-8.712520"><ele>142.0</ele></trkpt>
    <trkpt lat="42.442250" lon="-8.711480"><ele>147.2</ele></trkpt>
    <trkpt lat="42.442400" lon="-8.710990"><ele>150.0</ele></trkpt>
    <trkpt lat="42.442830" lon="-8.711100"><ele>153.1</ele></trkpt>
    <trkpt lat="42.443310" lon="-8.711710"><ele>157.8</ele></trkpt>
    <trkpt lat="42.443860" lon="-8.711620"><ele>163.8</ele></trkpt>
    <trkpt lat="42.444620" lon="-8.712800"><ele>178.2</ele></trkpt>
    <trkpt lat="42.445310" lon="-8.713560"><ele>189.3</ele></trkpt>
    <trkpt lat="42.446260" lon="-8.715450"><ele>210.3</ele></trkpt>
    <trkpt lat="42.446220" lon="-8.716920"><ele>223.5</ele></trkpt>
    <trkpt lat="42.446060" lon="-8.716990"><ele>225.5</ele></trkpt>
    <trkpt lat="42.445640" lon="-8.717010"><ele>230.6</ele></trkpt>
    <trkpt lat="42.445150" lon="-8.716750"><ele>236.9</ele></trkpt>
    <trkpt lat="42.444810" lon="-8.716750"><ele>241.0</ele></trkpt>
    <trkpt lat="42.444470" lon="-8.717070"><ele>244.5</ele></trkpt>
    <trkpt lat="42.443880" lon="-8.717010"><ele>249.0</ele></trkpt>
    <trkpt lat="42.442990" lon="-8.717320"><ele>255.9</ele></trkpt>
    <trkpt lat="42.442300" lon="-8.718160"><ele>262.0</ele></trkpt>
    <trkpt lat="42.441960" lon="-8.718080"><ele>264.0</ele></trkpt>
    <trkpt lat="42.441190" lon="-8.718440"><ele>268.7</ele></trkpt>
    <trkpt lat="42.441040" lon="-8.718640"><ele>269.9</ele></trkpt>
    <trkpt lat="42.439490" lon="-8.718750"><ele>279.4</ele></trkpt>
    <trkpt lat="42.438860" lon="-8.719020"><ele>283.5</ele></trkpt>
    <trkpt lat="42.437820" lon="-8.719160"><ele>290.3</ele></trkpt>
    <trkpt lat="42.438310" lon="-8.719770"><ele>294.8</ele></trkpt>
    <trkpt lat="42.438200" lon="-8.720800"><ele>299.9</ele></trkpt>
    <trkpt lat="42.438300" lon="-8.721350"><ele>302.6</ele></trkpt>
    <trkpt lat="42.439140" lon="-8.721320"><ele>307.8</ele></trkpt>
    <trkpt lat="42.438560" lon="-8.723490"><ele>317.2</ele></trkpt>
    <trkpt lat="42.439280" lon="-8.724980"><ele>322.5</ele></trkpt>
    <trkpt lat="42.439930" lon="-8.725460"><ele>324.9</ele></trkpt>
    <trkpt lat="42.440050" lon="-8.725780"><ele>325.7</ele></trkpt>
    <trkpt lat="42.439920" lon="-8.726860"><ele>327.8</ele></trkpt>
    <trkpt lat="42.439990" lon="-8.727060"><ele>328.2</ele></trkpt>
    <trkpt lat="42.440720" lon="-8.728040"><ele>331.6</ele></trkpt>
    <trkpt lat="42.441130" lon="-8.728100"><ele>333.5</ele></trkpt>
    <trkpt lat="42.441390" lon="-8.728500"><ele>335.2</ele></trkpt>
    <trkpt lat="42.442510" lon="-8.728600"><ele>340.2</ele></trkpt>
    <trkpt lat="42.443110" lon="-8.728960"><ele>343.5</ele></trkpt>
    <trkpt lat="42.443060" lon="-8.729540"><ele>345.6</ele></trkpt>
    <trkpt lat="42.443260" lon="-8.729990"><ele>347.5</ele></trkpt>
    <trkpt lat="42.443260" lon="-8.730320"><ele>348.7</ele></trkpt>
    <trkpt lat="42.442530" lon="-8.732260"><ele>358.5</ele></trkpt>
    <trkpt lat="42.442570" lon="-8.733700"><ele>365.6</ele></trkpt>
    <trkpt lat="42.442800" lon="-8.733910"><ele>367.6</ele></trkpt>
    <trkpt lat="42.443100" lon="-8.733750"><ele>369.9</ele></trkpt>
    <trkpt lat="42.443520" lon="-8.733770"><ele>372.8</ele></trkpt>
    <trkpt lat="42.443760" lon="-8.734010"><ele>375.0</ele></trkpt>
    <trkpt lat="42.445420" lon="-8.734570"><ele>387.1</ele></trkpt>
    <trkpt lat="42.446450" lon="-8.735090"><ele>395.0</ele></trkpt>
    <trkpt lat="42.447160" lon="-8.734960"><ele>399.0</ele></trkpt>
    <trkpt lat="42.447320" lon="-8.735760"><ele>401.2</ele></trkpt>
    <trkpt lat="42.447810" lon="-8.736280"><ele>403.4</ele></trkpt>
    <trkpt lat="42.449830" lon="-8.736820"><ele>409.6</ele></trkpt>
    <trkpt lat="42.451680" lon="-8.735700"><ele>414.5</ele></trkpt>
    <trkpt lat="42.451790" lon="-8.735050"><ele>415.6</ele></trkpt>
    <trkpt lat="42.451670" lon="-8.733740"><ele>417.6</ele></trkpt>
    <trkpt lat="42.451870" lon="-8.733250"><ele>418.3</ele></trkpt>
    <trkpt lat="42.452040" lon="-8.733890"><ele>419.2</ele></trkpt>
    <trkpt lat="42.452610" lon="-8.734410"><ele>420.4</ele></trkpt>
    <trkpt lat="42.453300" lon="-8.734290"><ele>420.5</ele></trkpt>
    <trkpt lat="42.454150" lon="-8.733740"><ele>419.2</ele></trkpt>
    <trkpt lat="42.455410" lon="-8.734570"><ele>417.4</ele></trkpt>
    <trkpt lat="42.455670" lon="-8.734900"><ele>416.9</ele></trkpt>
    <trkpt lat="42.455890" lon="-8.736220"><ele>415.6</ele></trkpt>
    <trkpt lat="42.456280" lon="-8.737100"><ele>414.1</ele></trkpt>
    <trkpt lat="42.456500" lon="-8.736820"><ele>413.3</ele></trkpt>
    <trkpt lat="42.456550" lon="-8.735740"><ele>411.2</ele></trkpt>
    <trkpt lat="42.456820" lon="-8.735270"><ele>410.0</ele></trkpt>
    <trkpt lat="42.457070" lon="-8.735150"><ele>409.3</ele></trkpt>
    <trkpt lat="42.457820" lon="-8.735390"><ele>408.1</ele></trkpt>
    <trkpt lat="42.458430" lon="-8.736050"><ele>407.1</ele></trkpt>
    <trkpt lat="42.458870" lon="-8.736050"><ele>406.5</ele></trkpt>
    <trkpt lat="42.459360" lon="-8.735770"><ele>405.3</ele></trkpt>
    <trkpt lat="42.459910" lon="-8.734710"><ele>401.5</ele></trkpt>
    <trkpt lat="42.460020" lon="-8.734260"><ele>400.1</ele></trkpt>
    <trkpt lat="42.459320" lon="-8.733380"><ele>396.0</ele></trkpt>
    <trkpt lat="42.459830" lon="-8.733000"><ele>392.6</ele></trkpt>
    <trkpt lat="42.460160" lon="-8.732990"><ele>390.7</ele></trkpt>
    <trkpt lat="42.460750" lon="-8.733290"><ele>387.0</ele></trkpt>
    <trkpt lat="42.462960" lon="-8.735120"><ele>362.9</ele></trkpt>
    <trkpt lat="42.462420" lon="-8.735040"><ele>356.5</ele></trkpt>
    <trkpt lat="42.462760" lon="-8.735250"><ele>351.9</ele></trkpt>
    <trkpt lat="42.463440" lon="-8.736040"><ele>340.7</ele></trkpt>
    <trkpt lat="42.463680" lon="-8.736720"><ele>333.8</ele></trkpt>
    <trkpt lat="42.463740" lon="-8.737420"><ele>326.5</ele></trkpt>
    <trkpt lat="42.463470" lon="-8.738730"><ele>312.2</ele></trkpt>
    <trkpt lat="42.463530" lon="-8.739180"><ele>307.4</ele></trkpt>
    <trkpt lat="42.463430" lon="-8.739330"><ele>305.3</ele></trkpt>
    <trkpt lat="42.464230" lon="-8.741530"><ele>282.2</ele></trkpt>
    <trkpt lat="42.464120" lon="-8.741650"><ele>280.5</ele></trkpt>
    <trkpt lat="42.464250" lon="-8.742050"><ele>276.4</ele></trkpt>
    <trkpt lat="42.464220" lon="-8.742540"><ele>272.5</ele></trkpt>
    <trkpt lat="42.465260" lon="-8.742470"><ele>266.0</ele></trkpt>
    <trkpt lat="42.465710" lon="-8.742670"><ele>263.0</ele></trkpt>
    <trkpt lat="42.466170" lon="-8.742520"><ele>260.1</ele></trkpt>
    <trkpt lat="42.466730" lon="-8.742890"><ele>258.0</ele></trkpt>
    <trkpt lat="42.466990" lon="-8.742700"><ele>257.3</ele></trkpt>
    <trkpt lat="42.467290" lon="-8.742670"><ele>256.6</ele></trkpt>
    <trkpt lat="42.467450" lon="-8.742870"><ele>256.0</ele></trkpt>
    <trkpt lat="42.467900" lon="-8.742680"><ele>255.0</ele></trkpt>
  </trkseg></trk>
</gpx>
