<?xml version="1.0" encoding="UTF-8"?>
<gpx version="1.1" creator="Peregrinia — peregrinia.com" xmlns="http://www.topografix.com/GPX/1/1">
  <metadata><name>Etapa 2 Variante Espiritual: Armenteira → Vilanova de Arousa</name><time>2026-08-11T07:26:27Z</time><link href="https://peregrinia.com"><text>Peregrinia</text></link></metadata>
  <trk><name>Etapa 2 Variante Espiritual: Armenteira → Vilanova de Arousa</name><trkseg>
    <trkpt lat="42.467900" lon="-8.742680"><ele>249.0</ele></trkpt>
    <trkpt lat="42.467890" lon="-8.742830"><ele>248.5</ele></trkpt>
    <trkpt lat="42.468250" lon="-8.742990"><ele>246.8</ele></trkpt>
    <trkpt lat="42.468040" lon="-8.743570"><ele>244.7</ele></trkpt>
    <trkpt lat="42.468230" lon="-8.743500"><ele>243.8</ele></trkpt>
    <trkpt lat="42.468640" lon="-8.744010"><ele>241.4</ele></trkpt>
    <trkpt lat="42.469270" lon="-8.744460"><ele>237.4</ele></trkpt>
    <trkpt lat="42.471210" lon="-8.744210"><ele>220.0</ele></trkpt>
    <trkpt lat="42.471650" lon="-8.745360"><ele>208.9</ele></trkpt>
    <trkpt lat="42.472490" lon="-8.745560"><ele>198.7</ele></trkpt>
    <trkpt lat="42.472880" lon="-8.745240"><ele>193.2</ele></trkpt>
    <trkpt lat="42.473530" lon="-8.745240"><ele>185.1</ele></trkpt>
    <trkpt lat="42.473830" lon="-8.744700"><ele>178.9</ele></trkpt>
    <trkpt lat="42.474710" lon="-8.744810"><ele>167.9</ele></trkpt>
    <trkpt lat="42.474830" lon="-8.744510"><ele>164.8</ele></trkpt>
    <trkpt lat="42.474710" lon="-8.744180"><ele>161.7</ele></trkpt>
    <trkpt lat="42.474770" lon="-8.743880"><ele>159.1</ele></trkpt>
    <trkpt lat="42.475050" lon="-8.743250"><ele>153.1</ele></trkpt>
    <trkpt lat="42.475620" lon="-8.743270"><ele>146.8</ele></trkpt>
    <trkpt lat="42.475840" lon="-8.742810"><ele>142.3</ele></trkpt>
    <trkpt lat="42.475860" lon="-8.742400"><ele>138.9</ele></trkpt>
    <trkpt lat="42.476370" lon="-8.741620"><ele>133.1</ele></trkpt>
    <trkpt lat="42.476450" lon="-8.741740"><ele>132.2</ele></trkpt>
    <trkpt lat="42.476770" lon="-8.741380"><ele>129.1</ele></trkpt>
    <trkpt lat="42.476960" lon="-8.741350"><ele>127.6</ele></trkpt>
    <trkpt lat="42.477410" lon="-8.741730"><ele>123.6</ele></trkpt>
    <trkpt lat="42.478060" lon="-8.741620"><ele>119.8</ele></trkpt>
    <trkpt lat="42.479030" lon="-8.741090"><ele>114.7</ele></trkpt>
    <trkpt lat="42.479160" lon="-8.740510"><ele>112.5</ele></trkpt>
    <trkpt lat="42.480480" lon="-8.740560"><ele>107.9</ele></trkpt>
    <trkpt lat="42.481080" lon="-8.741060"><ele>105.7</ele></trkpt>
    <trkpt lat="42.481260" lon="-8.740960"><ele>105.1</ele></trkpt>
    <trkpt lat="42.481520" lon="-8.741050"><ele>104.2</ele></trkpt>
    <trkpt lat="42.481720" lon="-8.741360"><ele>103.5</ele></trkpt>
    <trkpt lat="42.482230" lon="-8.741430"><ele>102.4</ele></trkpt>
    <trkpt lat="42.482360" lon="-8.741850"><ele>101.6</ele></trkpt>
    <trkpt lat="42.482800" lon="-8.742280"><ele>100.4</ele></trkpt>
    <trkpt lat="42.483440" lon="-8.742670"><ele>98.8</ele></trkpt>
    <trkpt lat="42.483830" lon="-8.742680"><ele>97.6</ele></trkpt>
    <trkpt lat="42.485150" lon="-8.744700"><ele>91.5</ele></trkpt>
    <trkpt lat="42.485670" lon="-8.745290"><ele>89.6</ele></trkpt>
    <trkpt lat="42.485980" lon="-8.746730"><ele>86.7</ele></trkpt>
    <trkpt lat="42.486230" lon="-8.747010"><ele>85.8</ele></trkpt>
    <trkpt lat="42.486020" lon="-8.747270"><ele>85.1</ele></trkpt>
    <trkpt lat="42.485970" lon="-8.747760"><ele>84.1</ele></trkpt>
    <trkpt lat="42.486320" lon="-8.749800"><ele>80.0</ele></trkpt>
    <trkpt lat="42.486680" lon="-8.750080"><ele>78.3</ele></trkpt>
    <trkpt lat="42.487170" lon="-8.750100"><ele>76.3</ele></trkpt>
    <trkpt lat="42.487490" lon="-8.750470"><ele>74.7</ele></trkpt>
    <trkpt lat="42.487760" lon="-8.751750"><ele>70.6</ele></trkpt>
    <trkpt lat="42.488250" lon="-8.752130"><ele>67.3</ele></trkpt>
    <trkpt lat="42.488610" lon="-8.752060"><ele>65.2</ele></trkpt>
    <trkpt lat="42.488600" lon="-8.752220"><ele>64.5</ele></trkpt>
    <trkpt lat="42.489250" lon="-8.752310"><ele>60.8</ele></trkpt>
    <trkpt lat="42.489580" lon="-8.752670"><ele>58.3</ele></trkpt>
    <trkpt lat="42.489810" lon="-8.752550"><ele>57.0</ele></trkpt>
    <trkpt lat="42.490260" lon="-8.751770"><ele>53.1</ele></trkpt>
    <trkpt lat="42.490970" lon="-8.752000"><ele>49.2</ele></trkpt>
    <trkpt lat="42.491230" lon="-8.752670"><ele>46.2</ele></trkpt>
    <trkpt lat="42.491650" lon="-8.753200"><ele>44.1</ele></trkpt>
    <trkpt lat="42.491740" lon="-8.753890"><ele>42.3</ele></trkpt>
    <trkpt lat="42.491670" lon="-8.754570"><ele>40.5</ele></trkpt>
    <trkpt lat="42.491400" lon="-8.755030"><ele>38.9</ele></trkpt>
    <trkpt lat="42.491310" lon="-8.755900"><ele>37.1</ele></trkpt>
    <trkpt lat="42.491590" lon="-8.756080"><ele>36.4</ele></trkpt>
    <trkpt lat="42.492190" lon="-8.757140"><ele>34.3</ele></trkpt>
    <trkpt lat="42.492150" lon="-8.757630"><ele>33.4</ele></trkpt>
    <trkpt lat="42.492010" lon="-8.757880"><ele>32.9</ele></trkpt>
    <trkpt lat="42.492160" lon="-8.758830"><ele>31.3</ele></trkpt>
    <trkpt lat="42.492500" lon="-8.758670"><ele>30.5</ele></trkpt>
    <trkpt lat="42.492050" lon="-8.760200"><ele>27.8</ele></trkpt>
    <trkpt lat="42.492360" lon="-8.761320"><ele>25.9</ele></trkpt>
    <trkpt lat="42.492880" lon="-8.761010"><ele>24.6</ele></trkpt>
    <trkpt lat="42.493000" lon="-8.761980"><ele>23.0</ele></trkpt>
    <trkpt lat="42.493310" lon="-8.762440"><ele>22.4</ele></trkpt>
    <trkpt lat="42.492990" lon="-8.762800"><ele>21.8</ele></trkpt>
    <trkpt lat="42.492940" lon="-8.763050"><ele>21.6</ele></trkpt>
    <trkpt lat="42.493380" lon="-8.764170"><ele>20.3</ele></trkpt>
    <trkpt lat="42.493330" lon="-8.764790"><ele>19.7</ele></trkpt>
    <trkpt lat="42.492700" lon="-8.764930"><ele>18.9</ele></trkpt>
    <trkpt lat="42.492610" lon="-8.765300"><ele>18.5</ele></trkpt>
    <trkpt lat="42.492720" lon="-8.766500"><ele>17.3</ele></trkpt>
    <trkpt lat="42.492370" lon="-8.766800"><ele>16.7</ele></trkpt>
    <trkpt lat="42.492280" lon="-8.767230"><ele>16.3</ele></trkpt>
    <trkpt lat="42.492500" lon="-8.768220"><ele>15.3</ele></trkpt>
    <trkpt lat="42.492490" lon="-8.769410"><ele>14.1</ele></trkpt>
    <trkpt lat="42.492720" lon="-8.770390"><ele>13.4</ele></trkpt>
    <trkpt lat="42.492620" lon="-8.770470"><ele>13.3</ele></trkpt>
    <trkpt lat="42.492850" lon="-8.771130"><ele>12.8</ele></trkpt>
    <trkpt lat="42.493370" lon="-8.771950"><ele>12.1</ele></trkpt>
    <trkpt lat="42.493120" lon="-8.773190"><ele>11.3</ele></trkpt>
    <trkpt lat="42.493310" lon="-8.773740"><ele>10.9</ele></trkpt>
    <trkpt lat="42.492970" lon="-8.774350"><ele>10.4</ele></trkpt>
    <trkpt lat="42.493830" lon="-8.774530"><ele>9.8</ele></trkpt>
    <trkpt lat="42.493610" lon="-8.774870"><ele>9.6</ele></trkpt>
    <trkpt lat="42.493740" lon="-8.775160"><ele>9.5</ele></trkpt>
    <trkpt lat="42.494800" lon="-8.774900"><ele>9.1</ele></trkpt>
    <trkpt lat="42.494980" lon="-8.776150"><ele>8.3</ele></trkpt>
    <trkpt lat="42.496500" lon="-8.777090"><ele>6.8</ele></trkpt>
    <trkpt lat="42.496700" lon="-8.777460"><ele>6.5</ele></trkpt>
    <trkpt lat="42.497510" lon="-8.777810"><ele>5.7</ele></trkpt>
    <trkpt lat="42.499610" lon="-8.778020"><ele>3.3</ele></trkpt>
    <trkpt lat="42.500070" lon="-8.777910"><ele>2.7</ele></trkpt>
    <trkpt lat="42.500310" lon="-8.778040"><ele>2.3</ele></trkpt>
    <trkpt lat="42.500730" lon="-8.777800"><ele>1.9</ele></trkpt>
    <trkpt lat="42.500840" lon="-8.777590"><ele>1.8</ele></trkpt>
    <trkpt lat="42.501260" lon="-8.777530"><ele>1.6</ele></trkpt>
    <trkpt lat="42.501470" lon="-8.776870"><ele>1.4</ele></trkpt>
    <trkpt lat="42.501850" lon="-8.777100"><ele>1.2</ele></trkpt>
    <trkpt lat="42.502080" lon="-8.776730"><ele>1.1</ele></trkpt>
    <trkpt lat="42.503120" lon="-8.776040"><ele>0.5</ele></trkpt>
    <trkpt lat="42.504770" lon="-8.775240"><ele>0.2</ele></trkpt>
    <trkpt lat="42.505750" lon="-8.773640"><ele>0.9</ele></trkpt>
    <trkpt lat="42.506160" lon="-8.772430"><ele>1.0</ele></trkpt>
    <trkpt lat="42.506440" lon="-8.771960"><ele>1.0</ele></trkpt>
    <trkpt lat="42.506520" lon="-8.771430"><ele>1.0</ele></trkpt>
    <trkpt lat="42.506890" lon="-8.771030"><ele>1.0</ele></trkpt>
    <trkpt lat="42.507510" lon="-8.770730"><ele>1.2</ele></trkpt>
    <trkpt lat="42.509040" lon="-8.770580"><ele>1.9</ele></trkpt>
    <trkpt lat="42.510600" lon="-8.771560"><ele>2.0</ele></trkpt>
    <trkpt lat="42.511450" lon="-8.771550"><ele>2.0</ele></trkpt>
    <trkpt lat="42.511820" lon="-8.770910"><ele>2.0</ele></trkpt>
    <trkpt lat="42.512120" lon="-8.769940"><ele>2.0</ele></trkpt>
    <trkpt lat="42.512530" lon="-8.769420"><ele>2.0</ele></trkpt>
    <trkpt lat="42.513280" lon="-8.768880"><ele>2.3</ele></trkpt>
    <trkpt lat="42.513870" lon="-8.768060"><ele>2.7</ele></trkpt>
    <trkpt lat="42.515160" lon="-8.765370"><ele>3.0</ele></trkpt>
    <trkpt lat="42.515620" lon="-8.766280"><ele>3.1</ele></trkpt>
    <trkpt lat="42.515690" lon="-8.766170"><ele>3.1</ele></trkpt>
    <trkpt lat="42.515510" lon="-8.765820"><ele>3.3</ele></trkpt>
    <trkpt lat="42.515620" lon="-8.765580"><ele>3.4</ele></trkpt>
    <trkpt lat="42.515850" lon="-8.765240"><ele>3.5</ele></trkpt>
    <trkpt lat="42.516340" lon="-8.764950"><ele>3.8</ele></trkpt>
    <trkpt lat="42.518420" lon="-8.764920"><ele>4.0</ele></trkpt>
    <trkpt lat="42.519860" lon="-8.764490"><ele>4.0</ele></trkpt>
    <trkpt lat="42.520440" lon="-8.763940"><ele>4.0</ele></trkpt>
    <trkpt lat="42.521000" lon="-8.762360"><ele>4.0</ele></trkpt>
    <trkpt lat="42.521800" lon="-8.761910"><ele>4.0</ele></trkpt>
    <trkpt lat="42.522570" lon="-8.761140"><ele>4.0</ele></trkpt>
    <trkpt lat="42.523590" lon="-8.760580"><ele>4.0</ele></trkpt>
    <trkpt lat="42.523980" lon="-8.759720"><ele>4.0</ele></trkpt>
    <trkpt lat="42.524450" lon="-8.759070"><ele>4.2</ele></trkpt>
    <trkpt lat="42.524960" lon="-8.759010"><ele>4.4</ele></trkpt>
    <trkpt lat="42.525390" lon="-8.759620"><ele>4.7</ele></trkpt>
    <trkpt lat="42.525860" lon="-8.759700"><ele>4.9</ele></trkpt>
    <trkpt lat="42.526430" lon="-8.759520"><ele>5.0</ele></trkpt>
    <trkpt lat="42.527420" lon="-8.757770"><ele>5.0</ele></trkpt>
    <trkpt lat="42.527750" lon="-8.757830"><ele>5.0</ele></trkpt>
    <trkpt lat="42.528160" lon="-8.758340"><ele>5.0</ele></trkpt>
    <trkpt lat="42.529080" lon="-8.758350"><ele>5.0</ele></trkpt>
    <trkpt lat="42.530150" lon="-8.757980"><ele>5.0</ele></trkpt>
    <trkpt lat="42.532200" lon="-8.756510"><ele>5.4</ele></trkpt>
    <trkpt lat="42.532890" lon="-8.757080"><ele>6.1</ele></trkpt>
    <trkpt lat="42.533390" lon="-8.757110"><ele>6.5</ele></trkpt>
    <trkpt lat="42.534270" lon="-8.756700"><ele>7.4</ele></trkpt>
    <trkpt lat="42.534800" lon="-8.756160"><ele>8.0</ele></trkpt>
    <trkpt lat="42.534850" lon="-8.755950"><ele>8.1</ele></trkpt>
    <trkpt lat="42.534500" lon="-8.755050"><ele>8.8</ele></trkpt>
    <trkpt lat="42.534640" lon="-8.754930"><ele>8.9</ele></trkpt>
    <trkpt lat="42.534260" lon="-8.753740"><ele>9.8</ele></trkpt>
    <trkpt lat="42.534160" lon="-8.752950"><ele>10.3</ele></trkpt>
    <trkpt lat="42.534950" lon="-8.752300"><ele>10.9</ele></trkpt>
    <trkpt lat="42.535600" lon="-8.752490"><ele>10.6</ele></trkpt>
    <trkpt lat="42.535740" lon="-8.753430"><ele>10.3</ele></trkpt>
    <trkpt lat="42.536130" lon="-8.754310"><ele>10.0</ele></trkpt>
    <trkpt lat="42.536470" lon="-8.755650"><ele>10.5</ele></trkpt>
    <trkpt lat="42.536600" lon="-8.755710"><ele>10.5</ele></trkpt>
    <trkpt lat="42.536530" lon="-8.755910"><ele>10.6</ele></trkpt>
    <trkpt lat="42.536890" lon="-8.757530"><ele>11.8</ele></trkpt>
    <trkpt lat="42.536350" lon="-8.759120"><ele>14.6</ele></trkpt>
    <trkpt lat="42.536430" lon="-8.759890"><ele>15.9</ele></trkpt>
    <trkpt lat="42.536160" lon="-8.761980"><ele>23.5</ele></trkpt>
    <trkpt lat="42.536280" lon="-8.762660"><ele>26.0</ele></trkpt>
    <trkpt lat="42.537150" lon="-8.764310"><ele>32.2</ele></trkpt>
    <trkpt lat="42.538440" lon="-8.764640"><ele>36.8</ele></trkpt>
    <trkpt lat="42.540030" lon="-8.766140"><ele>41.0</ele></trkpt>
    <trkpt lat="42.540640" lon="-8.767530"><ele>40.5</ele></trkpt>
    <trkpt lat="42.541100" lon="-8.768210"><ele>40.1</ele></trkpt>
    <trkpt lat="42.541260" lon="-8.769070"><ele>39.7</ele></trkpt>
    <trkpt lat="42.541100" lon="-8.769340"><ele>39.5</ele></trkpt>
    <trkpt lat="42.540030" lon="-8.769930"><ele>38.5</ele></trkpt>
    <trkpt lat="42.539640" lon="-8.769940"><ele>38.1</ele></trkpt>
    <trkpt lat="42.539280" lon="-8.769490"><ele>37.0</ele></trkpt>
    <trkpt lat="42.538940" lon="-8.769530"><ele>36.1</ele></trkpt>
    <trkpt lat="42.538810" lon="-8.770010"><ele>35.1</ele></trkpt>
    <trkpt lat="42.539030" lon="-8.770540"><ele>33.9</ele></trkpt>
    <trkpt lat="42.539060" lon="-8.771540"><ele>32.0</ele></trkpt>
    <trkpt lat="42.538960" lon="-8.771970"><ele>31.1</ele></trkpt>
    <trkpt lat="42.538460" lon="-8.772140"><ele>29.7</ele></trkpt>
    <trkpt lat="42.537840" lon="-8.773010"><ele>27.3</ele></trkpt>
    <trkpt lat="42.537390" lon="-8.773350"><ele>26.0</ele></trkpt>
    <trkpt lat="42.536820" lon="-8.773300"><ele>25.5</ele></trkpt>
    <trkpt lat="42.536560" lon="-8.773660"><ele>25.1</ele></trkpt>
    <trkpt lat="42.536440" lon="-8.774420"><ele>24.6</ele></trkpt>
    <trkpt lat="42.536220" lon="-8.774710"><ele>24.4</ele></trkpt>
    <trkpt lat="42.536700" lon="-8.775610"><ele>25.1</ele></trkpt>
    <trkpt lat="42.536840" lon="-8.776630"><ele>27.2</ele></trkpt>
    <trkpt lat="42.536720" lon="-8.777440"><ele>28.8</ele></trkpt>
    <trkpt lat="42.536550" lon="-8.777820"><ele>29.7</ele></trkpt>
    <trkpt lat="42.537230" lon="-8.780250"><ele>41.1</ele></trkpt>
    <trkpt lat="42.536820" lon="-8.780500"><ele>43.9</ele></trkpt>
    <trkpt lat="42.536700" lon="-8.781210"><ele>48.6</ele></trkpt>
    <trkpt lat="42.536180" lon="-8.781800"><ele>54.7</ele></trkpt>
    <trkpt lat="42.536160" lon="-8.782510"><ele>59.3</ele></trkpt>
    <trkpt lat="42.536340" lon="-8.782970"><ele>62.7</ele></trkpt>
    <trkpt lat="42.536340" lon="-8.783450"><ele>65.9</ele></trkpt>
    <trkpt lat="42.537350" lon="-8.783480"><ele>74.9</ele></trkpt>
    <trkpt lat="42.537640" lon="-8.784220"><ele>80.4</ele></trkpt>
    <trkpt lat="42.537950" lon="-8.786020"><ele>89.9</ele></trkpt>
    <trkpt lat="42.538360" lon="-8.786270"><ele>92.7</ele></trkpt>
    <trkpt lat="42.538370" lon="-8.787990"><ele>98.4</ele></trkpt>
    <trkpt lat="42.538230" lon="-8.788260"><ele>98.6</ele></trkpt>
    <trkpt lat="42.538130" lon="-8.790630"><ele>100.0</ele></trkpt>
    <trkpt lat="42.537920" lon="-8.791260"><ele>100.0</ele></trkpt>
    <trkpt lat="42.538530" lon="-8.791640"><ele>100.0</ele></trkpt>
    <trkpt lat="42.538990" lon="-8.793670"><ele>98.5</ele></trkpt>
    <trkpt lat="42.540450" lon="-8.795280"><ele>93.9</ele></trkpt>
    <trkpt lat="42.541100" lon="-8.795730"><ele>91.3</ele></trkpt>
    <trkpt lat="42.542290" lon="-8.795420"><ele>87.0</ele></trkpt>
    <trkpt lat="42.542710" lon="-8.795990"><ele>83.4</ele></trkpt>
    <trkpt lat="42.543270" lon="-8.799450"><ele>68.0</ele></trkpt>
    <trkpt lat="42.543770" lon="-8.801110"><ele>60.9</ele></trkpt>
    <trkpt lat="42.543600" lon="-8.801350"><ele>59.8</ele></trkpt>
    <trkpt lat="42.542100" lon="-8.802150"><ele>52.7</ele></trkpt>
    <trkpt lat="42.542570" lon="-8.802580"><ele>50.5</ele></trkpt>
    <trkpt lat="42.542770" lon="-8.803660"><ele>48.3</ele></trkpt>
    <trkpt lat="42.543640" lon="-8.805190"><ele>44.3</ele></trkpt>
    <trkpt lat="42.543660" lon="-8.805740"><ele>42.9</ele></trkpt>
    <trkpt lat="42.544220" lon="-8.807590"><ele>37.6</ele></trkpt>
    <trkpt lat="42.544760" lon="-8.810620"><ele>31.3</ele></trkpt>
    <trkpt lat="42.545080" lon="-8.811610"><ele>30.1</ele></trkpt>
    <trkpt lat="42.545490" lon="-8.811690"><ele>29.6</ele></trkpt>
    <trkpt lat="42.545320" lon="-8.811980"><ele>29.2</ele></trkpt>
    <trkpt lat="42.545340" lon="-8.812240"><ele>28.9</ele></trkpt>
    <trkpt lat="42.545970" lon="-8.813960"><ele>28.3</ele></trkpt>
    <trkpt lat="42.546880" lon="-8.815190"><ele>28.9</ele></trkpt>
    <trkpt lat="42.547070" lon="-8.815650"><ele>29.1</ele></trkpt>
    <trkpt lat="42.547410" lon="-8.817950"><ele>30.7</ele></trkpt>
    <trkpt lat="42.546810" lon="-8.818690"><ele>29.9</ele></trkpt>
    <trkpt lat="42.546660" lon="-8.819620"><ele>28.0</ele></trkpt>
    <trkpt lat="42.546870" lon="-8.820180"><ele>26.8</ele></trkpt>
    <trkpt lat="42.546770" lon="-8.821250"><ele>24.6</ele></trkpt>
    <trkpt lat="42.547210" lon="-8.822090"><ele>22.2</ele></trkpt>
    <trkpt lat="42.547030" lon="-8.824010"><ele>17.8</ele></trkpt>
    <trkpt lat="42.546340" lon="-8.825730"><ele>13.9</ele></trkpt>
    <trkpt lat="42.545620" lon="-8.826640"><ele>11.8</ele></trkpt>
    <trkpt lat="42.545150" lon="-8.827630"><ele>11.0</ele></trkpt>
    <trkpt lat="42.545010" lon="-8.830500"><ele>8.7</ele></trkpt>
    <trkpt lat="42.545360" lon="-8.831280"><ele>7.8</ele></trkpt>
    <trkpt lat="42.545680" lon="-8.831500"><ele>7.3</ele></trkpt>
    <trkpt lat="42.547040" lon="-8.831540"><ele>6.0</ele></trkpt>
    <trkpt lat="42.547810" lon="-8.832290"><ele>5.1</ele></trkpt>
    <trkpt lat="42.548240" lon="-8.832170"><ele>4.9</ele></trkpt>
    <trkpt lat="42.548700" lon="-8.832370"><ele>4.7</ele></trkpt>
    <trkpt lat="42.549080" lon="-8.832990"><ele>4.4</ele></trkpt>
    <trkpt lat="42.549390" lon="-8.833120"><ele>4.3</ele></trkpt>
    <trkpt lat="42.549950" lon="-8.832900"><ele>4.0</ele></trkpt>
    <trkpt lat="42.551470" lon="-8.833360"><ele>4.7</ele></trkpt>
    <trkpt lat="42.551780" lon="-8.833860"><ele>4.9</ele></trkpt>
    <trkpt lat="42.552240" lon="-8.835950"><ele>5.0</ele></trkpt>
    <trkpt lat="42.552350" lon="-8.836100"><ele>5.0</ele></trkpt>
    <trkpt lat="42.553070" lon="-8.835980"><ele>5.0</ele></trkpt>
    <trkpt lat="42.553540" lon="-8.836190"><ele>5.0</ele></trkpt>
    <trkpt lat="42.554000" lon="-8.836110"><ele>5.0</ele></trkpt>
    <trkpt lat="42.554970" lon="-8.835540"><ele>5.0</ele></trkpt>
    <trkpt lat="42.556010" lon="-8.835230"><ele>4.6</ele></trkpt>
    <trkpt lat="42.556580" lon="-8.834490"><ele>4.3</ele></trkpt>
    <trkpt lat="42.557390" lon="-8.833980"><ele>3.9</ele></trkpt>
    <trkpt lat="42.558580" lon="-8.835230"><ele>3.2</ele></trkpt>
    <trkpt lat="42.558930" lon="-8.834140"><ele>2.8</ele></trkpt>
    <trkpt lat="42.560190" lon="-8.833600"><ele>2.2</ele></trkpt>
    <trkpt lat="42.560040" lon="-8.832770"><ele>2.0</ele></trkpt>
    <trkpt lat="42.560140" lon="-8.832270"><ele>2.0</ele></trkpt>
    <trkpt lat="42.560380" lon="-8.832130"><ele>2.0</ele></trkpt>
    <trkpt lat="42.560330" lon="-8.831580"><ele>2.0</ele></trkpt>
    <trkpt lat="42.561950" lon="-8.830780"><ele>1.5</ele></trkpt>
    <trkpt lat="42.562150" lon="-8.831100"><ele>1.3</ele></trkpt>
    <trkpt lat="42.562520" lon="-8.831200"><ele>1.0</ele></trkpt>
  </trkseg></trk>
</gpx>
