<?xml version="1.0" encoding="UTF-8"?>
<gpx version="1.1" creator="Camino Santiago Bonsai Café" xmlns="http://www.topografix.com/GPX/1/1"><metadata><name>Tui → O Porriño</name><desc>Rutas de Caminos de Santiago CC-BY 4.0 FEAACS y asociaciones jacobeas colaboradoras. Distribución: IGN/CNIG. Adaptación: recorte por paradas, inversión de sentido cuando corresponde y redondeo de coordenadas. Consultado: 2026-09-07. Los segmentos separados no incluyen los huecos ni accesos laterales a localidades.</desc><link href="https://centrodedescargas.cnig.es/CentroDescargas/camino-santiago"><text>IGN/CNIG · FEAACS</text></link></metadata><trk><name>Tui → O Porriño</name><trkseg><trkpt lat="42.036334" lon="-8.646843"/><trkpt lat="42.037443" lon="-8.648253"/><trkpt lat="42.037514" lon="-8.648236"/><trkpt lat="42.037931" lon="-8.648035"/><trkpt lat="42.038214" lon="-8.647895"/><trkpt lat="42.038379" lon="-8.647852"/><trkpt lat="42.038533" lon="-8.647834"/><trkpt lat="42.038756" lon="-8.647826"/><trkpt lat="42.039104" lon="-8.647841"/><trkpt lat="42.039988" lon="-8.647856"/><trkpt lat="42.040624" lon="-8.647871"/><trkpt lat="42.040763" lon="-8.647867"/><trkpt lat="42.040854" lon="-8.647831"/><trkpt lat="42.040894" lon="-8.647799"/><trkpt lat="42.040912" lon="-8.647773"/><trkpt lat="42.040912" lon="-8.647713"/><trkpt lat="42.040869" lon="-8.647595"/><trkpt lat="42.040763" lon="-8.647302"/><trkpt lat="42.040625" lon="-8.64703"/><trkpt lat="42.040488" lon="-8.646711"/><trkpt lat="42.040441" lon="-8.646603"/><trkpt lat="42.040352" lon="-8.646289"/><trkpt lat="42.040338" lon="-8.646223"/><trkpt lat="42.04035" lon="-8.646095"/><trkpt lat="42.040373" lon="-8.645967"/><trkpt lat="42.040422" lon="-8.64575"/><trkpt lat="42.040477" lon="-8.645566"/><trkpt lat="42.040506" lon="-8.645474"/><trkpt lat="42.040516" lon="-8.645415"/><trkpt lat="42.040514" lon="-8.64537"/><trkpt lat="42.040493" lon="-8.6453"/><trkpt lat="42.040222" lon="-8.64472"/><trkpt lat="42.040204" lon="-8.644682"/><trkpt lat="42.040275" lon="-8.644625"/><trkpt lat="42.040406" lon="-8.644567"/><trkpt lat="42.040482" lon="-8.644532"/><trkpt lat="42.040585" lon="-8.644521"/><trkpt lat="42.040717" lon="-8.644503"/><trkpt lat="42.040885" lon="-8.644484"/><trkpt lat="42.040938" lon="-8.644508"/><trkpt lat="42.041004" lon="-8.644567"/><trkpt lat="42.041141" lon="-8.644702"/><trkpt lat="42.041267" lon="-8.644805"/><trkpt lat="42.041324" lon="-8.644875"/><trkpt lat="42.041375" lon="-8.644964"/><trkpt lat="42.041428" lon="-8.645079"/><trkpt lat="42.041467" lon="-8.645176"/><trkpt lat="42.04153" lon="-8.645322"/><trkpt lat="42.041603" lon="-8.645542"/><trkpt lat="42.041642" lon="-8.645711"/><trkpt lat="42.041677" lon="-8.645862"/><trkpt lat="42.041691" lon="-8.645945"/><trkpt lat="42.041677" lon="-8.64605"/><trkpt lat="42.041651" lon="-8.646168"/><trkpt lat="42.04164" lon="-8.6463"/><trkpt lat="42.041654" lon="-8.646386"/><trkpt lat="42.041674" lon="-8.646438"/><trkpt lat="42.041709" lon="-8.646502"/><trkpt lat="42.041765" lon="-8.646566"/><trkpt lat="42.041853" lon="-8.646641"/><trkpt lat="42.041944" lon="-8.64671"/><trkpt lat="42.042026" lon="-8.646766"/><trkpt lat="42.042106" lon="-8.646842"/><trkpt lat="42.042173" lon="-8.646814"/><trkpt lat="42.042319" lon="-8.646765"/><trkpt lat="42.042465" lon="-8.646703"/><trkpt lat="42.042624" lon="-8.646641"/><trkpt lat="42.042893" lon="-8.646534"/><trkpt lat="42.042955" lon="-8.646452"/><trkpt lat="42.043048" lon="-8.646242"/><trkpt lat="42.043142" lon="-8.646063"/><trkpt lat="42.043266" lon="-8.645841"/><trkpt lat="42.043346" lon="-8.645719"/><trkpt lat="42.043408" lon="-8.64569"/><trkpt lat="42.043479" lon="-8.645685"/><trkpt lat="42.043557" lon="-8.645695"/><trkpt lat="42.043623" lon="-8.645707"/><trkpt lat="42.04365" lon="-8.645684"/><trkpt lat="42.043668" lon="-8.645549"/><trkpt lat="42.043693" lon="-8.64535"/><trkpt lat="42.0437" lon="-8.645251"/><trkpt lat="42.043728" lon="-8.645225"/><trkpt lat="42.043812" lon="-8.645275"/><trkpt lat="42.043884" lon="-8.645326"/><trkpt lat="42.043945" lon="-8.645356"/><trkpt lat="42.044015" lon="-8.645384"/><trkpt lat="42.044128" lon="-8.645416"/><trkpt lat="42.044213" lon="-8.645462"/><trkpt lat="42.044304" lon="-8.645493"/><trkpt lat="42.0444" lon="-8.645539"/><trkpt lat="42.044464" lon="-8.645599"/><trkpt lat="42.044541" lon="-8.645633"/><trkpt lat="42.044728" lon="-8.645736"/><trkpt lat="42.044765" lon="-8.645725"/><trkpt lat="42.044826" lon="-8.645688"/><trkpt lat="42.044903" lon="-8.645628"/><trkpt lat="42.045001" lon="-8.645575"/><trkpt lat="42.045101" lon="-8.645519"/><trkpt lat="42.045124" lon="-8.645454"/><trkpt lat="42.045088" lon="-8.645386"/><trkpt lat="42.045039" lon="-8.645281"/><trkpt lat="42.045016" lon="-8.645203"/><trkpt lat="42.04496" lon="-8.645055"/><trkpt lat="42.044908" lon="-8.644945"/><trkpt lat="42.044842" lon="-8.644775"/><trkpt lat="42.044852" lon="-8.644725"/><trkpt lat="42.044862" lon="-8.644647"/><trkpt lat="42.04488" lon="-8.64461"/><trkpt lat="42.044921" lon="-8.644637"/><trkpt lat="42.044968" lon="-8.644674"/><trkpt lat="42.045089" lon="-8.644777"/><trkpt lat="42.045196" lon="-8.644879"/><trkpt lat="42.045272" lon="-8.644932"/><trkpt lat="42.045352" lon="-8.64496"/><trkpt lat="42.045417" lon="-8.645011"/><trkpt lat="42.045477" lon="-8.645085"/><trkpt lat="42.045587" lon="-8.645188"/><trkpt lat="42.045664" lon="-8.645232"/><trkpt lat="42.045764" lon="-8.645279"/><trkpt lat="42.045868" lon="-8.645329"/><trkpt lat="42.045919" lon="-8.645364"/><trkpt lat="42.046026" lon="-8.645449"/><trkpt lat="42.046079" lon="-8.645491"/><trkpt lat="42.046108" lon="-8.645467"/><trkpt lat="42.046112" lon="-8.64539"/><trkpt lat="42.046087" lon="-8.645277"/><trkpt lat="42.046118" lon="-8.645235"/><trkpt lat="42.046153" lon="-8.64511"/><trkpt lat="42.046193" lon="-8.644965"/><trkpt lat="42.046229" lon="-8.644847"/><trkpt lat="42.046268" lon="-8.644791"/><trkpt lat="42.046318" lon="-8.644699"/><trkpt lat="42.046357" lon="-8.644627"/><trkpt lat="42.046413" lon="-8.644553"/><trkpt lat="42.046527" lon="-8.6445"/><trkpt lat="42.046636" lon="-8.644453"/><trkpt lat="42.046683" lon="-8.644446"/><trkpt lat="42.04674" lon="-8.644432"/><trkpt lat="42.046795" lon="-8.644412"/><trkpt lat="42.04685" lon="-8.644381"/><trkpt lat="42.046869" lon="-8.644326"/><trkpt lat="42.046863" lon="-8.644241"/><trkpt lat="42.046867" lon="-8.644158"/><trkpt lat="42.046874" lon="-8.644085"/><trkpt lat="42.046904" lon="-8.644009"/><trkpt lat="42.046926" lon="-8.643954"/><trkpt lat="42.047313" lon="-8.643658"/><trkpt lat="42.047312" lon="-8.64362"/><trkpt lat="42.047298" lon="-8.6435"/><trkpt lat="42.04731" lon="-8.643445"/><trkpt lat="42.047341" lon="-8.643427"/><trkpt lat="42.047385" lon="-8.643402"/><trkpt lat="42.047431" lon="-8.643382"/><trkpt lat="42.047485" lon="-8.643342"/><trkpt lat="42.047529" lon="-8.643297"/><trkpt lat="42.047538" lon="-8.643225"/><trkpt lat="42.047531" lon="-8.643149"/><trkpt lat="42.047515" lon="-8.643076"/><trkpt lat="42.047464" lon="-8.64296"/><trkpt lat="42.047452" lon="-8.642915"/><trkpt lat="42.047425" lon="-8.642792"/><trkpt lat="42.047407" lon="-8.64268"/><trkpt lat="42.047374" lon="-8.642554"/><trkpt lat="42.047361" lon="-8.642471"/><trkpt lat="42.047329" lon="-8.642253"/><trkpt lat="42.047282" lon="-8.642106"/><trkpt lat="42.047363" lon="-8.642064"/><trkpt lat="42.047516" lon="-8.641948"/><trkpt lat="42.047641" lon="-8.641831"/><trkpt lat="42.047723" lon="-8.641741"/><trkpt lat="42.047806" lon="-8.641652"/><trkpt lat="42.047903" lon="-8.641501"/><trkpt lat="42.048081" lon="-8.641337"/><trkpt lat="42.048263" lon="-8.641173"/><trkpt lat="42.048697" lon="-8.640778"/><trkpt lat="42.048842" lon="-8.640667"/><trkpt lat="42.048937" lon="-8.640607"/><trkpt lat="42.049196" lon="-8.64048"/><trkpt lat="42.049535" lon="-8.64037"/><trkpt lat="42.04962" lon="-8.640305"/><trkpt lat="42.05011" lon="-8.640088"/><trkpt lat="42.050281" lon="-8.640017"/><trkpt lat="42.05052" lon="-8.639908"/><trkpt lat="42.050684" lon="-8.639839"/><trkpt lat="42.050795" lon="-8.63979"/><trkpt lat="42.05097" lon="-8.639711"/><trkpt lat="42.05107" lon="-8.639664"/><trkpt lat="42.05122" lon="-8.6396"/><trkpt lat="42.051311" lon="-8.639564"/><trkpt lat="42.051378" lon="-8.639539"/><trkpt lat="42.051483" lon="-8.639523"/><trkpt lat="42.051569" lon="-8.639523"/><trkpt lat="42.051664" lon="-8.639537"/><trkpt lat="42.051744" lon="-8.639554"/><trkpt lat="42.051821" lon="-8.639603"/><trkpt lat="42.051886" lon="-8.639662"/><trkpt lat="42.051942" lon="-8.639745"/><trkpt lat="42.052001" lon="-8.63984"/><trkpt lat="42.052056" lon="-8.639931"/><trkpt lat="42.052114" lon="-8.640082"/><trkpt lat="42.052137" lon="-8.640219"/><trkpt lat="42.052158" lon="-8.640374"/><trkpt lat="42.052166" lon="-8.640444"/><trkpt lat="42.052185" lon="-8.640435"/><trkpt lat="42.052364" lon="-8.640356"/><trkpt lat="42.052486" lon="-8.640318"/><trkpt lat="42.052565" lon="-8.6403"/><trkpt lat="42.052733" lon="-8.640264"/><trkpt lat="42.052917" lon="-8.640214"/><trkpt lat="42.053103" lon="-8.640162"/><trkpt lat="42.053229" lon="-8.640119"/><trkpt lat="42.053295" lon="-8.640106"/><trkpt lat="42.053374" lon="-8.640059"/><trkpt lat="42.053424" lon="-8.640015"/><trkpt lat="42.053453" lon="-8.63995"/><trkpt lat="42.053477" lon="-8.639891"/><trkpt lat="42.053493" lon="-8.639803"/><trkpt lat="42.053496" lon="-8.639742"/><trkpt lat="42.053498" lon="-8.639721"/><trkpt lat="42.053493" lon="-8.639673"/><trkpt lat="42.053469" lon="-8.639579"/><trkpt lat="42.053423" lon="-8.639509"/><trkpt lat="42.053376" lon="-8.639399"/><trkpt lat="42.05331" lon="-8.639276"/><trkpt lat="42.053268" lon="-8.639239"/><trkpt lat="42.053216" lon="-8.63919"/><trkpt lat="42.053166" lon="-8.639119"/><trkpt lat="42.05313" lon="-8.639028"/><trkpt lat="42.053094" lon="-8.638939"/><trkpt lat="42.053066" lon="-8.638868"/><trkpt lat="42.053043" lon="-8.638806"/><trkpt lat="42.053052" lon="-8.638723"/><trkpt lat="42.053065" lon="-8.638577"/><trkpt lat="42.053075" lon="-8.638468"/><trkpt lat="42.053075" lon="-8.638442"/><trkpt lat="42.053076" lon="-8.638359"/><trkpt lat="42.053092" lon="-8.638196"/><trkpt lat="42.053104" lon="-8.63809"/><trkpt lat="42.053134" lon="-8.637933"/><trkpt lat="42.053174" lon="-8.637761"/><trkpt lat="42.053223" lon="-8.637601"/><trkpt lat="42.05327" lon="-8.637479"/><trkpt lat="42.053335" lon="-8.63737"/><trkpt lat="42.053398" lon="-8.63727"/><trkpt lat="42.053459" lon="-8.637229"/><trkpt lat="42.053573" lon="-8.637189"/><trkpt lat="42.053607" lon="-8.637169"/><trkpt lat="42.05362" lon="-8.637125"/><trkpt lat="42.053625" lon="-8.637049"/><trkpt lat="42.053608" lon="-8.636942"/><trkpt lat="42.053598" lon="-8.636865"/><trkpt lat="42.053608" lon="-8.636844"/><trkpt lat="42.053649" lon="-8.636824"/><trkpt lat="42.053716" lon="-8.636782"/><trkpt lat="42.053757" lon="-8.636728"/><trkpt lat="42.053872" lon="-8.636607"/><trkpt lat="42.053946" lon="-8.636551"/><trkpt lat="42.054141" lon="-8.636359"/><trkpt lat="42.054284" lon="-8.636203"/><trkpt lat="42.054334" lon="-8.636165"/><trkpt lat="42.054372" lon="-8.636125"/><trkpt lat="42.054441" lon="-8.636075"/><trkpt lat="42.054529" lon="-8.63604"/><trkpt lat="42.054581" lon="-8.636013"/><trkpt lat="42.05463" lon="-8.636004"/><trkpt lat="42.054688" lon="-8.636012"/><trkpt lat="42.054773" lon="-8.636012"/><trkpt lat="42.054917" lon="-8.636012"/><trkpt lat="42.054991" lon="-8.636043"/><trkpt lat="42.055079" lon="-8.636109"/><trkpt lat="42.055145" lon="-8.636151"/><trkpt lat="42.055204" lon="-8.636217"/><trkpt lat="42.055229" lon="-8.636174"/><trkpt lat="42.055262" lon="-8.636041"/><trkpt lat="42.055331" lon="-8.635948"/><trkpt lat="42.055398" lon="-8.635877"/><trkpt lat="42.055609" lon="-8.635626"/><trkpt lat="42.055756" lon="-8.635435"/><trkpt lat="42.055839" lon="-8.635322"/><trkpt lat="42.056045" lon="-8.635151"/><trkpt lat="42.056082" lon="-8.635109"/><trkpt lat="42.056099" lon="-8.635063"/><trkpt lat="42.056177" lon="-8.635012"/><trkpt lat="42.056192" lon="-8.635056"/><trkpt lat="42.056343" lon="-8.63501"/><trkpt lat="42.056458" lon="-8.634963"/><trkpt lat="42.056561" lon="-8.634906"/><trkpt lat="42.056605" lon="-8.634885"/><trkpt lat="42.056648" lon="-8.634864"/><trkpt lat="42.056713" lon="-8.634848"/><trkpt lat="42.056855" lon="-8.634808"/><trkpt lat="42.056923" lon="-8.634787"/><trkpt lat="42.057012" lon="-8.634758"/><trkpt lat="42.057089" lon="-8.634737"/><trkpt lat="42.057165" lon="-8.634729"/><trkpt lat="42.057264" lon="-8.634734"/><trkpt lat="42.057361" lon="-8.634754"/><trkpt lat="42.057427" lon="-8.63477"/><trkpt lat="42.057501" lon="-8.634802"/><trkpt lat="42.057565" lon="-8.634826"/><trkpt lat="42.057634" lon="-8.634863"/><trkpt lat="42.057668" lon="-8.634869"/><trkpt lat="42.057724" lon="-8.634873"/><trkpt lat="42.057779" lon="-8.634896"/><trkpt lat="42.057836" lon="-8.634944"/><trkpt lat="42.057928" lon="-8.635001"/><trkpt lat="42.058011" lon="-8.635044"/><trkpt lat="42.058092" lon="-8.635091"/><trkpt lat="42.058155" lon="-8.635119"/><trkpt lat="42.058217" lon="-8.635197"/><trkpt lat="42.058266" lon="-8.635258"/><trkpt lat="42.058296" lon="-8.635304"/><trkpt lat="42.058338" lon="-8.635372"/><trkpt lat="42.058373" lon="-8.635446"/><trkpt lat="42.058397" lon="-8.635532"/><trkpt lat="42.058412" lon="-8.635641"/><trkpt lat="42.058418" lon="-8.635719"/><trkpt lat="42.058425" lon="-8.635791"/><trkpt lat="42.058425" lon="-8.635836"/><trkpt lat="42.058425" lon="-8.635882"/><trkpt lat="42.058419" lon="-8.635936"/><trkpt lat="42.058412" lon="-8.635985"/><trkpt lat="42.058403" lon="-8.636031"/><trkpt lat="42.058388" lon="-8.636107"/><trkpt lat="42.058379" lon="-8.636195"/><trkpt lat="42.058383" lon="-8.636306"/><trkpt lat="42.058396" lon="-8.636349"/><trkpt lat="42.058425" lon="-8.636386"/><trkpt lat="42.058467" lon="-8.636415"/><trkpt lat="42.058546" lon="-8.636477"/><trkpt lat="42.058619" lon="-8.63652"/><trkpt lat="42.0587" lon="-8.636579"/><trkpt lat="42.058862" lon="-8.636687"/><trkpt lat="42.058946" lon="-8.636738"/><trkpt lat="42.058998" lon="-8.636844"/><trkpt lat="42.059015" lon="-8.636985"/><trkpt lat="42.059023" lon="-8.637244"/><trkpt lat="42.059025" lon="-8.637368"/><trkpt lat="42.059051" lon="-8.637426"/><trkpt lat="42.059084" lon="-8.63747"/><trkpt lat="42.05911" lon="-8.637583"/><trkpt lat="42.059137" lon="-8.637777"/><trkpt lat="42.05918" lon="-8.638054"/><trkpt lat="42.059189" lon="-8.638157"/><trkpt lat="42.059751" lon="-8.63797"/><trkpt lat="42.059868" lon="-8.637896"/><trkpt lat="42.060072" lon="-8.63779"/><trkpt lat="42.060297" lon="-8.637702"/><trkpt lat="42.060505" lon="-8.637602"/><trkpt lat="42.060746" lon="-8.637507"/><trkpt lat="42.060994" lon="-8.637424"/><trkpt lat="42.061208" lon="-8.637314"/><trkpt lat="42.061468" lon="-8.637196"/><trkpt lat="42.061646" lon="-8.637117"/><trkpt lat="42.061784" lon="-8.637091"/><trkpt lat="42.061852" lon="-8.637142"/><trkpt lat="42.061944" lon="-8.637243"/><trkpt lat="42.062019" lon="-8.637424"/><trkpt lat="42.062056" lon="-8.637586"/><trkpt lat="42.062061" lon="-8.637695"/><trkpt lat="42.062064" lon="-8.638034"/><trkpt lat="42.062054" lon="-8.638366"/><trkpt lat="42.062076" lon="-8.638556"/><trkpt lat="42.062115" lon="-8.638707"/><trkpt lat="42.062214" lon="-8.638893"/><trkpt lat="42.062268" lon="-8.638961"/><trkpt lat="42.062399" lon="-8.639036"/><trkpt lat="42.062502" lon="-8.639074"/><trkpt lat="42.06263" lon="-8.639087"/><trkpt lat="42.062868" lon="-8.639108"/><trkpt lat="42.063029" lon="-8.639131"/><trkpt lat="42.063296" lon="-8.639179"/><trkpt lat="42.063763" lon="-8.639206"/><trkpt lat="42.063801" lon="-8.639238"/><trkpt lat="42.063792" lon="-8.639289"/><trkpt lat="42.063767" lon="-8.639339"/><trkpt lat="42.063865" lon="-8.639437"/><trkpt lat="42.063921" lon="-8.639339"/><trkpt lat="42.063954" lon="-8.639316"/><trkpt lat="42.064015" lon="-8.639334"/><trkpt lat="42.064096" lon="-8.639197"/><trkpt lat="42.064084" lon="-8.639138"/><trkpt lat="42.064091" lon="-8.639072"/><trkpt lat="42.064113" lon="-8.639013"/><trkpt lat="42.064147" lon="-8.638949"/><trkpt lat="42.06488" lon="-8.637802"/><trkpt lat="42.066117" lon="-8.638485"/><trkpt lat="42.066139" lon="-8.638359"/><trkpt lat="42.066312" lon="-8.638415"/><trkpt lat="42.066454" lon="-8.638449"/><trkpt lat="42.066624" lon="-8.638468"/><trkpt lat="42.066828" lon="-8.638464"/><trkpt lat="42.067096" lon="-8.638449"/><trkpt lat="42.067375" lon="-8.638419"/><trkpt lat="42.067611" lon="-8.638393"/><trkpt lat="42.067763" lon="-8.638382"/><trkpt lat="42.067846" lon="-8.638386"/><trkpt lat="42.067973" lon="-8.638426"/><trkpt lat="42.068105" lon="-8.638477"/><trkpt lat="42.068456" lon="-8.638623"/><trkpt lat="42.068646" lon="-8.638703"/><trkpt lat="42.06883" lon="-8.638776"/><trkpt lat="42.069094" lon="-8.638882"/><trkpt lat="42.069303" lon="-8.638936"/><trkpt lat="42.069502" lon="-8.638986"/><trkpt lat="42.069686" lon="-8.639008"/><trkpt lat="42.069802" lon="-8.639027"/><trkpt lat="42.069921" lon="-8.639036"/><trkpt lat="42.070042" lon="-8.639005"/><trkpt lat="42.070238" lon="-8.638947"/><trkpt lat="42.07047" lon="-8.638872"/><trkpt lat="42.070714" lon="-8.638765"/><trkpt lat="42.070866" lon="-8.638698"/><trkpt lat="42.071017" lon="-8.638638"/><trkpt lat="42.071182" lon="-8.638604"/><trkpt lat="42.07135" lon="-8.638612"/><trkpt lat="42.071543" lon="-8.638634"/><trkpt lat="42.071815" lon="-8.638667"/><trkpt lat="42.072111" lon="-8.63875"/><trkpt lat="42.072384" lon="-8.638823"/><trkpt lat="42.072564" lon="-8.638883"/><trkpt lat="42.07277" lon="-8.638948"/><trkpt lat="42.073045" lon="-8.639064"/><trkpt lat="42.073176" lon="-8.63909"/><trkpt lat="42.073448" lon="-8.63913"/><trkpt lat="42.073744" lon="-8.639153"/><trkpt lat="42.073948" lon="-8.639149"/><trkpt lat="42.074092" lon="-8.639183"/><trkpt lat="42.074308" lon="-8.63923"/><trkpt lat="42.074651" lon="-8.639343"/><trkpt lat="42.075076" lon="-8.639466"/><trkpt lat="42.075304" lon="-8.639535"/><trkpt lat="42.075586" lon="-8.639622"/><trkpt lat="42.075756" lon="-8.639642"/><trkpt lat="42.07583" lon="-8.639634"/><trkpt lat="42.075934" lon="-8.63961"/><trkpt lat="42.076045" lon="-8.639563"/><trkpt lat="42.076146" lon="-8.6395"/><trkpt lat="42.076245" lon="-8.639418"/><trkpt lat="42.076341" lon="-8.639301"/><trkpt lat="42.076475" lon="-8.639143"/><trkpt lat="42.076614" lon="-8.638977"/><trkpt lat="42.076722" lon="-8.638865"/><trkpt lat="42.076878" lon="-8.638751"/><trkpt lat="42.07708" lon="-8.638596"/><trkpt lat="42.077287" lon="-8.638445"/><trkpt lat="42.077489" lon="-8.638359"/><trkpt lat="42.077562" lon="-8.638345"/><trkpt lat="42.077658" lon="-8.638343"/><trkpt lat="42.077739" lon="-8.638364"/><trkpt lat="42.077897" lon="-8.63841"/><trkpt lat="42.078336" lon="-8.638532"/><trkpt lat="42.07912" lon="-8.638774"/><trkpt lat="42.079534" lon="-8.638893"/><trkpt lat="42.079689" lon="-8.638936"/><trkpt lat="42.079768" lon="-8.638951"/><trkpt lat="42.079867" lon="-8.638957"/><trkpt lat="42.07999" lon="-8.638953"/><trkpt lat="42.080102" lon="-8.638937"/><trkpt lat="42.080315" lon="-8.638911"/><trkpt lat="42.080469" lon="-8.638917"/><trkpt lat="42.080562" lon="-8.638939"/><trkpt lat="42.080662" lon="-8.638994"/><trkpt lat="42.080781" lon="-8.639103"/><trkpt lat="42.080883" lon="-8.639224"/><trkpt lat="42.080952" lon="-8.639353"/><trkpt lat="42.081132" lon="-8.639735"/><trkpt lat="42.081225" lon="-8.639934"/><trkpt lat="42.081302" lon="-8.640074"/><trkpt lat="42.081404" lon="-8.64019"/><trkpt lat="42.081559" lon="-8.640307"/><trkpt lat="42.081864" lon="-8.64051"/><trkpt lat="42.082415" lon="-8.640809"/><trkpt lat="42.082733" lon="-8.640972"/><trkpt lat="42.082794" lon="-8.640845"/><trkpt lat="42.082814" lon="-8.640766"/><trkpt lat="42.08282" lon="-8.640668"/><trkpt lat="42.082818" lon="-8.64055"/><trkpt lat="42.082792" lon="-8.640447"/><trkpt lat="42.082779" lon="-8.640335"/><trkpt lat="42.082789" lon="-8.640225"/><trkpt lat="42.082802" lon="-8.640153"/><trkpt lat="42.082815" lon="-8.640082"/><trkpt lat="42.082861" lon="-8.639935"/><trkpt lat="42.082918" lon="-8.639773"/><trkpt lat="42.083021" lon="-8.639556"/><trkpt lat="42.083216" lon="-8.639162"/><trkpt lat="42.083319" lon="-8.638947"/><trkpt lat="42.0834" lon="-8.638797"/><trkpt lat="42.083567" lon="-8.638662"/><trkpt lat="42.083807" lon="-8.638474"/><trkpt lat="42.083952" lon="-8.63836"/><trkpt lat="42.084263" lon="-8.638168"/><trkpt lat="42.084454" lon="-8.638071"/><trkpt lat="42.084786" lon="-8.637868"/><trkpt lat="42.085008" lon="-8.637673"/><trkpt lat="42.085031" lon="-8.637595"/><trkpt lat="42.085099" lon="-8.637416"/><trkpt lat="42.085191" lon="-8.637292"/><trkpt lat="42.085323" lon="-8.637194"/><trkpt lat="42.085445" lon="-8.637133"/><trkpt lat="42.0855" lon="-8.637061"/><trkpt lat="42.085545" lon="-8.636986"/><trkpt lat="42.08562" lon="-8.637011"/><trkpt lat="42.085742" lon="-8.637071"/><trkpt lat="42.085856" lon="-8.637153"/><trkpt lat="42.085993" lon="-8.637259"/><trkpt lat="42.086144" lon="-8.637369"/><trkpt lat="42.086226" lon="-8.637425"/><trkpt lat="42.086338" lon="-8.637564"/><trkpt lat="42.086435" lon="-8.637682"/><trkpt lat="42.086487" lon="-8.637764"/><trkpt lat="42.086575" lon="-8.637879"/><trkpt lat="42.086731" lon="-8.638134"/><trkpt lat="42.086869" lon="-8.638329"/><trkpt lat="42.086978" lon="-8.638457"/><trkpt lat="42.08707" lon="-8.638573"/><trkpt lat="42.087118" lon="-8.638602"/><trkpt lat="42.087174" lon="-8.638631"/><trkpt lat="42.087248" lon="-8.638654"/><trkpt lat="42.087319" lon="-8.638704"/><trkpt lat="42.08738" lon="-8.638763"/><trkpt lat="42.08745" lon="-8.638816"/><trkpt lat="42.087515" lon="-8.638872"/><trkpt lat="42.087568" lon="-8.638914"/><trkpt lat="42.087608" lon="-8.638987"/><trkpt lat="42.08767" lon="-8.639019"/><trkpt lat="42.08774" lon="-8.639017"/><trkpt lat="42.087825" lon="-8.639037"/><trkpt lat="42.087917" lon="-8.639047"/><trkpt lat="42.08798" lon="-8.639067"/><trkpt lat="42.088034" lon="-8.639108"/><trkpt lat="42.088117" lon="-8.639168"/><trkpt lat="42.088205" lon="-8.639183"/><trkpt lat="42.088289" lon="-8.639186"/><trkpt lat="42.088379" lon="-8.639174"/><trkpt lat="42.088419" lon="-8.639157"/><trkpt lat="42.088491" lon="-8.639131"/><trkpt lat="42.088597" lon="-8.639134"/><trkpt lat="42.088678" lon="-8.63917"/><trkpt lat="42.088779" lon="-8.639225"/><trkpt lat="42.08884" lon="-8.639244"/><trkpt lat="42.08891" lon="-8.639266"/><trkpt lat="42.089087" lon="-8.639237"/><trkpt lat="42.089258" lon="-8.639193"/><trkpt lat="42.089495" lon="-8.639155"/><trkpt lat="42.089762" lon="-8.639122"/><trkpt lat="42.089824" lon="-8.63909"/><trkpt lat="42.089914" lon="-8.639078"/><trkpt lat="42.089989" lon="-8.639095"/><trkpt lat="42.090042" lon="-8.63911"/><trkpt lat="42.090275" lon="-8.639173"/><trkpt lat="42.09039" lon="-8.639223"/><trkpt lat="42.090514" lon="-8.639267"/><trkpt lat="42.090543" lon="-8.639292"/><trkpt lat="42.090617" lon="-8.63928"/><trkpt lat="42.090705" lon="-8.639274"/><trkpt lat="42.090795" lon="-8.639258"/><trkpt lat="42.090883" lon="-8.639253"/><trkpt lat="42.090961" lon="-8.639263"/><trkpt lat="42.09111" lon="-8.63928"/><trkpt lat="42.091272" lon="-8.639304"/><trkpt lat="42.091475" lon="-8.639315"/><trkpt lat="42.091534" lon="-8.639301"/><trkpt lat="42.091576" lon="-8.639277"/><trkpt lat="42.091625" lon="-8.639265"/><trkpt lat="42.091681" lon="-8.639281"/><trkpt lat="42.091769" lon="-8.639281"/><trkpt lat="42.091864" lon="-8.639287"/><trkpt lat="42.091931" lon="-8.639282"/><trkpt lat="42.092009" lon="-8.639273"/><trkpt lat="42.092066" lon="-8.639257"/><trkpt lat="42.092126" lon="-8.63923"/><trkpt lat="42.092202" lon="-8.639192"/><trkpt lat="42.092275" lon="-8.639156"/><trkpt lat="42.092366" lon="-8.639103"/><trkpt lat="42.092422" lon="-8.639081"/><trkpt lat="42.092491" lon="-8.639076"/><trkpt lat="42.092591" lon="-8.639051"/><trkpt lat="42.092655" lon="-8.63903"/><trkpt lat="42.092752" lon="-8.639008"/><trkpt lat="42.092853" lon="-8.638986"/><trkpt lat="42.092934" lon="-8.638966"/><trkpt lat="42.093087" lon="-8.638929"/><trkpt lat="42.093233" lon="-8.638896"/><trkpt lat="42.093295" lon="-8.638869"/><trkpt lat="42.09339" lon="-8.638827"/><trkpt lat="42.093461" lon="-8.63881"/><trkpt lat="42.093546" lon="-8.638786"/><trkpt lat="42.093616" lon="-8.638768"/><trkpt lat="42.093721" lon="-8.638762"/><trkpt lat="42.093831" lon="-8.638751"/><trkpt lat="42.093922" lon="-8.638733"/><trkpt lat="42.093988" lon="-8.638721"/><trkpt lat="42.09407" lon="-8.63869"/><trkpt lat="42.094219" lon="-8.638612"/><trkpt lat="42.09434" lon="-8.638528"/><trkpt lat="42.094472" lon="-8.638445"/><trkpt lat="42.094615" lon="-8.63838"/><trkpt lat="42.094726" lon="-8.638343"/><trkpt lat="42.094771" lon="-8.638334"/><trkpt lat="42.094827" lon="-8.638324"/><trkpt lat="42.094902" lon="-8.638331"/><trkpt lat="42.09493" lon="-8.638352"/><trkpt lat="42.094974" lon="-8.63838"/><trkpt lat="42.09504" lon="-8.63839"/><trkpt lat="42.095171" lon="-8.638381"/><trkpt lat="42.095261" lon="-8.638385"/><trkpt lat="42.095339" lon="-8.6384"/><trkpt lat="42.09545" lon="-8.638421"/><trkpt lat="42.095504" lon="-8.638435"/><trkpt lat="42.095526" lon="-8.638454"/><trkpt lat="42.095539" lon="-8.638496"/><trkpt lat="42.095525" lon="-8.63859"/><trkpt lat="42.095516" lon="-8.638677"/><trkpt lat="42.095518" lon="-8.638764"/><trkpt lat="42.095513" lon="-8.638846"/><trkpt lat="42.095499" lon="-8.638927"/><trkpt lat="42.095465" lon="-8.639001"/><trkpt lat="42.095429" lon="-8.639097"/><trkpt lat="42.095415" lon="-8.639163"/><trkpt lat="42.095413" lon="-8.639238"/><trkpt lat="42.095425" lon="-8.639347"/><trkpt lat="42.095433" lon="-8.639474"/><trkpt lat="42.095433" lon="-8.639574"/><trkpt lat="42.095425" lon="-8.639646"/><trkpt lat="42.095428" lon="-8.639751"/><trkpt lat="42.095438" lon="-8.63995"/><trkpt lat="42.095452" lon="-8.640105"/><trkpt lat="42.09546" lon="-8.64022"/><trkpt lat="42.095473" lon="-8.640299"/><trkpt lat="42.095496" lon="-8.640407"/><trkpt lat="42.095516" lon="-8.640518"/><trkpt lat="42.095543" lon="-8.640676"/><trkpt lat="42.09558" lon="-8.640828"/><trkpt lat="42.095619" lon="-8.640953"/><trkpt lat="42.095664" lon="-8.640979"/><trkpt lat="42.095706" lon="-8.64099"/><trkpt lat="42.095776" lon="-8.640976"/><trkpt lat="42.095824" lon="-8.64096"/><trkpt lat="42.095868" lon="-8.640968"/><trkpt lat="42.095906" lon="-8.641016"/><trkpt lat="42.095968" lon="-8.641097"/><trkpt lat="42.09603" lon="-8.641186"/><trkpt lat="42.096068" lon="-8.641218"/><trkpt lat="42.096166" lon="-8.641283"/><trkpt lat="42.096272" lon="-8.641361"/><trkpt lat="42.096357" lon="-8.641423"/><trkpt lat="42.096442" lon="-8.641481"/><trkpt lat="42.096475" lon="-8.641482"/><trkpt lat="42.096512" lon="-8.641448"/><trkpt lat="42.096601" lon="-8.641416"/><trkpt lat="42.096612" lon="-8.641452"/><trkpt lat="42.096662" lon="-8.64147"/><trkpt lat="42.096874" lon="-8.641401"/><trkpt lat="42.09702" lon="-8.641354"/><trkpt lat="42.097137" lon="-8.641354"/><trkpt lat="42.0973" lon="-8.641353"/><trkpt lat="42.097421" lon="-8.641357"/><trkpt lat="42.09743" lon="-8.641328"/><trkpt lat="42.097454" lon="-8.641213"/><trkpt lat="42.097458" lon="-8.641073"/><trkpt lat="42.097451" lon="-8.640956"/><trkpt lat="42.097432" lon="-8.640882"/><trkpt lat="42.097403" lon="-8.64081"/><trkpt lat="42.097364" lon="-8.640747"/><trkpt lat="42.097319" lon="-8.640655"/><trkpt lat="42.097256" lon="-8.640459"/><trkpt lat="42.0972" lon="-8.640261"/><trkpt lat="42.097169" lon="-8.640094"/><trkpt lat="42.097161" lon="-8.639919"/><trkpt lat="42.097201" lon="-8.639783"/><trkpt lat="42.097261" lon="-8.639675"/><trkpt lat="42.097325" lon="-8.639596"/><trkpt lat="42.097425" lon="-8.639545"/><trkpt lat="42.09756" lon="-8.639495"/><trkpt lat="42.097654" lon="-8.639483"/><trkpt lat="42.0977" lon="-8.639376"/><trkpt lat="42.097845" lon="-8.639547"/><trkpt lat="42.098028" lon="-8.639771"/><trkpt lat="42.098204" lon="-8.640016"/><trkpt lat="42.098251" lon="-8.63993"/><trkpt lat="42.098307" lon="-8.639802"/><trkpt lat="42.09835" lon="-8.639661"/><trkpt lat="42.098391" lon="-8.639534"/><trkpt lat="42.098422" lon="-8.639443"/><trkpt lat="42.09845" lon="-8.639354"/><trkpt lat="42.098528" lon="-8.63913"/><trkpt lat="42.098563" lon="-8.639051"/><trkpt lat="42.098597" lon="-8.63896"/><trkpt lat="42.098642" lon="-8.638873"/><trkpt lat="42.09872" lon="-8.638771"/><trkpt lat="42.098777" lon="-8.638637"/><trkpt lat="42.098793" lon="-8.638623"/><trkpt lat="42.098844" lon="-8.638581"/><trkpt lat="42.098885" lon="-8.638532"/><trkpt lat="42.098929" lon="-8.638416"/><trkpt lat="42.098973" lon="-8.638321"/><trkpt lat="42.09902" lon="-8.638219"/><trkpt lat="42.099066" lon="-8.638107"/><trkpt lat="42.099096" lon="-8.638084"/><trkpt lat="42.099121" lon="-8.638079"/><trkpt lat="42.099153" lon="-8.638103"/><trkpt lat="42.099185" lon="-8.63817"/><trkpt lat="42.099215" lon="-8.638262"/><trkpt lat="42.099254" lon="-8.638291"/><trkpt lat="42.099321" lon="-8.638277"/><trkpt lat="42.0994" lon="-8.638258"/><trkpt lat="42.099474" lon="-8.638255"/><trkpt lat="42.099534" lon="-8.638251"/><trkpt lat="42.099599" lon="-8.638238"/><trkpt lat="42.099606" lon="-8.638151"/><trkpt lat="42.099596" lon="-8.637983"/><trkpt lat="42.099613" lon="-8.637883"/><trkpt lat="42.099663" lon="-8.637788"/><trkpt lat="42.099781" lon="-8.637708"/><trkpt lat="42.099924" lon="-8.637636"/><trkpt lat="42.100106" lon="-8.637556"/><trkpt lat="42.100227" lon="-8.637511"/><trkpt lat="42.100366" lon="-8.637464"/><trkpt lat="42.10044" lon="-8.637398"/><trkpt lat="42.100558" lon="-8.637318"/><trkpt lat="42.100704" lon="-8.637294"/><trkpt lat="42.10085" lon="-8.637232"/><trkpt lat="42.101004" lon="-8.637227"/><trkpt lat="42.101254" lon="-8.637179"/><trkpt lat="42.101428" lon="-8.637154"/><trkpt lat="42.101515" lon="-8.637139"/><trkpt lat="42.10171" lon="-8.637162"/><trkpt lat="42.101828" lon="-8.637194"/><trkpt lat="42.101992" lon="-8.637202"/><trkpt lat="42.102093" lon="-8.637181"/><trkpt lat="42.102166" lon="-8.637122"/><trkpt lat="42.102222" lon="-8.637054"/><trkpt lat="42.102265" lon="-8.636964"/><trkpt lat="42.102288" lon="-8.636864"/><trkpt lat="42.102291" lon="-8.636765"/><trkpt lat="42.102291" lon="-8.63663"/><trkpt lat="42.102309" lon="-8.636518"/><trkpt lat="42.102291" lon="-8.63634"/><trkpt lat="42.102246" lon="-8.636199"/><trkpt lat="42.102202" lon="-8.636036"/><trkpt lat="42.102132" lon="-8.635735"/><trkpt lat="42.10208" lon="-8.635576"/><trkpt lat="42.102006" lon="-8.635482"/><trkpt lat="42.101932" lon="-8.635425"/><trkpt lat="42.101873" lon="-8.635408"/><trkpt lat="42.101772" lon="-8.635346"/><trkpt lat="42.101695" lon="-8.635288"/><trkpt lat="42.101656" lon="-8.635251"/><trkpt lat="42.101602" lon="-8.635193"/><trkpt lat="42.101541" lon="-8.635112"/><trkpt lat="42.101485" lon="-8.63503"/><trkpt lat="42.101439" lon="-8.634962"/><trkpt lat="42.101395" lon="-8.634904"/><trkpt lat="42.101346" lon="-8.634861"/><trkpt lat="42.101294" lon="-8.634835"/><trkpt lat="42.101242" lon="-8.634799"/><trkpt lat="42.101244" lon="-8.634685"/><trkpt lat="42.101296" lon="-8.634624"/><trkpt lat="42.101417" lon="-8.634507"/><trkpt lat="42.101489" lon="-8.634414"/><trkpt lat="42.10155" lon="-8.634359"/><trkpt lat="42.101633" lon="-8.634313"/><trkpt lat="42.101692" lon="-8.634254"/><trkpt lat="42.10175" lon="-8.634196"/><trkpt lat="42.101781" lon="-8.634115"/><trkpt lat="42.101816" lon="-8.634001"/><trkpt lat="42.101865" lon="-8.633907"/><trkpt lat="42.101914" lon="-8.633815"/><trkpt lat="42.101991" lon="-8.633687"/><trkpt lat="42.102083" lon="-8.63358"/><trkpt lat="42.102168" lon="-8.633482"/><trkpt lat="42.102229" lon="-8.633408"/><trkpt lat="42.102326" lon="-8.633267"/><trkpt lat="42.102569" lon="-8.632927"/><trkpt lat="42.102629" lon="-8.632867"/><trkpt lat="42.102708" lon="-8.632838"/><trkpt lat="42.102812" lon="-8.632808"/><trkpt lat="42.102859" lon="-8.632753"/><trkpt lat="42.103097" lon="-8.632428"/><trkpt lat="42.103236" lon="-8.632252"/><trkpt lat="42.103387" lon="-8.632167"/><trkpt lat="42.103653" lon="-8.632072"/><trkpt lat="42.103841" lon="-8.632009"/><trkpt lat="42.10394" lon="-8.631996"/><trkpt lat="42.104141" lon="-8.631988"/><trkpt lat="42.104246" lon="-8.631975"/><trkpt lat="42.104389" lon="-8.631959"/><trkpt lat="42.104444" lon="-8.631915"/><trkpt lat="42.104585" lon="-8.631745"/><trkpt lat="42.104698" lon="-8.631604"/><trkpt lat="42.10476" lon="-8.631502"/><trkpt lat="42.10481" lon="-8.631278"/><trkpt lat="42.104847" lon="-8.631193"/><trkpt lat="42.104903" lon="-8.631137"/><trkpt lat="42.105071" lon="-8.631033"/><trkpt lat="42.105261" lon="-8.630976"/><trkpt lat="42.105386" lon="-8.630986"/><trkpt lat="42.105845" lon="-8.631006"/><trkpt lat="42.106338" lon="-8.630936"/><trkpt lat="42.106481" lon="-8.63086"/><trkpt lat="42.106642" lon="-8.630684"/><trkpt lat="42.106822" lon="-8.63054"/><trkpt lat="42.106915" lon="-8.630492"/><trkpt lat="42.106972" lon="-8.630424"/><trkpt lat="42.107009" lon="-8.630368"/><trkpt lat="42.107051" lon="-8.630301"/><trkpt lat="42.107105" lon="-8.630173"/><trkpt lat="42.107106" lon="-8.63017"/><trkpt lat="42.10712" lon="-8.629855"/><trkpt lat="42.107209" lon="-8.629851"/><trkpt lat="42.107207" lon="-8.629286"/><trkpt lat="42.107257" lon="-8.629136"/><trkpt lat="42.107349" lon="-8.628972"/><trkpt lat="42.107576" lon="-8.628579"/><trkpt lat="42.107742" lon="-8.628326"/><trkpt lat="42.107809" lon="-8.628278"/><trkpt lat="42.107897" lon="-8.628249"/><trkpt lat="42.108236" lon="-8.628257"/><trkpt lat="42.108709" lon="-8.62828"/><trkpt lat="42.108787" lon="-8.625887"/><trkpt lat="42.109305" lon="-8.625795"/><trkpt lat="42.109615" lon="-8.625766"/><trkpt lat="42.110831" lon="-8.625838"/><trkpt lat="42.113009" lon="-8.625965"/><trkpt lat="42.113133" lon="-8.625971"/><trkpt lat="42.113937" lon="-8.626009"/><trkpt lat="42.114957" lon="-8.626074"/><trkpt lat="42.115479" lon="-8.626115"/><trkpt lat="42.115561" lon="-8.626124"/><trkpt lat="42.115717" lon="-8.626143"/><trkpt lat="42.115864" lon="-8.626154"/><trkpt lat="42.116166" lon="-8.626161"/><trkpt lat="42.116529" lon="-8.626179"/><trkpt lat="42.116986" lon="-8.626215"/><trkpt lat="42.11759" lon="-8.626248"/><trkpt lat="42.118272" lon="-8.626287"/><trkpt lat="42.118868" lon="-8.626309"/><trkpt lat="42.11956" lon="-8.626354"/><trkpt lat="42.120313" lon="-8.62639"/><trkpt lat="42.121066" lon="-8.626437"/><trkpt lat="42.121537" lon="-8.626472"/><trkpt lat="42.121563" lon="-8.626369"/><trkpt lat="42.122689" lon="-8.626431"/><trkpt lat="42.123776" lon="-8.626499"/><trkpt lat="42.12437" lon="-8.626529"/><trkpt lat="42.125223" lon="-8.626575"/><trkpt lat="42.125951" lon="-8.62662"/><trkpt lat="42.127071" lon="-8.626671"/><trkpt lat="42.127696" lon="-8.626713"/><trkpt lat="42.129119" lon="-8.626783"/><trkpt lat="42.129956" lon="-8.626868"/><trkpt lat="42.130597" lon="-8.626904"/><trkpt lat="42.131296" lon="-8.626935"/><trkpt lat="42.13198" lon="-8.626957"/><trkpt lat="42.132195" lon="-8.626948"/><trkpt lat="42.132345" lon="-8.626865"/><trkpt lat="42.132441" lon="-8.626731"/><trkpt lat="42.132474" lon="-8.626626"/><trkpt lat="42.132493" lon="-8.626498"/><trkpt lat="42.132512" lon="-8.626357"/><trkpt lat="42.132529" lon="-8.626184"/><trkpt lat="42.132553" lon="-8.62609"/><trkpt lat="42.13261" lon="-8.625986"/><trkpt lat="42.132684" lon="-8.625898"/><trkpt lat="42.13279" lon="-8.62581"/><trkpt lat="42.133006" lon="-8.625671"/><trkpt lat="42.133452" lon="-8.625412"/><trkpt lat="42.134077" lon="-8.625079"/><trkpt lat="42.134298" lon="-8.624963"/><trkpt lat="42.134771" lon="-8.624748"/><trkpt lat="42.135173" lon="-8.62455"/><trkpt lat="42.135991" lon="-8.62413"/><trkpt lat="42.136578" lon="-8.62385"/><trkpt lat="42.136525" lon="-8.623733"/><trkpt lat="42.136631" lon="-8.623676"/><trkpt lat="42.136655" lon="-8.623607"/><trkpt lat="42.13669" lon="-8.62356"/><trkpt lat="42.136741" lon="-8.623495"/><trkpt lat="42.136787" lon="-8.623455"/><trkpt lat="42.136803" lon="-8.623447"/><trkpt lat="42.137077" lon="-8.623434"/><trkpt lat="42.137079" lon="-8.623401"/><trkpt lat="42.13681" lon="-8.623404"/><trkpt lat="42.136798" lon="-8.623183"/><trkpt lat="42.136512" lon="-8.623209"/><trkpt lat="42.136509" lon="-8.623167"/><trkpt lat="42.136751" lon="-8.623152"/><trkpt lat="42.137267" lon="-8.623085"/><trkpt lat="42.137483" lon="-8.623056"/><trkpt lat="42.137605" lon="-8.623039"/><trkpt lat="42.137811" lon="-8.623028"/><trkpt lat="42.13813" lon="-8.623001"/><trkpt lat="42.138524" lon="-8.622969"/><trkpt lat="42.138864" lon="-8.62294"/><trkpt lat="42.139286" lon="-8.622911"/><trkpt lat="42.139293" lon="-8.622889"/><trkpt lat="42.139536" lon="-8.622865"/><trkpt lat="42.139556" lon="-8.62289"/><trkpt lat="42.139973" lon="-8.622857"/><trkpt lat="42.140255" lon="-8.622833"/><trkpt lat="42.140613" lon="-8.622807"/><trkpt lat="42.141124" lon="-8.622768"/><trkpt lat="42.141479" lon="-8.622738"/><trkpt lat="42.141777" lon="-8.622714"/><trkpt lat="42.14205" lon="-8.622694"/><trkpt lat="42.142368" lon="-8.622675"/><trkpt lat="42.142937" lon="-8.622631"/><trkpt lat="42.143626" lon="-8.622599"/><trkpt lat="42.14411" lon="-8.622559"/><trkpt lat="42.14436" lon="-8.622536"/><trkpt lat="42.144783" lon="-8.622516"/><trkpt lat="42.14514" lon="-8.622495"/><trkpt lat="42.145167" lon="-8.622464"/><trkpt lat="42.145532" lon="-8.622449"/><trkpt lat="42.145846" lon="-8.622447"/><trkpt lat="42.145871" lon="-8.62248"/><trkpt lat="42.145879" lon="-8.622575"/><trkpt lat="42.145866" lon="-8.622702"/><trkpt lat="42.145969" lon="-8.622728"/><trkpt lat="42.146048" lon="-8.622548"/><trkpt lat="42.146105" lon="-8.622465"/><trkpt lat="42.146148" lon="-8.622459"/><trkpt lat="42.146513" lon="-8.622445"/><trkpt lat="42.146793" lon="-8.622428"/><trkpt lat="42.147078" lon="-8.62241"/><trkpt lat="42.147283" lon="-8.622395"/><trkpt lat="42.147716" lon="-8.622359"/><trkpt lat="42.147941" lon="-8.622347"/><trkpt lat="42.148052" lon="-8.62234"/><trkpt lat="42.148168" lon="-8.622329"/><trkpt lat="42.14819" lon="-8.622349"/><trkpt lat="42.148328" lon="-8.622341"/><trkpt lat="42.148482" lon="-8.622316"/><trkpt lat="42.14863" lon="-8.622283"/><trkpt lat="42.148756" lon="-8.622258"/><trkpt lat="42.149009" lon="-8.622193"/><trkpt lat="42.149528" lon="-8.622025"/><trkpt lat="42.149766" lon="-8.621958"/><trkpt lat="42.150329" lon="-8.621774"/><trkpt lat="42.150614" lon="-8.621682"/><trkpt lat="42.150903" lon="-8.621592"/><trkpt lat="42.151184" lon="-8.621497"/><trkpt lat="42.151601" lon="-8.621358"/><trkpt lat="42.151976" lon="-8.621241"/><trkpt lat="42.15232" lon="-8.621135"/><trkpt lat="42.152329" lon="-8.621101"/><trkpt lat="42.152473" lon="-8.621051"/><trkpt lat="42.152638" lon="-8.621002"/><trkpt lat="42.152702" lon="-8.620998"/><trkpt lat="42.152943" lon="-8.620928"/><trkpt lat="42.153154" lon="-8.620865"/><trkpt lat="42.153319" lon="-8.62081"/><trkpt lat="42.15353" lon="-8.620742"/><trkpt lat="42.153762" lon="-8.620668"/><trkpt lat="42.153939" lon="-8.620603"/><trkpt lat="42.154104" lon="-8.62055"/><trkpt lat="42.154224" lon="-8.620544"/><trkpt lat="42.154455" lon="-8.62066"/><trkpt lat="42.154774" lon="-8.620851"/><trkpt lat="42.155132" lon="-8.620979"/><trkpt lat="42.155366" lon="-8.621009"/><trkpt lat="42.155522" lon="-8.621012"/><trkpt lat="42.155677" lon="-8.620994"/><trkpt lat="42.155773" lon="-8.620978"/><trkpt lat="42.156407" lon="-8.620653"/><trkpt lat="42.157149" lon="-8.620308"/><trkpt lat="42.157262" lon="-8.620256"/><trkpt lat="42.157345" lon="-8.620249"/><trkpt lat="42.157395" lon="-8.620265"/><trkpt lat="42.157449" lon="-8.620271"/><trkpt lat="42.15747" lon="-8.620181"/><trkpt lat="42.157479" lon="-8.620006"/><trkpt lat="42.157749" lon="-8.620035"/><trkpt lat="42.157994" lon="-8.620072"/><trkpt lat="42.158116" lon="-8.620089"/><trkpt lat="42.158196" lon="-8.620118"/><trkpt lat="42.158352" lon="-8.620128"/><trkpt lat="42.158513" lon="-8.620207"/><trkpt lat="42.158642" lon="-8.620223"/><trkpt lat="42.15882" lon="-8.620233"/><trkpt lat="42.158954" lon="-8.620231"/><trkpt lat="42.159105" lon="-8.620224"/><trkpt lat="42.159175" lon="-8.620217"/><trkpt lat="42.159281" lon="-8.620426"/><trkpt lat="42.159334" lon="-8.620524"/><trkpt lat="42.15938" lon="-8.620528"/><trkpt lat="42.159412" lon="-8.620515"/><trkpt lat="42.159437" lon="-8.620582"/><trkpt lat="42.159438" lon="-8.620587"/><trkpt lat="42.159498" lon="-8.620703"/><trkpt lat="42.159532" lon="-8.620876"/><trkpt lat="42.159556" lon="-8.621051"/><trkpt lat="42.15956" lon="-8.621052"/><trkpt lat="42.159691" lon="-8.621059"/><trkpt lat="42.159964" lon="-8.621058"/><trkpt lat="42.160195" lon="-8.621069"/><trkpt lat="42.160427" lon="-8.621077"/><trkpt lat="42.160519" lon="-8.621075"/><trkpt lat="42.160667" lon="-8.621072"/><trkpt lat="42.160919" lon="-8.621061"/><trkpt lat="42.161191" lon="-8.621061"/><trkpt lat="42.161511" lon="-8.621059"/><trkpt lat="42.161666" lon="-8.6211"/><trkpt lat="42.16187" lon="-8.621207"/><trkpt lat="42.162042" lon="-8.621322"/><trkpt lat="42.16222" lon="-8.621414"/><trkpt lat="42.162313" lon="-8.621415"/><trkpt lat="42.162421" lon="-8.621419"/><trkpt lat="42.162528" lon="-8.621451"/><trkpt lat="42.162605" lon="-8.621484"/><trkpt lat="42.162678" lon="-8.621526"/><trkpt lat="42.162706" lon="-8.621606"/><trkpt lat="42.162788" lon="-8.621624"/></trkseg></trk></gpx>
