<?xml version="1.0" encoding="UTF-8"?>
<gpx version="1.1" creator="Camino Santiago Bonsai Café" xmlns="http://www.topografix.com/GPX/1/1"><metadata><name>Redondela → Pontevedra</name><desc>Rutas de Caminos de Santiago CC-BY 4.0 FEAACS y asociaciones jacobeas colaboradoras. Distribución: IGN/CNIG. Adaptación: recorte por paradas, inversión de sentido cuando corresponde y redondeo de coordenadas. Consultado: 2026-09-07. Los segmentos separados no incluyen los huecos ni accesos laterales a localidades.</desc><link href="https://centrodedescargas.cnig.es/CentroDescargas/camino-santiago"><text>IGN/CNIG · FEAACS</text></link></metadata><trk><name>Redondela → Pontevedra</name><trkseg><trkpt lat="42.28233" lon="-8.608567"/><trkpt lat="42.282355" lon="-8.608538"/><trkpt lat="42.282389" lon="-8.608504"/><trkpt lat="42.282474" lon="-8.608446"/><trkpt lat="42.282605" lon="-8.608369"/><trkpt lat="42.282767" lon="-8.608262"/><trkpt lat="42.28284" lon="-8.608236"/><trkpt lat="42.283127" lon="-8.608166"/><trkpt lat="42.283253" lon="-8.60811"/><trkpt lat="42.283403" lon="-8.608017"/><trkpt lat="42.283604" lon="-8.60788"/><trkpt lat="42.283727" lon="-8.60779"/><trkpt lat="42.283813" lon="-8.607751"/><trkpt lat="42.283901" lon="-8.607742"/><trkpt lat="42.283976" lon="-8.607746"/><trkpt lat="42.284043" lon="-8.60776"/><trkpt lat="42.28416" lon="-8.607801"/><trkpt lat="42.284305" lon="-8.607849"/><trkpt lat="42.284386" lon="-8.607848"/><trkpt lat="42.284481" lon="-8.607853"/><trkpt lat="42.28458" lon="-8.607846"/><trkpt lat="42.284698" lon="-8.607829"/><trkpt lat="42.284836" lon="-8.607791"/><trkpt lat="42.285015" lon="-8.607741"/><trkpt lat="42.28515" lon="-8.607715"/><trkpt lat="42.285195" lon="-8.607688"/><trkpt lat="42.285291" lon="-8.607645"/><trkpt lat="42.285381" lon="-8.607608"/><trkpt lat="42.285444" lon="-8.607602"/><trkpt lat="42.285497" lon="-8.60761"/><trkpt lat="42.285558" lon="-8.60762"/><trkpt lat="42.285634" lon="-8.607632"/><trkpt lat="42.285704" lon="-8.607649"/><trkpt lat="42.285828" lon="-8.607676"/><trkpt lat="42.285994" lon="-8.607698"/><trkpt lat="42.286185" lon="-8.607748"/><trkpt lat="42.286274" lon="-8.607767"/><trkpt lat="42.286351" lon="-8.607832"/><trkpt lat="42.286444" lon="-8.607937"/><trkpt lat="42.286552" lon="-8.608017"/><trkpt lat="42.286664" lon="-8.608052"/><trkpt lat="42.286861" lon="-8.608097"/><trkpt lat="42.287142" lon="-8.608194"/><trkpt lat="42.287295" lon="-8.608239"/><trkpt lat="42.287451" lon="-8.608352"/><trkpt lat="42.287541" lon="-8.608427"/><trkpt lat="42.28763" lon="-8.608458"/><trkpt lat="42.287732" lon="-8.608472"/><trkpt lat="42.287822" lon="-8.608472"/><trkpt lat="42.28791" lon="-8.608482"/><trkpt lat="42.288003" lon="-8.608505"/><trkpt lat="42.288068" lon="-8.608553"/><trkpt lat="42.288125" lon="-8.608683"/><trkpt lat="42.288198" lon="-8.608652"/><trkpt lat="42.288313" lon="-8.608664"/><trkpt lat="42.288325" lon="-8.608755"/><trkpt lat="42.28843" lon="-8.608748"/><trkpt lat="42.288484" lon="-8.608735"/><trkpt lat="42.288545" lon="-8.608719"/><trkpt lat="42.288709" lon="-8.60868"/><trkpt lat="42.288882" lon="-8.60867"/><trkpt lat="42.289104" lon="-8.608618"/><trkpt lat="42.289352" lon="-8.608569"/><trkpt lat="42.28952" lon="-8.608539"/><trkpt lat="42.289649" lon="-8.608519"/><trkpt lat="42.289764" lon="-8.608522"/><trkpt lat="42.289923" lon="-8.608477"/><trkpt lat="42.290153" lon="-8.608431"/><trkpt lat="42.290378" lon="-8.60837"/><trkpt lat="42.290515" lon="-8.608313"/><trkpt lat="42.290774" lon="-8.608213"/><trkpt lat="42.29103" lon="-8.608118"/><trkpt lat="42.291261" lon="-8.60803"/><trkpt lat="42.291395" lon="-8.608"/><trkpt lat="42.29154" lon="-8.607972"/><trkpt lat="42.291767" lon="-8.607922"/><trkpt lat="42.291999" lon="-8.607881"/><trkpt lat="42.292184" lon="-8.607853"/><trkpt lat="42.292429" lon="-8.607781"/><trkpt lat="42.292694" lon="-8.60769"/><trkpt lat="42.292977" lon="-8.607626"/><trkpt lat="42.293156" lon="-8.607604"/><trkpt lat="42.293241" lon="-8.607587"/><trkpt lat="42.293305" lon="-8.607529"/><trkpt lat="42.293389" lon="-8.607481"/><trkpt lat="42.293454" lon="-8.607439"/><trkpt lat="42.293552" lon="-8.607385"/><trkpt lat="42.293631" lon="-8.607371"/><trkpt lat="42.293708" lon="-8.60737"/><trkpt lat="42.293809" lon="-8.607397"/><trkpt lat="42.293916" lon="-8.607449"/><trkpt lat="42.293979" lon="-8.607512"/><trkpt lat="42.294027" lon="-8.607587"/><trkpt lat="42.29408" lon="-8.607706"/><trkpt lat="42.294184" lon="-8.607959"/><trkpt lat="42.294293" lon="-8.608204"/><trkpt lat="42.294496" lon="-8.608552"/><trkpt lat="42.294603" lon="-8.608735"/><trkpt lat="42.294738" lon="-8.608911"/><trkpt lat="42.294954" lon="-8.609131"/><trkpt lat="42.295097" lon="-8.609269"/><trkpt lat="42.29533" lon="-8.609449"/><trkpt lat="42.295528" lon="-8.609619"/><trkpt lat="42.295699" lon="-8.609791"/><trkpt lat="42.295833" lon="-8.609976"/><trkpt lat="42.295945" lon="-8.610107"/><trkpt lat="42.296175" lon="-8.610266"/><trkpt lat="42.29625" lon="-8.610297"/><trkpt lat="42.296334" lon="-8.610279"/><trkpt lat="42.296446" lon="-8.610255"/><trkpt lat="42.296544" lon="-8.610206"/><trkpt lat="42.296605" lon="-8.610213"/><trkpt lat="42.296731" lon="-8.610206"/><trkpt lat="42.296968" lon="-8.610194"/><trkpt lat="42.297197" lon="-8.610139"/><trkpt lat="42.297389" lon="-8.610087"/><trkpt lat="42.297518" lon="-8.610034"/><trkpt lat="42.297716" lon="-8.609948"/><trkpt lat="42.297894" lon="-8.609884"/><trkpt lat="42.298034" lon="-8.609826"/><trkpt lat="42.298111" lon="-8.609765"/><trkpt lat="42.298217" lon="-8.609706"/><trkpt lat="42.298356" lon="-8.609642"/><trkpt lat="42.298533" lon="-8.609601"/><trkpt lat="42.298705" lon="-8.60956"/><trkpt lat="42.298868" lon="-8.609555"/><trkpt lat="42.298983" lon="-8.609574"/><trkpt lat="42.299088" lon="-8.609587"/><trkpt lat="42.299212" lon="-8.609578"/><trkpt lat="42.299317" lon="-8.609545"/><trkpt lat="42.299408" lon="-8.609565"/><trkpt lat="42.299474" lon="-8.609592"/><trkpt lat="42.299505" lon="-8.609458"/><trkpt lat="42.299575" lon="-8.609274"/><trkpt lat="42.299633" lon="-8.609133"/><trkpt lat="42.299741" lon="-8.608996"/><trkpt lat="42.299828" lon="-8.608924"/><trkpt lat="42.299914" lon="-8.608861"/><trkpt lat="42.299999" lon="-8.608806"/><trkpt lat="42.30008" lon="-8.608736"/><trkpt lat="42.300141" lon="-8.608675"/><trkpt lat="42.300216" lon="-8.608577"/><trkpt lat="42.300274" lon="-8.608502"/><trkpt lat="42.30033" lon="-8.608381"/><trkpt lat="42.300384" lon="-8.608253"/><trkpt lat="42.300466" lon="-8.608125"/><trkpt lat="42.300468" lon="-8.608125"/><trkpt lat="42.300516" lon="-8.608131"/><trkpt lat="42.300592" lon="-8.608175"/><trkpt lat="42.300685" lon="-8.60828"/><trkpt lat="42.300768" lon="-8.608365"/><trkpt lat="42.300827" lon="-8.608403"/><trkpt lat="42.300872" lon="-8.608381"/><trkpt lat="42.300927" lon="-8.608347"/><trkpt lat="42.30104" lon="-8.608275"/><trkpt lat="42.30116" lon="-8.608229"/><trkpt lat="42.301248" lon="-8.608249"/><trkpt lat="42.301351" lon="-8.608259"/><trkpt lat="42.301467" lon="-8.608219"/><trkpt lat="42.301563" lon="-8.608156"/><trkpt lat="42.301683" lon="-8.608124"/><trkpt lat="42.301826" lon="-8.608058"/><trkpt lat="42.301931" lon="-8.607995"/><trkpt lat="42.302011" lon="-8.607918"/><trkpt lat="42.302155" lon="-8.607773"/><trkpt lat="42.30226" lon="-8.607642"/><trkpt lat="42.302444" lon="-8.607426"/><trkpt lat="42.302605" lon="-8.607236"/><trkpt lat="42.302762" lon="-8.607084"/><trkpt lat="42.302889" lon="-8.606939"/><trkpt lat="42.303096" lon="-8.606724"/><trkpt lat="42.303198" lon="-8.60659"/><trkpt lat="42.303358" lon="-8.606394"/><trkpt lat="42.303489" lon="-8.606279"/><trkpt lat="42.303587" lon="-8.606201"/><trkpt lat="42.303703" lon="-8.606167"/><trkpt lat="42.303817" lon="-8.60613"/><trkpt lat="42.303918" lon="-8.606083"/><trkpt lat="42.303979" lon="-8.606027"/><trkpt lat="42.304003" lon="-8.605943"/><trkpt lat="42.304029" lon="-8.605904"/><trkpt lat="42.304057" lon="-8.605907"/><trkpt lat="42.304136" lon="-8.605928"/><trkpt lat="42.304347" lon="-8.605936"/><trkpt lat="42.304634" lon="-8.605936"/><trkpt lat="42.304769" lon="-8.605896"/><trkpt lat="42.304861" lon="-8.605892"/><trkpt lat="42.304993" lon="-8.60592"/><trkpt lat="42.305133" lon="-8.605907"/><trkpt lat="42.305312" lon="-8.60586"/><trkpt lat="42.305548" lon="-8.60581"/><trkpt lat="42.305712" lon="-8.605786"/><trkpt lat="42.305891" lon="-8.605751"/><trkpt lat="42.30601" lon="-8.605717"/><trkpt lat="42.306206" lon="-8.605635"/><trkpt lat="42.306385" lon="-8.60554"/><trkpt lat="42.306434" lon="-8.605478"/><trkpt lat="42.306473" lon="-8.605334"/><trkpt lat="42.306539" lon="-8.605225"/><trkpt lat="42.306628" lon="-8.6051"/><trkpt lat="42.30676" lon="-8.604884"/><trkpt lat="42.306791" lon="-8.604862"/><trkpt lat="42.306842" lon="-8.604936"/><trkpt lat="42.306929" lon="-8.605099"/><trkpt lat="42.306984" lon="-8.605227"/><trkpt lat="42.30706" lon="-8.605421"/><trkpt lat="42.307175" lon="-8.605332"/><trkpt lat="42.30717" lon="-8.605286"/><trkpt lat="42.307169" lon="-8.605198"/><trkpt lat="42.307172" lon="-8.605099"/><trkpt lat="42.307182" lon="-8.605024"/><trkpt lat="42.30721" lon="-8.604957"/><trkpt lat="42.30751" lon="-8.604775"/><trkpt lat="42.307613" lon="-8.604788"/><trkpt lat="42.307676" lon="-8.604694"/><trkpt lat="42.307676" lon="-8.604594"/><trkpt lat="42.30771" lon="-8.604481"/><trkpt lat="42.307773" lon="-8.604293"/><trkpt lat="42.307862" lon="-8.604054"/><trkpt lat="42.307958" lon="-8.603882"/><trkpt lat="42.308101" lon="-8.603727"/><trkpt lat="42.30824" lon="-8.603588"/><trkpt lat="42.308409" lon="-8.603435"/><trkpt lat="42.308572" lon="-8.603299"/><trkpt lat="42.308716" lon="-8.603255"/><trkpt lat="42.308882" lon="-8.603235"/><trkpt lat="42.309167" lon="-8.603224"/><trkpt lat="42.30951" lon="-8.60322"/><trkpt lat="42.309682" lon="-8.603206"/><trkpt lat="42.309862" lon="-8.603187"/><trkpt lat="42.31004" lon="-8.603142"/><trkpt lat="42.310136" lon="-8.603107"/><trkpt lat="42.31023" lon="-8.603312"/><trkpt lat="42.310347" lon="-8.603625"/><trkpt lat="42.310379" lon="-8.603685"/><trkpt lat="42.310472" lon="-8.603724"/><trkpt lat="42.310606" lon="-8.603809"/><trkpt lat="42.310783" lon="-8.60397"/><trkpt lat="42.310904" lon="-8.604102"/><trkpt lat="42.310987" lon="-8.604227"/><trkpt lat="42.311044" lon="-8.604383"/><trkpt lat="42.311104" lon="-8.604467"/><trkpt lat="42.311189" lon="-8.604561"/><trkpt lat="42.311287" lon="-8.604652"/><trkpt lat="42.31137" lon="-8.604688"/><trkpt lat="42.311482" lon="-8.604746"/><trkpt lat="42.311606" lon="-8.60484"/><trkpt lat="42.311734" lon="-8.604985"/><trkpt lat="42.311788" lon="-8.605062"/><trkpt lat="42.31193" lon="-8.605262"/><trkpt lat="42.312143" lon="-8.60552"/><trkpt lat="42.312273" lon="-8.605596"/><trkpt lat="42.312505" lon="-8.605747"/><trkpt lat="42.312831" lon="-8.605883"/><trkpt lat="42.313093" lon="-8.606007"/><trkpt lat="42.313242" lon="-8.606068"/><trkpt lat="42.313393" lon="-8.606111"/><trkpt lat="42.31358" lon="-8.606125"/><trkpt lat="42.313844" lon="-8.606153"/><trkpt lat="42.31404" lon="-8.606189"/><trkpt lat="42.31425" lon="-8.606286"/><trkpt lat="42.314402" lon="-8.606355"/><trkpt lat="42.314457" lon="-8.60643"/><trkpt lat="42.314625" lon="-8.606597"/><trkpt lat="42.314808" lon="-8.606742"/><trkpt lat="42.314987" lon="-8.606839"/><trkpt lat="42.315062" lon="-8.606885"/><trkpt lat="42.315163" lon="-8.607009"/><trkpt lat="42.315279" lon="-8.607126"/><trkpt lat="42.315423" lon="-8.607209"/><trkpt lat="42.315625" lon="-8.60734"/><trkpt lat="42.315772" lon="-8.607445"/><trkpt lat="42.315872" lon="-8.607496"/><trkpt lat="42.315955" lon="-8.607507"/><trkpt lat="42.316024" lon="-8.60747"/><trkpt lat="42.316164" lon="-8.607454"/><trkpt lat="42.316343" lon="-8.607437"/><trkpt lat="42.316398" lon="-8.607434"/><trkpt lat="42.316478" lon="-8.60747"/><trkpt lat="42.316628" lon="-8.607508"/><trkpt lat="42.316664" lon="-8.607491"/><trkpt lat="42.316701" lon="-8.607473"/><trkpt lat="42.316783" lon="-8.607404"/><trkpt lat="42.316864" lon="-8.607352"/><trkpt lat="42.31697" lon="-8.607292"/><trkpt lat="42.317129" lon="-8.607215"/><trkpt lat="42.317253" lon="-8.607163"/><trkpt lat="42.317391" lon="-8.607066"/><trkpt lat="42.317536" lon="-8.606962"/><trkpt lat="42.317695" lon="-8.60683"/><trkpt lat="42.31783" lon="-8.606689"/><trkpt lat="42.317933" lon="-8.606538"/><trkpt lat="42.318001" lon="-8.606434"/><trkpt lat="42.31807" lon="-8.606293"/><trkpt lat="42.318152" lon="-8.60618"/><trkpt lat="42.318226" lon="-8.60611"/><trkpt lat="42.318328" lon="-8.606026"/><trkpt lat="42.318425" lon="-8.60597"/><trkpt lat="42.318486" lon="-8.605964"/><trkpt lat="42.318589" lon="-8.60602"/><trkpt lat="42.318687" lon="-8.606076"/><trkpt lat="42.318797" lon="-8.606132"/><trkpt lat="42.31892" lon="-8.606153"/><trkpt lat="42.319079" lon="-8.606146"/><trkpt lat="42.319327" lon="-8.606178"/><trkpt lat="42.319527" lon="-8.606239"/><trkpt lat="42.319709" lon="-8.606366"/><trkpt lat="42.319955" lon="-8.606563"/><trkpt lat="42.320133" lon="-8.606742"/><trkpt lat="42.320278" lon="-8.606983"/><trkpt lat="42.320387" lon="-8.607134"/><trkpt lat="42.320533" lon="-8.60735"/><trkpt lat="42.320694" lon="-8.607492"/><trkpt lat="42.320862" lon="-8.607537"/><trkpt lat="42.321026" lon="-8.60756"/><trkpt lat="42.321212" lon="-8.607577"/><trkpt lat="42.321365" lon="-8.60754"/><trkpt lat="42.321535" lon="-8.607467"/><trkpt lat="42.321722" lon="-8.607412"/><trkpt lat="42.321897" lon="-8.607351"/><trkpt lat="42.322177" lon="-8.607275"/><trkpt lat="42.322433" lon="-8.607239"/><trkpt lat="42.322651" lon="-8.60721"/><trkpt lat="42.322957" lon="-8.607194"/><trkpt lat="42.32324" lon="-8.607184"/><trkpt lat="42.323293" lon="-8.607207"/><trkpt lat="42.323485" lon="-8.607216"/><trkpt lat="42.323678" lon="-8.607204"/><trkpt lat="42.323761" lon="-8.607183"/><trkpt lat="42.323915" lon="-8.607165"/><trkpt lat="42.324144" lon="-8.6071"/><trkpt lat="42.324315" lon="-8.607072"/><trkpt lat="42.324471" lon="-8.607063"/><trkpt lat="42.324693" lon="-8.607009"/><trkpt lat="42.324809" lon="-8.606967"/><trkpt lat="42.324984" lon="-8.606919"/><trkpt lat="42.325138" lon="-8.606851"/><trkpt lat="42.325282" lon="-8.606788"/><trkpt lat="42.325402" lon="-8.606738"/><trkpt lat="42.325505" lon="-8.606652"/><trkpt lat="42.325685" lon="-8.606491"/><trkpt lat="42.32588" lon="-8.606313"/><trkpt lat="42.325984" lon="-8.606237"/><trkpt lat="42.326092" lon="-8.606199"/><trkpt lat="42.326161" lon="-8.606198"/><trkpt lat="42.326231" lon="-8.606214"/><trkpt lat="42.326304" lon="-8.606241"/><trkpt lat="42.326364" lon="-8.606241"/><trkpt lat="42.326487" lon="-8.606225"/><trkpt lat="42.326605" lon="-8.60619"/><trkpt lat="42.32667" lon="-8.606138"/><trkpt lat="42.326731" lon="-8.606077"/><trkpt lat="42.32679" lon="-8.605998"/><trkpt lat="42.326901" lon="-8.605904"/><trkpt lat="42.326973" lon="-8.605828"/><trkpt lat="42.327095" lon="-8.605736"/><trkpt lat="42.327202" lon="-8.605667"/><trkpt lat="42.327331" lon="-8.605636"/><trkpt lat="42.327407" lon="-8.605617"/><trkpt lat="42.327556" lon="-8.605591"/><trkpt lat="42.327679" lon="-8.605613"/><trkpt lat="42.32775" lon="-8.605812"/><trkpt lat="42.327874" lon="-8.605814"/><trkpt lat="42.328044" lon="-8.605827"/><trkpt lat="42.328217" lon="-8.605876"/><trkpt lat="42.328409" lon="-8.60595"/><trkpt lat="42.328605" lon="-8.606072"/><trkpt lat="42.328861" lon="-8.606246"/><trkpt lat="42.329124" lon="-8.606443"/><trkpt lat="42.329408" lon="-8.606616"/><trkpt lat="42.329614" lon="-8.606741"/><trkpt lat="42.329806" lon="-8.606816"/><trkpt lat="42.329995" lon="-8.606851"/><trkpt lat="42.330199" lon="-8.606883"/><trkpt lat="42.330314" lon="-8.606904"/><trkpt lat="42.33058" lon="-8.606921"/><trkpt lat="42.330854" lon="-8.606938"/><trkpt lat="42.33104" lon="-8.606959"/><trkpt lat="42.3313" lon="-8.606968"/><trkpt lat="42.33147" lon="-8.606962"/><trkpt lat="42.331662" lon="-8.606958"/><trkpt lat="42.331821" lon="-8.60696"/><trkpt lat="42.332053" lon="-8.606942"/><trkpt lat="42.332181" lon="-8.606938"/><trkpt lat="42.332309" lon="-8.606935"/><trkpt lat="42.33263" lon="-8.606905"/><trkpt lat="42.332881" lon="-8.606873"/><trkpt lat="42.3329" lon="-8.606978"/><trkpt lat="42.332902" lon="-8.607107"/><trkpt lat="42.33292" lon="-8.607209"/><trkpt lat="42.332993" lon="-8.607285"/><trkpt lat="42.333166" lon="-8.607373"/><trkpt lat="42.333279" lon="-8.607423"/><trkpt lat="42.333339" lon="-8.607432"/><trkpt lat="42.333438" lon="-8.607431"/><trkpt lat="42.333566" lon="-8.607429"/><trkpt lat="42.333686" lon="-8.607425"/><trkpt lat="42.333886" lon="-8.607433"/><trkpt lat="42.334032" lon="-8.607443"/><trkpt lat="42.334189" lon="-8.607438"/><trkpt lat="42.334331" lon="-8.607437"/><trkpt lat="42.334445" lon="-8.607438"/><trkpt lat="42.33459" lon="-8.607416"/><trkpt lat="42.33475" lon="-8.607428"/><trkpt lat="42.334861" lon="-8.60745"/><trkpt lat="42.334928" lon="-8.607498"/><trkpt lat="42.335067" lon="-8.607601"/><trkpt lat="42.335163" lon="-8.607682"/><trkpt lat="42.335265" lon="-8.607804"/><trkpt lat="42.335371" lon="-8.607942"/><trkpt lat="42.335435" lon="-8.607981"/><trkpt lat="42.335485" lon="-8.607992"/><trkpt lat="42.335524" lon="-8.607944"/><trkpt lat="42.335601" lon="-8.607887"/><trkpt lat="42.335673" lon="-8.60785"/><trkpt lat="42.335776" lon="-8.607825"/><trkpt lat="42.335861" lon="-8.607788"/><trkpt lat="42.335921" lon="-8.607717"/><trkpt lat="42.335986" lon="-8.60759"/><trkpt lat="42.336082" lon="-8.607434"/><trkpt lat="42.336142" lon="-8.607358"/><trkpt lat="42.336414" lon="-8.607486"/><trkpt lat="42.336457" lon="-8.6073"/><trkpt lat="42.336287" lon="-8.607238"/><trkpt lat="42.336309" lon="-8.607152"/><trkpt lat="42.336441" lon="-8.606885"/><trkpt lat="42.336512" lon="-8.606751"/><trkpt lat="42.336587" lon="-8.606698"/><trkpt lat="42.336685" lon="-8.606654"/><trkpt lat="42.336795" lon="-8.606636"/><trkpt lat="42.336948" lon="-8.606604"/><trkpt lat="42.337097" lon="-8.606586"/><trkpt lat="42.337193" lon="-8.606573"/><trkpt lat="42.337264" lon="-8.606595"/><trkpt lat="42.337357" lon="-8.606629"/><trkpt lat="42.337454" lon="-8.606651"/><trkpt lat="42.3375" lon="-8.606648"/><trkpt lat="42.337549" lon="-8.606637"/><trkpt lat="42.337641" lon="-8.606591"/><trkpt lat="42.337817" lon="-8.606521"/><trkpt lat="42.337876" lon="-8.606497"/><trkpt lat="42.337947" lon="-8.606503"/><trkpt lat="42.338078" lon="-8.606506"/><trkpt lat="42.338147" lon="-8.606508"/><trkpt lat="42.338256" lon="-8.606495"/><trkpt lat="42.338347" lon="-8.606512"/><trkpt lat="42.338553" lon="-8.606548"/><trkpt lat="42.338642" lon="-8.606529"/><trkpt lat="42.338666" lon="-8.606518"/><trkpt lat="42.338704" lon="-8.606501"/><trkpt lat="42.338773" lon="-8.606449"/><trkpt lat="42.338883" lon="-8.606422"/><trkpt lat="42.338972" lon="-8.606411"/><trkpt lat="42.339057" lon="-8.606435"/><trkpt lat="42.339138" lon="-8.606497"/><trkpt lat="42.33921" lon="-8.60657"/><trkpt lat="42.339297" lon="-8.60662"/><trkpt lat="42.339389" lon="-8.606647"/><trkpt lat="42.339479" lon="-8.606657"/><trkpt lat="42.339569" lon="-8.606664"/><trkpt lat="42.339655" lon="-8.606662"/><trkpt lat="42.339743" lon="-8.606656"/><trkpt lat="42.339845" lon="-8.606633"/><trkpt lat="42.33988" lon="-8.606646"/><trkpt lat="42.339963" lon="-8.606735"/><trkpt lat="42.340045" lon="-8.606821"/><trkpt lat="42.340093" lon="-8.606862"/><trkpt lat="42.340204" lon="-8.60691"/><trkpt lat="42.34038" lon="-8.607008"/><trkpt lat="42.340518" lon="-8.607081"/><trkpt lat="42.34058" lon="-8.607094"/><trkpt lat="42.34068" lon="-8.607115"/><trkpt lat="42.340779" lon="-8.607116"/><trkpt lat="42.340843" lon="-8.607127"/><trkpt lat="42.340883" lon="-8.607233"/><trkpt lat="42.340927" lon="-8.607472"/><trkpt lat="42.340956" lon="-8.607704"/><trkpt lat="42.340967" lon="-8.60788"/><trkpt lat="42.340982" lon="-8.608004"/><trkpt lat="42.341011" lon="-8.608071"/><trkpt lat="42.34106" lon="-8.608126"/><trkpt lat="42.341135" lon="-8.608216"/><trkpt lat="42.341225" lon="-8.608358"/><trkpt lat="42.341307" lon="-8.608468"/><trkpt lat="42.34137" lon="-8.608566"/><trkpt lat="42.341435" lon="-8.60867"/><trkpt lat="42.34149" lon="-8.608728"/><trkpt lat="42.34155" lon="-8.608749"/><trkpt lat="42.341618" lon="-8.608752"/><trkpt lat="42.341688" lon="-8.608736"/><trkpt lat="42.341734" lon="-8.608728"/><trkpt lat="42.341826" lon="-8.608734"/><trkpt lat="42.34192" lon="-8.608752"/><trkpt lat="42.342011" lon="-8.608779"/><trkpt lat="42.342128" lon="-8.608828"/><trkpt lat="42.342152" lon="-8.60884"/><trkpt lat="42.342288" lon="-8.608902"/><trkpt lat="42.342473" lon="-8.608967"/><trkpt lat="42.3427" lon="-8.609027"/><trkpt lat="42.342757" lon="-8.609019"/><trkpt lat="42.34292" lon="-8.609007"/><trkpt lat="42.343151" lon="-8.608963"/><trkpt lat="42.343247" lon="-8.60896"/><trkpt lat="42.343364" lon="-8.608942"/><trkpt lat="42.343498" lon="-8.608793"/><trkpt lat="42.343564" lon="-8.608688"/><trkpt lat="42.343611" lon="-8.608622"/><trkpt lat="42.343683" lon="-8.608537"/><trkpt lat="42.343814" lon="-8.6084"/><trkpt lat="42.343911" lon="-8.608302"/><trkpt lat="42.34397" lon="-8.608259"/><trkpt lat="42.344026" lon="-8.608233"/><trkpt lat="42.344067" lon="-8.608165"/><trkpt lat="42.344112" lon="-8.60808"/><trkpt lat="42.344148" lon="-8.60799"/><trkpt lat="42.344235" lon="-8.607809"/><trkpt lat="42.344312" lon="-8.607635"/><trkpt lat="42.344428" lon="-8.607406"/><trkpt lat="42.344526" lon="-8.607452"/><trkpt lat="42.344722" lon="-8.607528"/><trkpt lat="42.344799" lon="-8.607522"/><trkpt lat="42.344898" lon="-8.607466"/><trkpt lat="42.345032" lon="-8.607367"/><trkpt lat="42.345095" lon="-8.607299"/><trkpt lat="42.34518" lon="-8.607207"/><trkpt lat="42.345254" lon="-8.607119"/><trkpt lat="42.34531" lon="-8.606996"/><trkpt lat="42.34538" lon="-8.606943"/><trkpt lat="42.346163" lon="-8.6068"/><trkpt lat="42.34659" lon="-8.606734"/><trkpt lat="42.346634" lon="-8.606747"/><trkpt lat="42.346819" lon="-8.606991"/><trkpt lat="42.346941" lon="-8.607135"/><trkpt lat="42.34695" lon="-8.6072"/><trkpt lat="42.346925" lon="-8.607396"/><trkpt lat="42.346917" lon="-8.607519"/><trkpt lat="42.346944" lon="-8.607571"/><trkpt lat="42.346985" lon="-8.607479"/><trkpt lat="42.347056" lon="-8.607417"/><trkpt lat="42.347149" lon="-8.607377"/><trkpt lat="42.347263" lon="-8.60737"/><trkpt lat="42.347336" lon="-8.607406"/><trkpt lat="42.3473" lon="-8.607505"/><trkpt lat="42.347271" lon="-8.607637"/><trkpt lat="42.347314" lon="-8.607732"/><trkpt lat="42.347442" lon="-8.607771"/><trkpt lat="42.347645" lon="-8.607856"/><trkpt lat="42.347741" lon="-8.60788"/><trkpt lat="42.34786" lon="-8.607879"/><trkpt lat="42.347977" lon="-8.607872"/><trkpt lat="42.348202" lon="-8.60784"/><trkpt lat="42.348246" lon="-8.607873"/><trkpt lat="42.348287" lon="-8.608011"/><trkpt lat="42.34846" lon="-8.608388"/><trkpt lat="42.348542" lon="-8.60856"/><trkpt lat="42.348626" lon="-8.608507"/><trkpt lat="42.34876" lon="-8.608474"/><trkpt lat="42.349182" lon="-8.608441"/><trkpt lat="42.349304" lon="-8.60843"/><trkpt lat="42.349476" lon="-8.608338"/><trkpt lat="42.349673" lon="-8.608216"/><trkpt lat="42.349763" lon="-8.608215"/><trkpt lat="42.34983" lon="-8.608316"/><trkpt lat="42.349846" lon="-8.608548"/><trkpt lat="42.34984" lon="-8.608773"/><trkpt lat="42.349765" lon="-8.608959"/><trkpt lat="42.349691" lon="-8.609071"/><trkpt lat="42.349541" lon="-8.609125"/><trkpt lat="42.349448" lon="-8.609181"/><trkpt lat="42.349476" lon="-8.609244"/><trkpt lat="42.349515" lon="-8.609409"/><trkpt lat="42.34955" lon="-8.609563"/><trkpt lat="42.349748" lon="-8.609676"/><trkpt lat="42.350045" lon="-8.609979"/><trkpt lat="42.350077" lon="-8.610119"/><trkpt lat="42.350094" lon="-8.610288"/><trkpt lat="42.350101" lon="-8.610414"/><trkpt lat="42.350111" lon="-8.61068"/><trkpt lat="42.35013" lon="-8.610843"/><trkpt lat="42.35018" lon="-8.610957"/><trkpt lat="42.350288" lon="-8.611093"/><trkpt lat="42.350394" lon="-8.611207"/><trkpt lat="42.350494" lon="-8.611259"/><trkpt lat="42.35066" lon="-8.611312"/><trkpt lat="42.350783" lon="-8.611366"/><trkpt lat="42.350988" lon="-8.611447"/><trkpt lat="42.351325" lon="-8.611659"/><trkpt lat="42.351339" lon="-8.611687"/><trkpt lat="42.351352" lon="-8.611716"/><trkpt lat="42.351375" lon="-8.611832"/><trkpt lat="42.351389" lon="-8.611975"/><trkpt lat="42.351432" lon="-8.612068"/><trkpt lat="42.351486" lon="-8.612087"/><trkpt lat="42.351578" lon="-8.612109"/><trkpt lat="42.351666" lon="-8.6121"/><trkpt lat="42.351764" lon="-8.612063"/><trkpt lat="42.351896" lon="-8.61202"/><trkpt lat="42.352" lon="-8.61196"/><trkpt lat="42.352094" lon="-8.61192"/><trkpt lat="42.352158" lon="-8.611871"/><trkpt lat="42.352227" lon="-8.611808"/><trkpt lat="42.352282" lon="-8.611725"/><trkpt lat="42.352326" lon="-8.611662"/><trkpt lat="42.352361" lon="-8.611698"/><trkpt lat="42.352427" lon="-8.611802"/><trkpt lat="42.352503" lon="-8.611847"/><trkpt lat="42.352596" lon="-8.611915"/><trkpt lat="42.352651" lon="-8.611961"/><trkpt lat="42.35269" lon="-8.612012"/><trkpt lat="42.352734" lon="-8.612072"/><trkpt lat="42.352769" lon="-8.612164"/><trkpt lat="42.352815" lon="-8.612233"/><trkpt lat="42.352861" lon="-8.612279"/><trkpt lat="42.352925" lon="-8.612301"/><trkpt lat="42.352988" lon="-8.612303"/><trkpt lat="42.353032" lon="-8.612338"/><trkpt lat="42.353053" lon="-8.612464"/><trkpt lat="42.35303" lon="-8.612592"/><trkpt lat="42.353006" lon="-8.612714"/><trkpt lat="42.353027" lon="-8.612811"/><trkpt lat="42.35309" lon="-8.612929"/><trkpt lat="42.353127" lon="-8.61303"/><trkpt lat="42.35317" lon="-8.613206"/><trkpt lat="42.353193" lon="-8.613216"/><trkpt lat="42.353275" lon="-8.613244"/><trkpt lat="42.353299" lon="-8.613281"/><trkpt lat="42.353368" lon="-8.613372"/><trkpt lat="42.353441" lon="-8.613466"/><trkpt lat="42.353541" lon="-8.613608"/><trkpt lat="42.353647" lon="-8.613724"/><trkpt lat="42.35371" lon="-8.613777"/><trkpt lat="42.353729" lon="-8.6138"/><trkpt lat="42.353792" lon="-8.613839"/><trkpt lat="42.353851" lon="-8.613889"/><trkpt lat="42.353911" lon="-8.613929"/><trkpt lat="42.353974" lon="-8.61399"/><trkpt lat="42.354069" lon="-8.614061"/><trkpt lat="42.354142" lon="-8.614098"/><trkpt lat="42.354305" lon="-8.614164"/><trkpt lat="42.35444" lon="-8.614224"/><trkpt lat="42.35458" lon="-8.614272"/><trkpt lat="42.354631" lon="-8.61431"/><trkpt lat="42.354691" lon="-8.614329"/><trkpt lat="42.354754" lon="-8.614373"/><trkpt lat="42.354788" lon="-8.614421"/><trkpt lat="42.354806" lon="-8.614498"/><trkpt lat="42.35483" lon="-8.614542"/><trkpt lat="42.354861" lon="-8.614583"/><trkpt lat="42.35489" lon="-8.614598"/><trkpt lat="42.354914" lon="-8.614612"/><trkpt lat="42.354953" lon="-8.614636"/><trkpt lat="42.354993" lon="-8.614679"/><trkpt lat="42.355028" lon="-8.6147"/><trkpt lat="42.355113" lon="-8.614716"/><trkpt lat="42.355172" lon="-8.614738"/><trkpt lat="42.355234" lon="-8.614761"/><trkpt lat="42.355273" lon="-8.614795"/><trkpt lat="42.355312" lon="-8.614818"/><trkpt lat="42.355346" lon="-8.614856"/><trkpt lat="42.355368" lon="-8.614905"/><trkpt lat="42.355408" lon="-8.614952"/><trkpt lat="42.355484" lon="-8.615047"/><trkpt lat="42.355538" lon="-8.615124"/><trkpt lat="42.355632" lon="-8.615194"/><trkpt lat="42.355715" lon="-8.615264"/><trkpt lat="42.355814" lon="-8.61538"/><trkpt lat="42.355942" lon="-8.61557"/><trkpt lat="42.355973" lon="-8.615653"/><trkpt lat="42.356031" lon="-8.615729"/><trkpt lat="42.356099" lon="-8.61581"/><trkpt lat="42.356151" lon="-8.615868"/><trkpt lat="42.356187" lon="-8.615947"/><trkpt lat="42.356242" lon="-8.615992"/><trkpt lat="42.356366" lon="-8.616057"/><trkpt lat="42.356487" lon="-8.61611"/><trkpt lat="42.356604" lon="-8.616188"/><trkpt lat="42.35673" lon="-8.616245"/><trkpt lat="42.356818" lon="-8.616268"/><trkpt lat="42.356914" lon="-8.616262"/><trkpt lat="42.356993" lon="-8.616229"/><trkpt lat="42.357116" lon="-8.616189"/><trkpt lat="42.357221" lon="-8.616191"/><trkpt lat="42.357334" lon="-8.616294"/><trkpt lat="42.357471" lon="-8.61636"/><trkpt lat="42.357582" lon="-8.616321"/><trkpt lat="42.357713" lon="-8.616218"/><trkpt lat="42.357837" lon="-8.616115"/><trkpt lat="42.358008" lon="-8.615958"/><trkpt lat="42.358155" lon="-8.615788"/><trkpt lat="42.358306" lon="-8.61562"/><trkpt lat="42.358458" lon="-8.615479"/><trkpt lat="42.358537" lon="-8.615444"/><trkpt lat="42.358752" lon="-8.615399"/><trkpt lat="42.358848" lon="-8.615377"/><trkpt lat="42.358917" lon="-8.615379"/><trkpt lat="42.358968" lon="-8.615404"/><trkpt lat="42.359095" lon="-8.615486"/><trkpt lat="42.359147" lon="-8.615519"/><trkpt lat="42.35921" lon="-8.615568"/><trkpt lat="42.359277" lon="-8.615611"/><trkpt lat="42.35931" lon="-8.615649"/><trkpt lat="42.35942" lon="-8.615702"/><trkpt lat="42.359476" lon="-8.615737"/><trkpt lat="42.359528" lon="-8.61576"/><trkpt lat="42.359584" lon="-8.615763"/><trkpt lat="42.35962" lon="-8.615768"/><trkpt lat="42.359666" lon="-8.615761"/><trkpt lat="42.359839" lon="-8.615691"/><trkpt lat="42.359867" lon="-8.615684"/><trkpt lat="42.359968" lon="-8.615683"/><trkpt lat="42.360052" lon="-8.615668"/><trkpt lat="42.360114" lon="-8.615665"/><trkpt lat="42.360172" lon="-8.615667"/><trkpt lat="42.360218" lon="-8.615679"/><trkpt lat="42.360255" lon="-8.615699"/><trkpt lat="42.360287" lon="-8.615731"/><trkpt lat="42.360309" lon="-8.61578"/><trkpt lat="42.360327" lon="-8.615818"/><trkpt lat="42.360356" lon="-8.615866"/><trkpt lat="42.360414" lon="-8.615945"/><trkpt lat="42.360485" lon="-8.616056"/><trkpt lat="42.360511" lon="-8.616073"/><trkpt lat="42.360577" lon="-8.616092"/><trkpt lat="42.360629" lon="-8.616113"/><trkpt lat="42.360696" lon="-8.61616"/><trkpt lat="42.360753" lon="-8.616193"/><trkpt lat="42.360786" lon="-8.616201"/><trkpt lat="42.360861" lon="-8.616205"/><trkpt lat="42.360935" lon="-8.616207"/><trkpt lat="42.361026" lon="-8.616187"/><trkpt lat="42.361157" lon="-8.616158"/><trkpt lat="42.361262" lon="-8.616153"/><trkpt lat="42.361338" lon="-8.616169"/><trkpt lat="42.361441" lon="-8.616208"/><trkpt lat="42.361501" lon="-8.616244"/><trkpt lat="42.361583" lon="-8.61627"/><trkpt lat="42.361711" lon="-8.616311"/><trkpt lat="42.361813" lon="-8.616339"/><trkpt lat="42.361916" lon="-8.616304"/><trkpt lat="42.36236" lon="-8.616268"/><trkpt lat="42.362539" lon="-8.616247"/><trkpt lat="42.362612" lon="-8.616277"/><trkpt lat="42.362769" lon="-8.616353"/><trkpt lat="42.362959" lon="-8.616433"/><trkpt lat="42.363133" lon="-8.616492"/><trkpt lat="42.363297" lon="-8.616548"/><trkpt lat="42.363385" lon="-8.616613"/><trkpt lat="42.363477" lon="-8.616714"/><trkpt lat="42.363612" lon="-8.616727"/><trkpt lat="42.363707" lon="-8.61674"/><trkpt lat="42.363874" lon="-8.616732"/><trkpt lat="42.364027" lon="-8.616723"/><trkpt lat="42.364075" lon="-8.616676"/><trkpt lat="42.364105" lon="-8.616627"/><trkpt lat="42.364148" lon="-8.616575"/><trkpt lat="42.364207" lon="-8.616549"/><trkpt lat="42.364291" lon="-8.616554"/><trkpt lat="42.364374" lon="-8.616554"/><trkpt lat="42.364486" lon="-8.616535"/><trkpt lat="42.36487" lon="-8.616569"/><trkpt lat="42.364921" lon="-8.616593"/><trkpt lat="42.365094" lon="-8.616715"/><trkpt lat="42.365274" lon="-8.616839"/><trkpt lat="42.3653" lon="-8.616877"/><trkpt lat="42.36531" lon="-8.616935"/><trkpt lat="42.365301" lon="-8.61698"/><trkpt lat="42.365278" lon="-8.617018"/><trkpt lat="42.365231" lon="-8.617074"/><trkpt lat="42.365159" lon="-8.617142"/><trkpt lat="42.365135" lon="-8.617233"/><trkpt lat="42.365122" lon="-8.617355"/><trkpt lat="42.365095" lon="-8.617426"/><trkpt lat="42.365035" lon="-8.617485"/><trkpt lat="42.364984" lon="-8.617529"/><trkpt lat="42.364918" lon="-8.617611"/><trkpt lat="42.364888" lon="-8.61766"/><trkpt lat="42.364856" lon="-8.617716"/><trkpt lat="42.36481" lon="-8.617757"/><trkpt lat="42.364764" lon="-8.617776"/><trkpt lat="42.364675" lon="-8.617827"/><trkpt lat="42.364589" lon="-8.617865"/><trkpt lat="42.364451" lon="-8.61788"/><trkpt lat="42.364264" lon="-8.617891"/><trkpt lat="42.36421" lon="-8.617937"/><trkpt lat="42.364339" lon="-8.618115"/><trkpt lat="42.364391" lon="-8.618165"/><trkpt lat="42.364474" lon="-8.618254"/><trkpt lat="42.364761" lon="-8.61822"/><trkpt lat="42.364966" lon="-8.618237"/><trkpt lat="42.365121" lon="-8.618312"/><trkpt lat="42.365268" lon="-8.618399"/><trkpt lat="42.365401" lon="-8.618502"/><trkpt lat="42.365532" lon="-8.61863"/><trkpt lat="42.365659" lon="-8.618812"/><trkpt lat="42.365795" lon="-8.619003"/><trkpt lat="42.365962" lon="-8.619217"/><trkpt lat="42.366133" lon="-8.619351"/><trkpt lat="42.366344" lon="-8.619476"/><trkpt lat="42.366593" lon="-8.619607"/><trkpt lat="42.366738" lon="-8.619694"/><trkpt lat="42.366712" lon="-8.619811"/><trkpt lat="42.366641" lon="-8.620035"/><trkpt lat="42.366617" lon="-8.620179"/><trkpt lat="42.367025" lon="-8.62042"/><trkpt lat="42.367139" lon="-8.620493"/><trkpt lat="42.367241" lon="-8.620528"/><trkpt lat="42.36731" lon="-8.620543"/><trkpt lat="42.367394" lon="-8.620537"/><trkpt lat="42.367535" lon="-8.620532"/><trkpt lat="42.367636" lon="-8.620562"/><trkpt lat="42.367698" lon="-8.620597"/><trkpt lat="42.367729" lon="-8.620639"/><trkpt lat="42.367752" lon="-8.620688"/><trkpt lat="42.367808" lon="-8.620758"/><trkpt lat="42.367865" lon="-8.62083"/><trkpt lat="42.367909" lon="-8.620874"/><trkpt lat="42.367939" lon="-8.620923"/><trkpt lat="42.367978" lon="-8.621025"/><trkpt lat="42.368006" lon="-8.621133"/><trkpt lat="42.368025" lon="-8.621236"/><trkpt lat="42.368059" lon="-8.621361"/><trkpt lat="42.368095" lon="-8.62156"/><trkpt lat="42.368112" lon="-8.621657"/><trkpt lat="42.368135" lon="-8.621741"/><trkpt lat="42.368164" lon="-8.621811"/><trkpt lat="42.368188" lon="-8.621868"/><trkpt lat="42.368213" lon="-8.621939"/><trkpt lat="42.368238" lon="-8.622008"/><trkpt lat="42.36825" lon="-8.622077"/><trkpt lat="42.36826" lon="-8.622142"/><trkpt lat="42.368268" lon="-8.622215"/><trkpt lat="42.368284" lon="-8.622277"/><trkpt lat="42.36831" lon="-8.622393"/><trkpt lat="42.368332" lon="-8.622476"/><trkpt lat="42.368338" lon="-8.622541"/><trkpt lat="42.368346" lon="-8.622615"/><trkpt lat="42.368379" lon="-8.622692"/><trkpt lat="42.368411" lon="-8.622745"/><trkpt lat="42.368457" lon="-8.62283"/><trkpt lat="42.368498" lon="-8.622926"/><trkpt lat="42.368556" lon="-8.623059"/><trkpt lat="42.368629" lon="-8.623189"/><trkpt lat="42.368731" lon="-8.623368"/><trkpt lat="42.368788" lon="-8.623488"/><trkpt lat="42.368832" lon="-8.623596"/><trkpt lat="42.368868" lon="-8.62371"/><trkpt lat="42.368906" lon="-8.623846"/><trkpt lat="42.368943" lon="-8.623995"/><trkpt lat="42.368966" lon="-8.624149"/><trkpt lat="42.368968" lon="-8.624239"/><trkpt lat="42.368982" lon="-8.624329"/><trkpt lat="42.369007" lon="-8.624384"/><trkpt lat="42.369045" lon="-8.624441"/><trkpt lat="42.369122" lon="-8.624551"/><trkpt lat="42.36921" lon="-8.624704"/><trkpt lat="42.369303" lon="-8.624851"/><trkpt lat="42.369342" lon="-8.624928"/><trkpt lat="42.369369" lon="-8.625021"/><trkpt lat="42.369409" lon="-8.625123"/><trkpt lat="42.369454" lon="-8.625192"/><trkpt lat="42.369517" lon="-8.625261"/><trkpt lat="42.369592" lon="-8.625327"/><trkpt lat="42.369662" lon="-8.62538"/><trkpt lat="42.36977" lon="-8.62545"/><trkpt lat="42.36991" lon="-8.625541"/><trkpt lat="42.370105" lon="-8.625667"/><trkpt lat="42.370191" lon="-8.625709"/><trkpt lat="42.370264" lon="-8.625739"/><trkpt lat="42.370401" lon="-8.62578"/><trkpt lat="42.370495" lon="-8.625833"/><trkpt lat="42.370538" lon="-8.625886"/><trkpt lat="42.370579" lon="-8.62596"/><trkpt lat="42.370629" lon="-8.626031"/><trkpt lat="42.370674" lon="-8.626075"/><trkpt lat="42.370716" lon="-8.626104"/><trkpt lat="42.370768" lon="-8.62611"/><trkpt lat="42.370812" lon="-8.626107"/><trkpt lat="42.371054" lon="-8.626037"/><trkpt lat="42.371207" lon="-8.625996"/><trkpt lat="42.371347" lon="-8.62594"/><trkpt lat="42.371427" lon="-8.625893"/><trkpt lat="42.371569" lon="-8.625796"/><trkpt lat="42.371722" lon="-8.625683"/><trkpt lat="42.371827" lon="-8.625592"/><trkpt lat="42.371936" lon="-8.625492"/><trkpt lat="42.372038" lon="-8.625401"/><trkpt lat="42.372348" lon="-8.625085"/><trkpt lat="42.372553" lon="-8.624901"/><trkpt lat="42.372657" lon="-8.624836"/><trkpt lat="42.372731" lon="-8.624807"/><trkpt lat="42.372795" lon="-8.6248"/><trkpt lat="42.372854" lon="-8.624814"/><trkpt lat="42.372924" lon="-8.624849"/><trkpt lat="42.373099" lon="-8.624969"/><trkpt lat="42.373296" lon="-8.625071"/><trkpt lat="42.373404" lon="-8.625141"/><trkpt lat="42.37348" lon="-8.625223"/><trkpt lat="42.373523" lon="-8.625264"/><trkpt lat="42.373738" lon="-8.625382"/><trkpt lat="42.373793" lon="-8.625403"/><trkpt lat="42.373855" lon="-8.625407"/><trkpt lat="42.374149" lon="-8.625396"/><trkpt lat="42.374282" lon="-8.625379"/><trkpt lat="42.374348" lon="-8.625364"/><trkpt lat="42.374381" lon="-8.625366"/><trkpt lat="42.374426" lon="-8.625384"/><trkpt lat="42.374488" lon="-8.625434"/><trkpt lat="42.374555" lon="-8.625509"/><trkpt lat="42.374614" lon="-8.625576"/><trkpt lat="42.374682" lon="-8.625638"/><trkpt lat="42.374729" lon="-8.625669"/><trkpt lat="42.374763" lon="-8.625687"/><trkpt lat="42.374989" lon="-8.625807"/><trkpt lat="42.375068" lon="-8.625849"/><trkpt lat="42.375145" lon="-8.625893"/><trkpt lat="42.375204" lon="-8.625941"/><trkpt lat="42.375247" lon="-8.625987"/><trkpt lat="42.375296" lon="-8.626048"/><trkpt lat="42.37541" lon="-8.626167"/><trkpt lat="42.375577" lon="-8.626328"/><trkpt lat="42.375957" lon="-8.626703"/><trkpt lat="42.376218" lon="-8.626916"/><trkpt lat="42.376298" lon="-8.626969"/><trkpt lat="42.376362" lon="-8.627"/><trkpt lat="42.3764" lon="-8.627019"/><trkpt lat="42.376434" lon="-8.627028"/><trkpt lat="42.376472" lon="-8.62703"/><trkpt lat="42.376552" lon="-8.627027"/><trkpt lat="42.376652" lon="-8.627022"/><trkpt lat="42.376815" lon="-8.627002"/><trkpt lat="42.376935" lon="-8.626988"/><trkpt lat="42.377065" lon="-8.626963"/><trkpt lat="42.377141" lon="-8.626963"/><trkpt lat="42.377191" lon="-8.626975"/><trkpt lat="42.37723" lon="-8.626994"/><trkpt lat="42.377282" lon="-8.627037"/><trkpt lat="42.377333" lon="-8.627096"/><trkpt lat="42.377383" lon="-8.627186"/><trkpt lat="42.377451" lon="-8.627248"/><trkpt lat="42.377482" lon="-8.62727"/><trkpt lat="42.377523" lon="-8.627277"/><trkpt lat="42.377592" lon="-8.627276"/><trkpt lat="42.37765" lon="-8.627271"/><trkpt lat="42.37771" lon="-8.627258"/><trkpt lat="42.377809" lon="-8.627235"/><trkpt lat="42.377908" lon="-8.627234"/><trkpt lat="42.378099" lon="-8.627263"/><trkpt lat="42.378226" lon="-8.627277"/><trkpt lat="42.378369" lon="-8.627302"/><trkpt lat="42.378467" lon="-8.627344"/><trkpt lat="42.378542" lon="-8.627396"/><trkpt lat="42.378666" lon="-8.627489"/><trkpt lat="42.378736" lon="-8.627554"/><trkpt lat="42.378781" lon="-8.627607"/><trkpt lat="42.378844" lon="-8.627702"/><trkpt lat="42.378886" lon="-8.627739"/><trkpt lat="42.37893" lon="-8.627739"/><trkpt lat="42.378959" lon="-8.627725"/><trkpt lat="42.378987" lon="-8.62774"/><trkpt lat="42.37905" lon="-8.62791"/><trkpt lat="42.379158" lon="-8.628237"/><trkpt lat="42.379318" lon="-8.628687"/><trkpt lat="42.379362" lon="-8.628786"/><trkpt lat="42.379467" lon="-8.628913"/><trkpt lat="42.379606" lon="-8.629087"/><trkpt lat="42.379667" lon="-8.629149"/><trkpt lat="42.379712" lon="-8.629183"/><trkpt lat="42.37977" lon="-8.629213"/><trkpt lat="42.379848" lon="-8.629246"/><trkpt lat="42.380011" lon="-8.629294"/><trkpt lat="42.380187" lon="-8.62936"/><trkpt lat="42.380314" lon="-8.629412"/><trkpt lat="42.380443" lon="-8.629478"/><trkpt lat="42.380585" lon="-8.629541"/><trkpt lat="42.380696" lon="-8.629581"/><trkpt lat="42.38078" lon="-8.629597"/><trkpt lat="42.380862" lon="-8.629601"/><trkpt lat="42.380931" lon="-8.629595"/><trkpt lat="42.380968" lon="-8.629582"/><trkpt lat="42.381004" lon="-8.629569"/><trkpt lat="42.381075" lon="-8.629544"/><trkpt lat="42.381371" lon="-8.629487"/><trkpt lat="42.381522" lon="-8.629464"/><trkpt lat="42.381726" lon="-8.629527"/><trkpt lat="42.381996" lon="-8.629573"/><trkpt lat="42.382317" lon="-8.629608"/><trkpt lat="42.382536" lon="-8.629612"/><trkpt lat="42.382757" lon="-8.629634"/><trkpt lat="42.382907" lon="-8.629675"/><trkpt lat="42.382964" lon="-8.629751"/><trkpt lat="42.383011" lon="-8.629781"/><trkpt lat="42.383052" lon="-8.629766"/><trkpt lat="42.383126" lon="-8.629766"/><trkpt lat="42.383198" lon="-8.629797"/><trkpt lat="42.383269" lon="-8.629842"/><trkpt lat="42.383364" lon="-8.629894"/><trkpt lat="42.383428" lon="-8.629929"/><trkpt lat="42.38348" lon="-8.629969"/><trkpt lat="42.383533" lon="-8.630019"/><trkpt lat="42.383584" lon="-8.630079"/><trkpt lat="42.383627" lon="-8.63009"/><trkpt lat="42.38367" lon="-8.630091"/><trkpt lat="42.383703" lon="-8.630079"/><trkpt lat="42.383752" lon="-8.630052"/><trkpt lat="42.383796" lon="-8.63002"/><trkpt lat="42.383848" lon="-8.629987"/><trkpt lat="42.383911" lon="-8.629962"/><trkpt lat="42.383976" lon="-8.629966"/><trkpt lat="42.384032" lon="-8.62999"/><trkpt lat="42.384062" lon="-8.630026"/><trkpt lat="42.384146" lon="-8.630131"/><trkpt lat="42.384193" lon="-8.630194"/><trkpt lat="42.384249" lon="-8.630245"/><trkpt lat="42.384335" lon="-8.630324"/><trkpt lat="42.384472" lon="-8.63045"/><trkpt lat="42.384548" lon="-8.630525"/><trkpt lat="42.384584" lon="-8.630578"/><trkpt lat="42.384595" lon="-8.630623"/><trkpt lat="42.384705" lon="-8.63061"/><trkpt lat="42.384924" lon="-8.630559"/><trkpt lat="42.385063" lon="-8.630517"/><trkpt lat="42.385167" lon="-8.6305"/><trkpt lat="42.385516" lon="-8.630463"/><trkpt lat="42.385832" lon="-8.630436"/><trkpt lat="42.386055" lon="-8.630437"/><trkpt lat="42.38618" lon="-8.630433"/><trkpt lat="42.386297" lon="-8.630402"/><trkpt lat="42.386366" lon="-8.630382"/><trkpt lat="42.386426" lon="-8.630363"/><trkpt lat="42.386483" lon="-8.630339"/><trkpt lat="42.386524" lon="-8.630308"/><trkpt lat="42.386593" lon="-8.630251"/><trkpt lat="42.386662" lon="-8.630182"/><trkpt lat="42.386724" lon="-8.630124"/><trkpt lat="42.386799" lon="-8.630068"/><trkpt lat="42.386896" lon="-8.629996"/><trkpt lat="42.38698" lon="-8.629941"/><trkpt lat="42.387057" lon="-8.629904"/><trkpt lat="42.387162" lon="-8.629858"/><trkpt lat="42.387246" lon="-8.629818"/><trkpt lat="42.387302" lon="-8.629789"/><trkpt lat="42.387372" lon="-8.629749"/><trkpt lat="42.387436" lon="-8.629705"/><trkpt lat="42.387502" lon="-8.629657"/><trkpt lat="42.387605" lon="-8.629577"/><trkpt lat="42.387712" lon="-8.629508"/><trkpt lat="42.387769" lon="-8.629476"/><trkpt lat="42.387822" lon="-8.629473"/><trkpt lat="42.387882" lon="-8.629473"/><trkpt lat="42.387965" lon="-8.629478"/><trkpt lat="42.388048" lon="-8.629501"/><trkpt lat="42.388155" lon="-8.629549"/><trkpt lat="42.388346" lon="-8.629639"/><trkpt lat="42.388595" lon="-8.629747"/><trkpt lat="42.38876" lon="-8.629811"/><trkpt lat="42.388931" lon="-8.629876"/><trkpt lat="42.389026" lon="-8.629912"/><trkpt lat="42.389126" lon="-8.629936"/><trkpt lat="42.389238" lon="-8.629963"/><trkpt lat="42.389362" lon="-8.63"/><trkpt lat="42.389455" lon="-8.63001"/><trkpt lat="42.389581" lon="-8.63001"/><trkpt lat="42.389736" lon="-8.630009"/><trkpt lat="42.389859" lon="-8.629999"/><trkpt lat="42.389938" lon="-8.629992"/><trkpt lat="42.390019" lon="-8.629984"/><trkpt lat="42.390125" lon="-8.629966"/><trkpt lat="42.390181" lon="-8.629961"/><trkpt lat="42.39022" lon="-8.629959"/><trkpt lat="42.39026" lon="-8.62995"/><trkpt lat="42.390299" lon="-8.629937"/><trkpt lat="42.390337" lon="-8.629921"/><trkpt lat="42.390421" lon="-8.629876"/><trkpt lat="42.390524" lon="-8.629821"/><trkpt lat="42.390603" lon="-8.62979"/><trkpt lat="42.390704" lon="-8.629761"/><trkpt lat="42.390827" lon="-8.629736"/><trkpt lat="42.390964" lon="-8.629714"/><trkpt lat="42.391116" lon="-8.629695"/><trkpt lat="42.391297" lon="-8.6297"/><trkpt lat="42.391442" lon="-8.629724"/><trkpt lat="42.391576" lon="-8.62974"/><trkpt lat="42.391705" lon="-8.629756"/><trkpt lat="42.391819" lon="-8.629818"/><trkpt lat="42.391909" lon="-8.629868"/><trkpt lat="42.391962" lon="-8.629884"/><trkpt lat="42.392015" lon="-8.629894"/><trkpt lat="42.392061" lon="-8.629901"/><trkpt lat="42.392124" lon="-8.629897"/><trkpt lat="42.392183" lon="-8.629886"/><trkpt lat="42.392293" lon="-8.629848"/><trkpt lat="42.392456" lon="-8.629787"/><trkpt lat="42.392632" lon="-8.629737"/><trkpt lat="42.39286" lon="-8.629662"/><trkpt lat="42.39299" lon="-8.629649"/><trkpt lat="42.393098" lon="-8.629609"/><trkpt lat="42.393357" lon="-8.629555"/><trkpt lat="42.393551" lon="-8.629521"/><trkpt lat="42.393693" lon="-8.629508"/><trkpt lat="42.393902" lon="-8.629516"/><trkpt lat="42.39405" lon="-8.629506"/><trkpt lat="42.394235" lon="-8.629461"/><trkpt lat="42.394359" lon="-8.629411"/><trkpt lat="42.394528" lon="-8.629307"/><trkpt lat="42.394812" lon="-8.62915"/><trkpt lat="42.394992" lon="-8.629021"/><trkpt lat="42.395103" lon="-8.628991"/><trkpt lat="42.395345" lon="-8.628944"/><trkpt lat="42.395681" lon="-8.628879"/><trkpt lat="42.395919" lon="-8.628846"/><trkpt lat="42.396053" lon="-8.628883"/><trkpt lat="42.396209" lon="-8.629047"/><trkpt lat="42.396426" lon="-8.629341"/><trkpt lat="42.396709" lon="-8.629704"/><trkpt lat="42.396818" lon="-8.629829"/><trkpt lat="42.396879" lon="-8.629858"/><trkpt lat="42.397047" lon="-8.629874"/><trkpt lat="42.397224" lon="-8.629938"/><trkpt lat="42.397414" lon="-8.62996"/><trkpt lat="42.39756" lon="-8.629976"/><trkpt lat="42.397639" lon="-8.629976"/><trkpt lat="42.397736" lon="-8.629944"/><trkpt lat="42.397995" lon="-8.629851"/><trkpt lat="42.398178" lon="-8.629793"/><trkpt lat="42.398274" lon="-8.629757"/><trkpt lat="42.398344" lon="-8.629751"/><trkpt lat="42.398516" lon="-8.629756"/><trkpt lat="42.398675" lon="-8.629777"/><trkpt lat="42.398794" lon="-8.629796"/><trkpt lat="42.398928" lon="-8.629832"/><trkpt lat="42.399079" lon="-8.629893"/><trkpt lat="42.399206" lon="-8.629957"/><trkpt lat="42.399338" lon="-8.630051"/><trkpt lat="42.399511" lon="-8.630155"/><trkpt lat="42.399717" lon="-8.630244"/><trkpt lat="42.399828" lon="-8.630301"/><trkpt lat="42.399889" lon="-8.630333"/><trkpt lat="42.399944" lon="-8.630337"/><trkpt lat="42.400032" lon="-8.630386"/><trkpt lat="42.400153" lon="-8.630442"/><trkpt lat="42.400327" lon="-8.630533"/><trkpt lat="42.400437" lon="-8.630607"/><trkpt lat="42.400517" lon="-8.630668"/><trkpt lat="42.400603" lon="-8.630755"/><trkpt lat="42.400691" lon="-8.630847"/><trkpt lat="42.400842" lon="-8.63103"/><trkpt lat="42.400983" lon="-8.631201"/><trkpt lat="42.401598" lon="-8.631875"/><trkpt lat="42.40175" lon="-8.632042"/><trkpt lat="42.401859" lon="-8.632125"/><trkpt lat="42.401966" lon="-8.63217"/><trkpt lat="42.402084" lon="-8.632173"/><trkpt lat="42.402373" lon="-8.632159"/><trkpt lat="42.40263" lon="-8.632144"/><trkpt lat="42.402816" lon="-8.632143"/><trkpt lat="42.403279" lon="-8.632164"/><trkpt lat="42.40363" lon="-8.632232"/><trkpt lat="42.404061" lon="-8.632297"/><trkpt lat="42.404444" lon="-8.63235"/><trkpt lat="42.404768" lon="-8.632418"/><trkpt lat="42.404971" lon="-8.632491"/><trkpt lat="42.405127" lon="-8.632531"/><trkpt lat="42.405372" lon="-8.632533"/><trkpt lat="42.405548" lon="-8.632556"/><trkpt lat="42.405855" lon="-8.632613"/><trkpt lat="42.406184" lon="-8.63272"/><trkpt lat="42.406494" lon="-8.632885"/><trkpt lat="42.406784" lon="-8.63302"/><trkpt lat="42.407033" lon="-8.633132"/><trkpt lat="42.407265" lon="-8.633189"/><trkpt lat="42.407484" lon="-8.633214"/><trkpt lat="42.40778" lon="-8.633251"/><trkpt lat="42.408116" lon="-8.633317"/><trkpt lat="42.408287" lon="-8.633357"/><trkpt lat="42.408503" lon="-8.633382"/><trkpt lat="42.408765" lon="-8.633384"/><trkpt lat="42.409155" lon="-8.633338"/><trkpt lat="42.409505" lon="-8.633236"/><trkpt lat="42.409856" lon="-8.633117"/><trkpt lat="42.410172" lon="-8.633106"/><trkpt lat="42.410525" lon="-8.633064"/><trkpt lat="42.410803" lon="-8.63306"/><trkpt lat="42.411142" lon="-8.633108"/><trkpt lat="42.411544" lon="-8.633101"/><trkpt lat="42.411932" lon="-8.633068"/><trkpt lat="42.412209" lon="-8.633056"/><trkpt lat="42.412436" lon="-8.633071"/><trkpt lat="42.412639" lon="-8.633117"/><trkpt lat="42.412806" lon="-8.633155"/><trkpt lat="42.41312" lon="-8.633182"/><trkpt lat="42.413222" lon="-8.633172"/><trkpt lat="42.413489" lon="-8.633105"/><trkpt lat="42.413759" lon="-8.633052"/><trkpt lat="42.413992" lon="-8.633037"/><trkpt lat="42.414238" lon="-8.633078"/><trkpt lat="42.414724" lon="-8.633206"/><trkpt lat="42.41501" lon="-8.633246"/><trkpt lat="42.415242" lon="-8.633229"/><trkpt lat="42.415473" lon="-8.633126"/><trkpt lat="42.415688" lon="-8.633136"/><trkpt lat="42.416116" lon="-8.633358"/><trkpt lat="42.416358" lon="-8.633547"/><trkpt lat="42.416408" lon="-8.633426"/><trkpt lat="42.416684" lon="-8.633526"/><trkpt lat="42.416754" lon="-8.633082"/><trkpt lat="42.416879" lon="-8.633101"/><trkpt lat="42.416885" lon="-8.633409"/><trkpt lat="42.416955" lon="-8.633507"/><trkpt lat="42.416955" lon="-8.633604"/><trkpt lat="42.417074" lon="-8.633646"/><trkpt lat="42.417254" lon="-8.633632"/><trkpt lat="42.417457" lon="-8.633615"/><trkpt lat="42.417698" lon="-8.633614"/><trkpt lat="42.417834" lon="-8.633669"/><trkpt lat="42.417954" lon="-8.633803"/><trkpt lat="42.418045" lon="-8.63393"/><trkpt lat="42.418144" lon="-8.63409"/><trkpt lat="42.418228" lon="-8.634339"/><trkpt lat="42.418311" lon="-8.634294"/><trkpt lat="42.418337" lon="-8.634405"/><trkpt lat="42.418328" lon="-8.634489"/><trkpt lat="42.418376" lon="-8.6349"/><trkpt lat="42.41847" lon="-8.635253"/><trkpt lat="42.418545" lon="-8.635514"/><trkpt lat="42.418598" lon="-8.635643"/><trkpt lat="42.418665" lon="-8.635677"/><trkpt lat="42.41868" lon="-8.635784"/><trkpt lat="42.418647" lon="-8.635813"/><trkpt lat="42.418668" lon="-8.635956"/><trkpt lat="42.418729" lon="-8.636124"/><trkpt lat="42.418772" lon="-8.63616"/><trkpt lat="42.418839" lon="-8.636182"/><trkpt lat="42.418971" lon="-8.636201"/><trkpt lat="42.419102" lon="-8.636238"/><trkpt lat="42.419208" lon="-8.636292"/><trkpt lat="42.419338" lon="-8.636358"/><trkpt lat="42.419543" lon="-8.636426"/><trkpt lat="42.419556" lon="-8.63643"/></trkseg></trk></gpx>
